{
  "{}": {
    "error": "",
    "response": [
      {
        "city": "Darmstadt",
        "district": "Darmstadt, Wissenschaftsstadt",
        "lat": 49.8719,
        "long": 8.6484,
        "postal_code": 64283,
        "postal_code_5": "64283",
        "state": "Hessen"
      },
      {
        "city": "Darmstadt",
        "district": "Darmstadt, Wissenschaftsstadt",
        "lat": 49.8591,
        "long": 8.6486,
        "postal_code": 64285,
        "postal_code_5": "64285",
        "state": "Hessen"
      },
      {
        "city": "Darmstadt",
        "district": "Darmstadt, Wissenschaftsstadt",
        "lat": 49.8676,
        "long": 8.6644,
        "postal_code": 64287,
        "postal_code_5": "64287",
        "state": "Hessen"
      },
      {
        "city": "Darmstadt",
        "district": "Darmstadt, Wissenschaftsstadt",
        "lat": 49.8972,
        "long": 8.6809,
        "postal_code": 64289,
        "postal_code_5": "64289",
        "state": "Hessen"
      },
      {
        "city": "Darmstadt",
        "district": "Darmstadt, Wissenschaftsstadt",
        "lat": 49.9111,
        "long": 8.6573,
        "postal_code": 64291,
        "postal_code_5": "64291",
        "state": "Hessen"
      },
      {
        "city": "Darmstadt",
        "district": "Darmstadt, Wissenschaftsstadt",
        "lat": 49.8875,
        "long": 8.6446,
        "postal_code": 64293,
        "postal_code_5": "64293",
        "state": "Hessen"
      },
      {
        "city": "Darmstadt",
        "district": "Darmstadt, Wissenschaftsstadt",
        "lat": 49.8611,
        "long": 8.6373,
        "postal_code": 64295,
        "postal_code_5": "64295",
        "state": "Hessen"
      },
      {
        "city": "Darmstadt",
        "district": "Darmstadt, Wissenschaftsstadt",
        "lat": 49.8192,
        "long": 8.6449,
        "postal_code": 64297,
        "postal_code_5": "64297",
        "state": "Hessen"
      }
    ]
  }
}