{
  "{\n  \"lat\": \"36.5691\",\n  \"lng\": \"-121.9504\",\n  \"radius\": \"10\"\n}": {
    "error": "",
    "response": "{\"courses\":[{\"name\":\"Golf Links Course at Pebble Beach Golf Links\",\"zip_code\":\"93953\",\"distance\":0.0},{\"name\":\"Cypress Point Club\",\"zip_code\":\"93953\",\"distance\":0.3},{\"name\":\"Cypress Point Club\",\"zip_code\":\"93953\",\"distance\":0.3},{\"name\":\"Spyglass Hill Golf Course\",\"zip_code\":\"93953\",\"distance\":1.0},{\"name\":\"Spyglass Hill Golf Course\",\"zip_code\":\"93953\",\"distance\":1.0},{\"name\":\"Poppy Hills Golf Course\",\"zip_code\":\"93953\",\"distance\":1.2},{\"name\":\"Dunes Course at Monterey Peninsula Country Club\",\"zip_code\":\"93953\",\"distance\":2.2},{\"name\":\"The Links at Spanish Bay\",\"zip_code\":\"93953\",\"distance\":2.9},{\"name\":\"West Course at Rancho Canada Golf Club\",\"zip_code\":\"93923\",\"distance\":3.9},{\"name\":\"Pacific Grove Municipal Golf Course\",\"zip_code\":\"93950\",\"distance\":4.6},{\"name\":\"Del Monte Golf Course\",\"zip_code\":\"93940\",\"distance\":4.7},{\"name\":\"Naval Postgraduate School Golf Course\",\"zip_code\":\"93940\",\"distance\":5.0},{\"name\":\"Quail Lodge Resort & Golf Club\",\"zip_code\":\"93923\",\"distance\":6.0},{\"name\":\"The Bayonet Course at Bayonet/Black Horse Golf Course\",\"zip_code\":\"93955\",\"distance\":8.4},{\"name\":\"Carmel Valley Ranch Resort\",\"zip_code\":\"93923\",\"distance\":8.7},{\"name\":\"Tehama Golf Club\",\"zip_code\":\"93923\",\"distance\":8.8},{\"name\":\"Laguna Seca Ranch Golf Club\",\"zip_code\":\"93940\",\"distance\":9.0},{\"name\":\"Pasadera Country Club\",\"zip_code\":\"93940\",\"distance\":9.8}]}"
  },
  "{'lat': '34.0522', 'lng': '-118.2437', 'radius': '10'}": {
    "error": "",
    "response": {
      "courses": [
        {
          "name": "Monterey Park Golf Course",
          "zip_code": "91754",
          "distance": 4.6
        },
        {
          "name": "Los Feliz Golf Course",
          "zip_code": "90039",
          "distance": 5.1
        },
        {
          "name": "Wilshire Country Club",
          "zip_code": "90004",
          "distance": 5.3
        },
        {
          "name": "Roosevelt Municipal Golf Course",
          "zip_code": "90027",
          "distance": 5.3
        },
        {
          "name": "Arroyo Seco Golf Course",
          "zip_code": "91030",
          "distance": 6.0
        },
        {
          "name": "Harding Course at Griffith Park Golf Courses",
          "zip_code": "90027",
          "distance": 6.2
        },
        {
          "name": "Montebello Country Club",
          "zip_code": "90640",
          "distance": 6.6
        },
        {
          "name": "Annandale Golf Course",
          "zip_code": "91105",
          "distance": 7.5
        },
        {
          "name": "Alhambra Municipal Golf Course",
          "zip_code": "91801",
          "distance": 7.7
        },
        {
          "name": "Scholl Canyon Golf & Tennis Club",
          "zip_code": "91206",
          "distance": 8.1
        },
        {
          "name": "South Gate Municipal Golf Course",
          "zip_code": "90280",
          "distance": 8.2
        },
        {
          "name": "Maggie Hathaway Par 3 Golf Course",
          "zip_code": "90047",
          "distance": 8.3
        },
        {
          "name": "Ford Park Golf Course",
          "zip_code": "90201",
          "distance": 8.4
        },
        {
          "name": "Lakeside Golf Club",
          "zip_code": "91505",
          "distance": 8.6
        },
        {
          "name": "Chevy Chase Country Club",
          "zip_code": "91206",
          "distance": 8.6
        },
        {
          "name": "Rio Hondo Golf Club",
          "zip_code": "90240",
          "distance": 8.7
        },
        {
          "name": "Number One Course at Brookside Golf Club",
          "zip_code": "91103",
          "distance": 9.0
        },
        {
          "name": "Los Amigos Country Club",
          "zip_code": "90242",
          "distance": 9.2
        },
        {
          "name": "San Gabriel Country Club",
          "zip_code": "91776",
          "distance": 9.2
        },
        {
          "name": "Hillcrest Country Club",
          "zip_code": "90064",
          "distance": 9.3
        },
        {
          "name": "Nine Hole Course at Whittier Narrows Golf Course",
          "zip_code": "91770",
          "distance": 9.7
        },
        {
          "name": "Rancho Park Golf Course",
          "zip_code": "90064",
          "distance": 9.8
        },
        {
          "name": "Chester Washington Golf Course",
          "zip_code": "90047",
          "distance": 10.0
        },
        {
          "name": "Oakmont Country Club",
          "zip_code": "91208",
          "distance": 10.0
        }
      ]
    }
  },
  "{'lng': '37.7749', 'radius': '10', 'lat': '-122.4194'}": {
    "error": "",
    "response": {
      "courses": []
    }
  },
  "{'lng': '37.7749', 'radius': '20', 'lat': '-122.4194'}": {
    "error": "",
    "response": {
      "courses": []
    }
  },
  "{'lng': '37.7749', 'radius': '50', 'lat': '-122.4194'}": {
    "error": "",
    "response": {
      "courses": []
    }
  },
  "{'lat': '36.563885', 'lng': '-121.927517', 'radius': '10'}": {
    "error": "",
    "response": {
      "courses": [
        {
          "name": "Golf Links Course at Pebble Beach Golf Links",
          "zip_code": "93953",
          "distance": 1.3
        },
        {
          "name": "Cypress Point Club",
          "zip_code": "93953",
          "distance": 1.3
        },
        {
          "name": "Cypress Point Club",
          "zip_code": "93953",
          "distance": 1.3
        },
        {
          "name": "Poppy Hills Golf Course",
          "zip_code": "93953",
          "distance": 1.5
        },
        {
          "name": "Spyglass Hill Golf Course",
          "zip_code": "93953",
          "distance": 2.1
        },
        {
          "name": "Spyglass Hill Golf Course",
          "zip_code": "93953",
          "distance": 2.1
        },
        {
          "name": "West Course at Rancho Canada Golf Club",
          "zip_code": "93923",
          "distance": 2.6
        },
        {
          "name": "Dunes Course at Monterey Peninsula Country Club",
          "zip_code": "93953",
          "distance": 2.8
        },
        {
          "name": "The Links at Spanish Bay",
          "zip_code": "93953",
          "distance": 3.3
        },
        {
          "name": "Del Monte Golf Course",
          "zip_code": "93940",
          "distance": 3.7
        },
        {
          "name": "Naval Postgraduate School Golf Course",
          "zip_code": "93940",
          "distance": 4.0
        },
        {
          "name": "Quail Lodge Resort & Golf Club",
          "zip_code": "93923",
          "distance": 4.7
        },
        {
          "name": "Pacific Grove Municipal Golf Course",
          "zip_code": "93950",
          "distance": 4.8
        },
        {
          "name": "Carmel Valley Ranch Resort",
          "zip_code": "93923",
          "distance": 7.4
        },
        {
          "name": "Tehama Golf Club",
          "zip_code": "93923",
          "distance": 7.5
        },
        {
          "name": "The Bayonet Course at Bayonet/Black Horse Golf Course",
          "zip_code": "93955",
          "distance": 7.5
        },
        {
          "name": "Laguna Seca Ranch Golf Club",
          "zip_code": "93940",
          "distance": 7.8
        },
        {
          "name": "Pasadera Country Club",
          "zip_code": "93940",
          "distance": 8.6
        }
      ]
    }
  },
  "{'lat': '36.568423', 'lng': '-121.949503', 'radius': '5'}": {
    "error": "",
    "response": {
      "courses": [
        {
          "name": "Golf Links Course at Pebble Beach Golf Links",
          "zip_code": "93953",
          "distance": 0.1
        },
        {
          "name": "Cypress Point Club",
          "zip_code": "93953",
          "distance": 0.3
        },
        {
          "name": "Cypress Point Club",
          "zip_code": "93953",
          "distance": 0.3
        },
        {
          "name": "Spyglass Hill Golf Course",
          "zip_code": "93953",
          "distance": 1.0
        },
        {
          "name": "Spyglass Hill Golf Course",
          "zip_code": "93953",
          "distance": 1.0
        },
        {
          "name": "Poppy Hills Golf Course",
          "zip_code": "93953",
          "distance": 1.2
        },
        {
          "name": "Dunes Course at Monterey Peninsula Country Club",
          "zip_code": "93953",
          "distance": 2.3
        },
        {
          "name": "The Links at Spanish Bay",
          "zip_code": "93953",
          "distance": 2.9
        },
        {
          "name": "West Course at Rancho Canada Golf Club",
          "zip_code": "93923",
          "distance": 3.8
        },
        {
          "name": "Pacific Grove Municipal Golf Course",
          "zip_code": "93950",
          "distance": 4.6
        },
        {
          "name": "Del Monte Golf Course",
          "zip_code": "93940",
          "distance": 4.6
        },
        {
          "name": "Naval Postgraduate School Golf Course",
          "zip_code": "93940",
          "distance": 5.0
        }
      ]
    }
  },
  "{'lat': '37.7749', 'lng': '-122.4194', 'radius': '5'}": {
    "error": "",
    "response": {
      "courses": [
        {
          "name": "The Olympic Club",
          "zip_code": "94102",
          "distance": 1.0
        },
        {
          "name": "Presidio Golf Course",
          "zip_code": "94129",
          "distance": 1.6
        },
        {
          "name": "Lincoln Park Golf Course",
          "zip_code": "94121",
          "distance": 4.2
        },
        {
          "name": "Gleneagles Golf Club",
          "zip_code": "94134",
          "distance": 4.2
        },
        {
          "name": "Golden Gate Park Golf Course",
          "zip_code": "94121",
          "distance": 4.8
        }
      ]
    }
  },
  "{'lat': '36.5629', 'lng': '-121.9434', 'radius': '10'}": {
    "error": "",
    "response": {
      "courses": [
        {
          "name": "Golf Links Course at Pebble Beach Golf Links",
          "zip_code": "93953",
          "distance": 0.6
        },
        {
          "name": "Cypress Point Club",
          "zip_code": "93953",
          "distance": 0.7
        },
        {
          "name": "Cypress Point Club",
          "zip_code": "93953",
          "distance": 0.7
        },
        {
          "name": "Poppy Hills Golf Course",
          "zip_code": "93953",
          "distance": 1.5
        },
        {
          "name": "Spyglass Hill Golf Course",
          "zip_code": "93953",
          "distance": 1.5
        },
        {
          "name": "Spyglass Hill Golf Course",
          "zip_code": "93953",
          "distance": 1.5
        },
        {
          "name": "Dunes Course at Monterey Peninsula Country Club",
          "zip_code": "93953",
          "distance": 2.7
        },
        {
          "name": "The Links at Spanish Bay",
          "zip_code": "93953",
          "distance": 3.2
        },
        {
          "name": "West Course at Rancho Canada Golf Club",
          "zip_code": "93923",
          "distance": 3.4
        },
        {
          "name": "Del Monte Golf Course",
          "zip_code": "93940",
          "distance": 4.5
        },
        {
          "name": "Naval Postgraduate School Golf Course",
          "zip_code": "93940",
          "distance": 4.8
        },
        {
          "name": "Pacific Grove Municipal Golf Course",
          "zip_code": "93950",
          "distance": 4.9
        },
        {
          "name": "Quail Lodge Resort & Golf Club",
          "zip_code": "93923",
          "distance": 5.5
        },
        {
          "name": "Carmel Valley Ranch Resort",
          "zip_code": "93923",
          "distance": 8.2
        },
        {
          "name": "Tehama Golf Club",
          "zip_code": "93923",
          "distance": 8.2
        },
        {
          "name": "The Bayonet Course at Bayonet/Black Horse Golf Course",
          "zip_code": "93955",
          "distance": 8.3
        },
        {
          "name": "Laguna Seca Ranch Golf Club",
          "zip_code": "93940",
          "distance": 8.6
        },
        {
          "name": "Pasadera Country Club",
          "zip_code": "93940",
          "distance": 9.5
        }
      ]
    }
  },
  "{'lat': '36.56910381018662', 'lng': '-121.95035631683683', 'radius': '10'}": {
    "error": "",
    "response": {
      "courses": [
        {
          "name": "Golf Links Course at Pebble Beach Golf Links",
          "zip_code": "93953",
          "distance": 0.0
        },
        {
          "name": "Cypress Point Club",
          "zip_code": "93953",
          "distance": 0.3
        },
        {
          "name": "Cypress Point Club",
          "zip_code": "93953",
          "distance": 0.3
        },
        {
          "name": "Spyglass Hill Golf Course",
          "zip_code": "93953",
          "distance": 1.0
        },
        {
          "name": "Spyglass Hill Golf Course",
          "zip_code": "93953",
          "distance": 1.0
        },
        {
          "name": "Poppy Hills Golf Course",
          "zip_code": "93953",
          "distance": 1.2
        },
        {
          "name": "Dunes Course at Monterey Peninsula Country Club",
          "zip_code": "93953",
          "distance": 2.2
        },
        {
          "name": "The Links at Spanish Bay",
          "zip_code": "93953",
          "distance": 2.9
        },
        {
          "name": "West Course at Rancho Canada Golf Club",
          "zip_code": "93923",
          "distance": 3.9
        },
        {
          "name": "Pacific Grove Municipal Golf Course",
          "zip_code": "93950",
          "distance": 4.6
        },
        {
          "name": "Del Monte Golf Course",
          "zip_code": "93940",
          "distance": 4.7
        },
        {
          "name": "Naval Postgraduate School Golf Course",
          "zip_code": "93940",
          "distance": 5.0
        },
        {
          "name": "Quail Lodge Resort & Golf Club",
          "zip_code": "93923",
          "distance": 6.0
        },
        {
          "name": "The Bayonet Course at Bayonet/Black Horse Golf Course",
          "zip_code": "93955",
          "distance": 8.4
        },
        {
          "name": "Carmel Valley Ranch Resort",
          "zip_code": "93923",
          "distance": 8.7
        },
        {
          "name": "Tehama Golf Club",
          "zip_code": "93923",
          "distance": 8.8
        },
        {
          "name": "Laguna Seca Ranch Golf Club",
          "zip_code": "93940",
          "distance": 9.0
        },
        {
          "name": "Pasadera Country Club",
          "zip_code": "93940",
          "distance": 9.8
        }
      ]
    }
  },
  "{'lat': '51.4975', 'lng': '-0.1357', 'radius': '5'}": {
    "error": "",
    "response": {
      "courses": []
    }
  },
  "{'lat': '48.8566', 'lng': '2.3522', 'radius': '5'}": {
    "error": "",
    "response": {
      "courses": []
    }
  },
  "{'lat': '48.85341', 'lng': '2.3488', 'radius': '1'}": {
    "error": "",
    "response": {
      "courses": []
    }
  },
  "{'lat': '48.8566', 'lng': '2.3522', 'radius': '1'}": {
    "error": "",
    "response": {
      "courses": []
    }
  },
  "{'lat': '51.5074', 'lng': '-0.1278', 'radius': '1'}": {
    "error": "",
    "response": {
      "courses": []
    }
  },
  "{'lat': '36.5666', 'lng': '-121.9460', 'radius': '1'}": {
    "error": "",
    "response": {
      "courses": [
        {
          "name": "Golf Links Course at Pebble Beach Golf Links",
          "zip_code": "93953",
          "distance": 0.3
        },
        {
          "name": "Cypress Point Club",
          "zip_code": "93953",
          "distance": 0.5
        },
        {
          "name": "Cypress Point Club",
          "zip_code": "93953",
          "distance": 0.5
        }
      ]
    }
  },
  "{'lng': '-121.947311', 'radius': '1', 'lat': '36.564812'}": {
    "error": "",
    "response": {
      "courses": [
        {
          "name": "Golf Links Course at Pebble Beach Golf Links",
          "zip_code": "93953",
          "distance": 0.3
        },
        {
          "name": "Cypress Point Club",
          "zip_code": "93953",
          "distance": 0.6
        },
        {
          "name": "Cypress Point Club",
          "zip_code": "93953",
          "distance": 0.6
        }
      ]
    }
  },
  "{'lat': '51.5074', 'lng': '-0.1278', 'radius': '5'}": {
    "error": "",
    "response": {
      "courses": []
    }
  },
  "{'lng': '-117.084196', 'radius': '50', 'lat': '33.119207'}": {
    "error": "",
    "response": {
      "courses": [
        {
          "name": "Reidy Creek Golf Course",
          "zip_code": "92026",
          "distance": 2.9
        },
        {
          "name": "Escondido Country Club",
          "zip_code": "92026",
          "distance": 3.5
        },
        {
          "name": "The Vineyard at Escondido",
          "zip_code": "92025",
          "distance": 3.7
        },
        {
          "name": "Eagle Crest Golf Club",
          "zip_code": "92027",
          "distance": 4.5
        },
        {
          "name": "Twin Oaks Golf Course",
          "zip_code": "92069",
          "distance": 5.4
        },
        {
          "name": "East/South Course at Oaks North Golf Course",
          "zip_code": "92128",
          "distance": 6.2
        },
        {
          "name": "Rancho Bernardo Golf Club",
          "zip_code": "92128",
          "distance": 6.2
        },
        {
          "name": "Rancho Bernardo Inn",
          "zip_code": "92128",
          "distance": 6.3
        },
        {
          "name": "Meadow Lake Golf Club",
          "zip_code": "92026",
          "distance": 6.7
        },
        {
          "name": "Fairbanks Ranch Country Club",
          "zip_code": "92067",
          "distance": 6.7
        },
        {
          "name": "Executive Course at Lake San Marcos Country Club",
          "zip_code": "92078",
          "distance": 6.8
        },
        {
          "name": "Maderas Golf Club",
          "zip_code": "92064",
          "distance": 6.9
        },
        {
          "name": "Stoneridge Country Club",
          "zip_code": "92064",
          "distance": 7.1
        },
        {
          "name": "Woods Valley Golf Club",
          "zip_code": "92082",
          "distance": 7.1
        },
        {
          "name": "The Bridges at Rancho Santa Fe",
          "zip_code": "92091",
          "distance": 7.8
        },
        {
          "name": "Lake San Marcos Resort & Executive Golf Course",
          "zip_code": "92078",
          "distance": 7.8
        },
        {
          "name": "Bernardo Heights Country Club",
          "zip_code": "92128",
          "distance": 7.9
        },
        {
          "name": "The Fountains Executive Course at Welk Resort - San Diego",
          "zip_code": "92026",
          "distance": 8.7
        },
        {
          "name": "Shadowridge Golf Club",
          "zip_code": "92081",
          "distance": 9.1
        },
        {
          "name": "DoubleTree Carmel Highland Resort",
          "zip_code": "92129",
          "distance": 9.7
        },
        {
          "name": "Rancho Santa Fe Golf Club",
          "zip_code": "92091",
          "distance": 9.7
        },
        {
          "name": "Castle Creek Country Club",
          "zip_code": "92026",
          "distance": 9.8
        },
        {
          "name": "Carmel Mountain Ranch Country Club",
          "zip_code": "92128",
          "distance": 9.9
        },
        {
          "name": "Skyline Ranch",
          "zip_code": "92082",
          "distance": 10.0
        },
        {
          "name": "Mt. Woodson Golf Club",
          "zip_code": "92065",
          "distance": 10.4
        },
        {
          "name": "Rancho Santa Fe Farms Golf Club",
          "zip_code": "92014",
          "distance": 10.7
        },
        {
          "name": "Vista Valley Country Club",
          "zip_code": "92084",
          "distance": 10.8
        },
        {
          "name": "North Course at La Costa Resort & Spa",
          "zip_code": "92009",
          "distance": 10.8
        },
        {
          "name": "Ocean Hills Country Club",
          "zip_code": "92056",
          "distance": 10.9
        },
        {
          "name": "East/South Course at Morgan Run Resort & Club",
          "zip_code": "92091",
          "distance": 11.5
        },
        {
          "name": "Del Mar Country Club",
          "zip_code": "92091",
          "distance": 11.7
        },
        {
          "name": "Aviara Golf Club",
          "zip_code": "92011",
          "distance": 11.7
        },
        {
          "name": "Encinitas Ranch Golf Course",
          "zip_code": "92024",
          "distance": 11.7
        },
        {
          "name": "Lakes to Ocean Course at Fairbanks Ranch Country Club",
          "zip_code": "92091",
          "distance": 12.0
        },
        {
          "name": "Lomas Santa Fe Executive Golf Course",
          "zip_code": "92075",
          "distance": 12.2
        },
        {
          "name": "Lomas Santa Fe Country Club",
          "zip_code": "92075",
          "distance": 12.9
        },
        {
          "name": "Pauma Valley Country Club",
          "zip_code": "92061",
          "distance": 13.6
        },
        {
          "name": "San Luis Rey Downs Golf & Country Club",
          "zip_code": "92003",
          "distance": 13.8
        },
        {
          "name": "Rancho Carlsbad Country Club",
          "zip_code": "92008",
          "distance": 13.9
        },
        {
          "name": "The Meadows Del Mar",
          "zip_code": "92130",
          "distance": 14.0
        },
        {
          "name": "East Course at The Grand Golf Club",
          "zip_code": "92130",
          "distance": 14.1
        },
        {
          "name": "El Camino Country Club",
          "zip_code": "92056",
          "distance": 14.4
        },
        {
          "name": "The Golf Club of California",
          "zip_code": "92028",
          "distance": 15.6
        },
        {
          "name": "Emerald Isle Golf Course",
          "zip_code": "92057",
          "distance": 15.7
        },
        {
          "name": "Miramar Memorial Golf Course",
          "zip_code": "92145",
          "distance": 16.3
        },
        {
          "name": "Oceanside Golf Course",
          "zip_code": "92057",
          "distance": 16.4
        },
        {
          "name": "Oceanside Center City Golf Course",
          "zip_code": "92054",
          "distance": 16.7
        },
        {
          "name": "Fallbrook Golf Club",
          "zip_code": "92028",
          "distance": 16.9
        },
        {
          "name": "San Vicente Inn & Golf Club",
          "zip_code": "92065",
          "distance": 17.3
        },
        {
          "name": "North Course at Torrey Pines Municipal Golf Course",
          "zip_code": "92037",
          "distance": 17.5
        },
        {
          "name": "Barona Creek Golf Club",
          "zip_code": "92040",
          "distance": 18.1
        },
        {
          "name": "Par 3 Course at Marine Memorial Golf Course",
          "zip_code": "92055",
          "distance": 18.6
        },
        {
          "name": "Carlton Oaks Country Club",
          "zip_code": "92071",
          "distance": 19.6
        },
        {
          "name": "Willowbrook Country Club",
          "zip_code": "92040",
          "distance": 19.7
        },
        {
          "name": "La Jolla Beach & Tennis Club",
          "zip_code": "92037",
          "distance": 21.0
        },
        {
          "name": "La Jolla Country Club",
          "zip_code": "92038",
          "distance": 21.5
        },
        {
          "name": "Pala Mesa Resort",
          "zip_code": "92028",
          "distance": 21.6
        },
        {
          "name": "3 Par at Four Points",
          "zip_code": "92123",
          "distance": 21.7
        },
        {
          "name": "Mission Trails Golf Course",
          "zip_code": "92119",
          "distance": 22.1
        },
        {
          "name": "North Course at Admiral Baker Golf Course",
          "zip_code": "92120",
          "distance": 22.3
        },
        {
          "name": "Naval Station Golf Course",
          "zip_code": "92120",
          "distance": 22.6
        },
        {
          "name": "Tecolote Canyon Golf Course",
          "zip_code": "92111",
          "distance": 23.1
        },
        {
          "name": "Mission Bay Golf Course",
          "zip_code": "92109",
          "distance": 23.4
        },
        {
          "name": "Redhawk Golf Club",
          "zip_code": "92592",
          "distance": 24.1
        },
        {
          "name": "Oaks/Stonehouse Course at Temecula Creek Inn",
          "zip_code": "92592",
          "distance": 24.2
        },
        {
          "name": "Sun Valley Golf Course",
          "zip_code": "91942",
          "distance": 24.6
        },
        {
          "name": "Rancho del Cielo Golf Course",
          "zip_code": "92592",
          "distance": 24.7
        },
        {
          "name": "Friars/Presidio Course at Riverwalk Golf Club",
          "zip_code": "92110",
          "distance": 24.7
        },
        {
          "name": "Colina Park Golf Course",
          "zip_code": "92105",
          "distance": 25.4
        },
        {
          "name": "Oak Glen Course at Singing Hills Country Club At Sycuan",
          "zip_code": "92019",
          "distance": 25.8
        },
        {
          "name": "Presidio Hills Golf Course",
          "zip_code": "92110",
          "distance": 25.9
        },
        {
          "name": "Cross Creek Golf Club",
          "zip_code": "92590",
          "distance": 27.2
        },
        {
          "name": "Temeku Hills Golf Course",
          "zip_code": "92591",
          "distance": 27.4
        },
        {
          "name": "Monte Vista Course at Cottonwood at Rancho San Diego",
          "zip_code": "92019",
          "distance": 27.5
        },
        {
          "name": "Eighteen Hole Course at Balboa Park Municipal Golf Club",
          "zip_code": "92102",
          "distance": 27.8
        },
        {
          "name": "Canyon/Meadow Course at Steele Canyon Golf & Country Club",
          "zip_code": "91935",
          "distance": 28.2
        },
        {
          "name": "Warner Springs Ranch",
          "zip_code": "92086",
          "distance": 28.4
        },
        {
          "name": "North Island Golf Club",
          "zip_code": "92135",
          "distance": 29.8
        },
        {
          "name": "Sea 'n' Air Golf Course",
          "zip_code": "92135",
          "distance": 30.0
        },
        {
          "name": "Coronado Golf Course",
          "zip_code": "92118",
          "distance": 30.4
        },
        {
          "name": "Bonita Golf Club",
          "zip_code": "91902",
          "distance": 30.6
        },
        {
          "name": "The SCGA Member's Club",
          "zip_code": "92563",
          "distance": 30.7
        },
        {
          "name": "National City Golf Course",
          "zip_code": "91950",
          "distance": 31.7
        },
        {
          "name": "Chula Vista Golf Course",
          "zip_code": "91902",
          "distance": 31.7
        },
        {
          "name": "The Auld Course",
          "zip_code": "91914",
          "distance": 32.1
        },
        {
          "name": "The Colony Country Club",
          "zip_code": "92562",
          "distance": 32.3
        },
        {
          "name": "Bear Creek Golf & Country Club",
          "zip_code": "92562",
          "distance": 33.5
        },
        {
          "name": "Eastlake Country Club",
          "zip_code": "91915",
          "distance": 33.9
        },
        {
          "name": "San Diego Country Club",
          "zip_code": "91911",
          "distance": 34.3
        },
        {
          "name": "San Clemente Municipal Golf Course",
          "zip_code": "92672",
          "distance": 35.8
        },
        {
          "name": "Carnoustie/Muirfield Course at Pacific Golf & Country Club",
          "zip_code": "92673",
          "distance": 37.3
        },
        {
          "name": "Talega Golf Club",
          "zip_code": "92673",
          "distance": 37.9
        },
        {
          "name": "Diamond Valley Golf Club",
          "zip_code": "92543",
          "distance": 38.7
        },
        {
          "name": "Shorecliffs Golf Club",
          "zip_code": "92672",
          "distance": 39.3
        },
        {
          "name": "Canyon Lake Country Club",
          "zip_code": "92587",
          "distance": 39.5
        },
        {
          "name": "Menifee Lakes Country Club -Lakes/Palms",
          "zip_code": "92584",
          "distance": 39.6
        },
        {
          "name": "Hemet Golf Club",
          "zip_code": "92545",
          "distance": 40.7
        },
        {
          "name": "Cherry Hills Golf Course",
          "zip_code": "92586",
          "distance": 41.1
        },
        {
          "name": "North Golf Course",
          "zip_code": "92586",
          "distance": 41.8
        },
        {
          "name": "San Juan Hills Country Club",
          "zip_code": "92675",
          "distance": 41.9
        },
        {
          "name": "Palms Course at Borrego Springs Resort & Country Club",
          "zip_code": "92004",
          "distance": 42.1
        },
        {
          "name": "De Anza Desert Country Club",
          "zip_code": "92004",
          "distance": 42.1
        },
        {
          "name": "Echo Hills Golf Club",
          "zip_code": "92543",
          "distance": 42.4
        },
        {
          "name": "Club Circle Golf Course",
          "zip_code": "92004",
          "distance": 42.7
        },
        {
          "name": "Marbella Country Club",
          "zip_code": "92675",
          "distance": 42.7
        },
        {
          "name": "Road Runner Club",
          "zip_code": "92004",
          "distance": 42.9
        },
        {
          "name": "North Course at Coto de Caza Golf & Racquet Club",
          "zip_code": "92679",
          "distance": 43.7
        },
        {
          "name": "Monarch Beach Golf Links",
          "zip_code": "92629",
          "distance": 44.2
        },
        {
          "name": "Rams Hill Country Club",
          "zip_code": "92004",
          "distance": 44.3
        },
        {
          "name": "Colonial Country Club",
          "zip_code": "92545",
          "distance": 44.3
        },
        {
          "name": "Arroyo Trabuco Golf Club",
          "zip_code": "92692",
          "distance": 44.3
        },
        {
          "name": "Arroyo Fairways Mobile Home Club & Golf Course",
          "zip_code": "92544",
          "distance": 44.4
        },
        {
          "name": "Monarch Beach Golf Links",
          "zip_code": "92629",
          "distance": 44.4
        },
        {
          "name": "Golden Era Golf Course",
          "zip_code": "92583",
          "distance": 44.9
        },
        {
          "name": "Dove Canyon Country Club",
          "zip_code": "92679",
          "distance": 45.4
        },
        {
          "name": "El Niguel Country Club",
          "zip_code": "92677",
          "distance": 45.4
        },
        {
          "name": "Seven Hills Golf Club",
          "zip_code": "92543",
          "distance": 45.4
        },
        {
          "name": "Mission Viejo Country Club",
          "zip_code": "92691",
          "distance": 46.2
        },
        {
          "name": "Tijeras Creek Golf Club",
          "zip_code": "92688",
          "distance": 46.9
        },
        {
          "name": "Aliso Creek Golf Course",
          "zip_code": "92651",
          "distance": 47.2
        },
        {
          "name": "Casta del Sol Golf Course",
          "zip_code": "92692",
          "distance": 47.5
        },
        {
          "name": "Soboba Springs Royal Vista Golf Course",
          "zip_code": "92583",
          "distance": 47.5
        },
        {
          "name": "Laguna Hills Golf Course",
          "zip_code": "92653",
          "distance": 49.1
        },
        {
          "name": "Lake Forest Golf & Practice Center",
          "zip_code": "92630",
          "distance": 49.3
        },
        {
          "name": "Valley/Ridge Course at Aliso Viejo Golf Club",
          "zip_code": "92656",
          "distance": 49.5
        },
        {
          "name": "Aliso Viejo Golf Club -Ridge/Creek",
          "zip_code": "92656",
          "distance": 49.6
        }
      ]
    }
  },
  "{'lng': '-118.243683', 'radius': '50', 'lat': '34.052235'}": {
    "error": "",
    "response": {
      "courses": [
        {
          "name": "Monterey Park Golf Course",
          "zip_code": "91754",
          "distance": 4.6
        },
        {
          "name": "Los Feliz Golf Course",
          "zip_code": "90039",
          "distance": 5.1
        },
        {
          "name": "Wilshire Country Club",
          "zip_code": "90004",
          "distance": 5.3
        },
        {
          "name": "Roosevelt Municipal Golf Course",
          "zip_code": "90027",
          "distance": 5.3
        },
        {
          "name": "Arroyo Seco Golf Course",
          "zip_code": "91030",
          "distance": 6.0
        },
        {
          "name": "Harding Course at Griffith Park Golf Courses",
          "zip_code": "90027",
          "distance": 6.2
        },
        {
          "name": "Montebello Country Club",
          "zip_code": "90640",
          "distance": 6.6
        },
        {
          "name": "Annandale Golf Course",
          "zip_code": "91105",
          "distance": 7.5
        },
        {
          "name": "Alhambra Municipal Golf Course",
          "zip_code": "91801",
          "distance": 7.7
        },
        {
          "name": "Scholl Canyon Golf & Tennis Club",
          "zip_code": "91206",
          "distance": 8.1
        },
        {
          "name": "South Gate Municipal Golf Course",
          "zip_code": "90280",
          "distance": 8.2
        },
        {
          "name": "Maggie Hathaway Par 3 Golf Course",
          "zip_code": "90047",
          "distance": 8.3
        },
        {
          "name": "Ford Park Golf Course",
          "zip_code": "90201",
          "distance": 8.4
        },
        {
          "name": "Lakeside Golf Club",
          "zip_code": "91505",
          "distance": 8.6
        },
        {
          "name": "Chevy Chase Country Club",
          "zip_code": "91206",
          "distance": 8.6
        },
        {
          "name": "Rio Hondo Golf Club",
          "zip_code": "90240",
          "distance": 8.7
        },
        {
          "name": "Number One Course at Brookside Golf Club",
          "zip_code": "91103",
          "distance": 9.0
        },
        {
          "name": "Los Amigos Country Club",
          "zip_code": "90242",
          "distance": 9.2
        },
        {
          "name": "San Gabriel Country Club",
          "zip_code": "91776",
          "distance": 9.2
        },
        {
          "name": "Hillcrest Country Club",
          "zip_code": "90064",
          "distance": 9.3
        },
        {
          "name": "Nine Hole Course at Whittier Narrows Golf Course",
          "zip_code": "91770",
          "distance": 9.7
        },
        {
          "name": "Rancho Park Golf Course",
          "zip_code": "90064",
          "distance": 9.8
        },
        {
          "name": "Chester Washington Golf Course",
          "zip_code": "90047",
          "distance": 10.0
        },
        {
          "name": "Oakmont Country Club",
          "zip_code": "91208",
          "distance": 10.0
        },
        {
          "name": "The North Course at Los Angeles Country Club",
          "zip_code": "90024",
          "distance": 10.1
        },
        {
          "name": "Riveridge Golf Course",
          "zip_code": "90660",
          "distance": 10.8
        },
        {
          "name": "Par 3 Course at De Bell Municipal Golf Course",
          "zip_code": "91501",
          "distance": 11.2
        },
        {
          "name": "Studio City Golf Course",
          "zip_code": "91604",
          "distance": 11.4
        },
        {
          "name": "Compton Par 3 Golf Course",
          "zip_code": "90723",
          "distance": 11.4
        },
        {
          "name": "Altadena Golf Course",
          "zip_code": "91001",
          "distance": 11.5
        },
        {
          "name": "Westchester Golf Course",
          "zip_code": "90045",
          "distance": 11.6
        },
        {
          "name": "La Canada Flintridge Country Club",
          "zip_code": "91011",
          "distance": 11.7
        },
        {
          "name": "Bel-Air Country Club",
          "zip_code": "90077",
          "distance": 12.0
        },
        {
          "name": "Eaton Canyon Golf Course",
          "zip_code": "91107",
          "distance": 12.2
        },
        {
          "name": "Bellflower Golf & Tennis",
          "zip_code": "90706",
          "distance": 12.3
        },
        {
          "name": "Penmar Golf Course",
          "zip_code": "90066",
          "distance": 12.5
        },
        {
          "name": "Verdugo Hills Golf Course",
          "zip_code": "91042",
          "distance": 12.7
        },
        {
          "name": "The Lakes at El Segundo",
          "zip_code": "90245",
          "distance": 13.0
        },
        {
          "name": "North Course at Alondra Park Golf Course",
          "zip_code": "90260",
          "distance": 13.1
        },
        {
          "name": "California Country Club",
          "zip_code": "90601",
          "distance": 13.2
        },
        {
          "name": "Marriott Golf Course",
          "zip_code": "90266",
          "distance": 13.4
        },
        {
          "name": "Santa Anita Golf Course",
          "zip_code": "91006",
          "distance": 13.4
        },
        {
          "name": "Arcadia Golf Course",
          "zip_code": "91006",
          "distance": 13.5
        },
        {
          "name": "Brentwood Country Club",
          "zip_code": "90049",
          "distance": 13.6
        },
        {
          "name": "Victoria Golf Course",
          "zip_code": "90746",
          "distance": 13.6
        },
        {
          "name": "Dominguez Golf & Practice Center",
          "zip_code": "90745",
          "distance": 14.0
        },
        {
          "name": "Cerritos Iron-Wood Nine Golf Course",
          "zip_code": "90703",
          "distance": 14.2
        },
        {
          "name": "Lake/North Course at Mountain Gate Country Club",
          "zip_code": "90049",
          "distance": 14.2
        },
        {
          "name": "Wildwood Mobile Country Club",
          "zip_code": "91745",
          "distance": 14.6
        },
        {
          "name": "Candlewood Country Club",
          "zip_code": "90604",
          "distance": 14.7
        },
        {
          "name": "Norwalk Golf Center",
          "zip_code": "90650",
          "distance": 14.7
        },
        {
          "name": "The Riviera Country Club",
          "zip_code": "90272",
          "distance": 14.8
        },
        {
          "name": "Virginia Country Club",
          "zip_code": "90805",
          "distance": 15.0
        },
        {
          "name": "Friendly Hills Country Club",
          "zip_code": "90605",
          "distance": 15.4
        },
        {
          "name": "Angeles National Golf Club",
          "zip_code": "91040",
          "distance": 15.8
        },
        {
          "name": "Lakewood Country Club",
          "zip_code": "90712",
          "distance": 16.0
        },
        {
          "name": "Hansen Dam Golf Course",
          "zip_code": "91331",
          "distance": 16.7
        },
        {
          "name": "Balboa Course at Sepulveda Golf Complex",
          "zip_code": "91436",
          "distance": 16.8
        },
        {
          "name": "Woodley Lakes Golf Course",
          "zip_code": "91406",
          "distance": 16.9
        },
        {
          "name": "New Horizons Golf Course",
          "zip_code": "90505",
          "distance": 16.9
        },
        {
          "name": "Eighteen Hole Course at Van Nuys Golf Course",
          "zip_code": "91406",
          "distance": 16.9
        },
        {
          "name": "Heartwell Golf Course",
          "zip_code": "90713",
          "distance": 17.2
        },
        {
          "name": "La Mirada Golf Club",
          "zip_code": "90638",
          "distance": 17.2
        },
        {
          "name": "Skylinks Golf Course",
          "zip_code": "90808",
          "distance": 17.3
        },
        {
          "name": "Sea Aire Park Golf Course",
          "zip_code": "90505",
          "distance": 17.4
        },
        {
          "name": "Rancho Duarte Golf Club",
          "zip_code": "91010",
          "distance": 18.1
        },
        {
          "name": "Hacienda Golf Club",
          "zip_code": "90631",
          "distance": 18.1
        },
        {
          "name": "East Course at Braemar Country Club",
          "zip_code": "91356",
          "distance": 18.1
        },
        {
          "name": "El Caballero Country Club",
          "zip_code": "91356",
          "distance": 18.2
        },
        {
          "name": "Babe Didrikson Zaharias Course at Industry Hills Pacific Palms Resort",
          "zip_code": "91744",
          "distance": 18.3
        },
        {
          "name": "The Buena Park Golf Center",
          "zip_code": "90621",
          "distance": 18.3
        },
        {
          "name": "Harbor Park Golf Course",
          "zip_code": "90744",
          "distance": 18.5
        },
        {
          "name": "Westridge Golf Club",
          "zip_code": "90631",
          "distance": 18.5
        },
        {
          "name": "Lake/Valley Course at Los Coyotes Country Club",
          "zip_code": "90621",
          "distance": 18.9
        },
        {
          "name": "Mission Hills Little League Golf Course",
          "zip_code": "91343",
          "distance": 19.0
        },
        {
          "name": "Palos Verdes Golf Club",
          "zip_code": "90274",
          "distance": 19.1
        },
        {
          "name": "El Dorado Park Golf Club",
          "zip_code": "90815",
          "distance": 19.4
        },
        {
          "name": "Rolling Hills Country Club",
          "zip_code": "90274",
          "distance": 19.6
        },
        {
          "name": "Recreation Park American Golf Club",
          "zip_code": "90804",
          "distance": 19.6
        },
        {
          "name": "Azusa Greens Country Club",
          "zip_code": "91702",
          "distance": 20.1
        },
        {
          "name": "Recreation Park South",
          "zip_code": "90804",
          "distance": 20.1
        },
        {
          "name": "South Hills Country Club",
          "zip_code": "91791",
          "distance": 20.4
        },
        {
          "name": "Cypress Golf Club",
          "zip_code": "90720",
          "distance": 20.5
        },
        {
          "name": "El Cariso Golf Course",
          "zip_code": "91342",
          "distance": 20.6
        },
        {
          "name": "Fullerton Golf Course",
          "zip_code": "92835",
          "distance": 20.9
        },
        {
          "name": "Bixby Village Golf Course",
          "zip_code": "90803",
          "distance": 20.9
        },
        {
          "name": "Woodland Hills Country Club",
          "zip_code": "91364",
          "distance": 21.2
        },
        {
          "name": "Destroyer Course at Seal Beach Navy Golf Course",
          "zip_code": "90630",
          "distance": 21.4
        },
        {
          "name": "Old Ranch Country Club",
          "zip_code": "90740",
          "distance": 21.5
        },
        {
          "name": "Brea Golf Course",
          "zip_code": "92821",
          "distance": 21.6
        },
        {
          "name": "Miller Golf Course",
          "zip_code": "92801",
          "distance": 21.6
        },
        {
          "name": "Leisure World 3 Par Golf Course",
          "zip_code": "90740",
          "distance": 21.9
        },
        {
          "name": "Knollwood Golf Course",
          "zip_code": "91344",
          "distance": 22.0
        },
        {
          "name": "Glen Oaks Golf & Racquet Club",
          "zip_code": "91740",
          "distance": 22.1
        },
        {
          "name": "Coyote Hills Golf Course",
          "zip_code": "92831",
          "distance": 22.1
        },
        {
          "name": "East/North Course at Los Angeles Royal Vista Golf Club",
          "zip_code": "91789",
          "distance": 22.1
        },
        {
          "name": "Los Verdes Golf Course",
          "zip_code": "90275",
          "distance": 22.3
        },
        {
          "name": "Ocean Trails Golf Club",
          "zip_code": "90275",
          "distance": 23.1
        },
        {
          "name": "Imperial Golf Course",
          "zip_code": "92821",
          "distance": 23.3
        },
        {
          "name": "The Cascades Golf Club",
          "zip_code": "91342",
          "distance": 23.3
        },
        {
          "name": "Birch Hills Golf Course",
          "zip_code": "92821",
          "distance": 23.5
        },
        {
          "name": "Via Verde Country Club",
          "zip_code": "91773",
          "distance": 23.7
        },
        {
          "name": "Porter Valley Country Club",
          "zip_code": "91326",
          "distance": 23.9
        },
        {
          "name": "Diamond Bar Golf Course",
          "zip_code": "91765",
          "distance": 24.4
        },
        {
          "name": "Calabasas Golf & Country Club",
          "zip_code": "91302",
          "distance": 24.6
        },
        {
          "name": "Glendora Country Club",
          "zip_code": "91741",
          "distance": 24.9
        },
        {
          "name": "Alta Vista Country Club",
          "zip_code": "92870",
          "distance": 25.6
        },
        {
          "name": "Meadowlark Golf Course",
          "zip_code": "92649",
          "distance": 26.1
        },
        {
          "name": "Black Gold Golf Club",
          "zip_code": "92886",
          "distance": 26.1
        },
        {
          "name": "Mountain Course at Robinson Ranch",
          "zip_code": "91387",
          "distance": 26.8
        },
        {
          "name": "Mountain Meadows Golf Course",
          "zip_code": "91768",
          "distance": 26.9
        },
        {
          "name": "San Dimas Canyon Golf Course",
          "zip_code": "91773",
          "distance": 27.2
        },
        {
          "name": "Palm Lake Golf Course",
          "zip_code": "91766",
          "distance": 27.2
        },
        {
          "name": "Friendly Valley Golf Course",
          "zip_code": "91321",
          "distance": 27.5
        },
        {
          "name": "Sierra La Verne Country Club",
          "zip_code": "91750",
          "distance": 27.8
        },
        {
          "name": "David L. Baker Memorial Golf",
          "zip_code": "92708",
          "distance": 28.0
        },
        {
          "name": "Western Hills Golf & Country Club",
          "zip_code": "91709",
          "distance": 28.2
        },
        {
          "name": "River View Golf Course",
          "zip_code": "92706",
          "distance": 28.2
        },
        {
          "name": "River View Golf Course",
          "zip_code": "92706",
          "distance": 28.2
        },
        {
          "name": "Willowick Golf Course",
          "zip_code": "92703",
          "distance": 28.4
        },
        {
          "name": "Yorba Linda Country Club",
          "zip_code": "92886",
          "distance": 28.4
        },
        {
          "name": "Classic Course at Mile Square Golf Course",
          "zip_code": "92708",
          "distance": 28.7
        },
        {
          "name": "Marshall Canyon Golf Club",
          "zip_code": "91750",
          "distance": 28.9
        },
        {
          "name": "SeaCliff Country Club",
          "zip_code": "92648",
          "distance": 29.1
        },
        {
          "name": "Executive Course at Vista Valencia Golf Course",
          "zip_code": "91355",
          "distance": 29.5
        },
        {
          "name": "Claremont Golf Course",
          "zip_code": "91711",
          "distance": 30.5
        },
        {
          "name": "Simi Hills Golf Course",
          "zip_code": "93063",
          "distance": 30.5
        },
        {
          "name": "TPC at Valencia",
          "zip_code": "91381",
          "distance": 31.0
        },
        {
          "name": "Anaheim Hills Golf Course",
          "zip_code": "92807",
          "distance": 31.1
        },
        {
          "name": "Mesa Verde Country Club",
          "zip_code": "92626",
          "distance": 31.1
        },
        {
          "name": "Driftwood Golf Course",
          "zip_code": "92648",
          "distance": 31.2
        },
        {
          "name": "Sky Course at Lost Canyons Golf Club",
          "zip_code": "93063",
          "distance": 31.4
        },
        {
          "name": "North Course at Los Serranos Golf & Country Club",
          "zip_code": "91709",
          "distance": 31.7
        },
        {
          "name": "Ridgeline Executive Golf Course",
          "zip_code": "92869",
          "distance": 31.8
        },
        {
          "name": "Valencia Country Club",
          "zip_code": "91355",
          "distance": 31.8
        },
        {
          "name": "Lindero Country Club",
          "zip_code": "91301",
          "distance": 32.0
        },
        {
          "name": "Los Lagos Course at Costa Mesa Golf & Country Club",
          "zip_code": "92626",
          "distance": 32.1
        },
        {
          "name": "Santa Ana Country Club",
          "zip_code": "92626",
          "distance": 33.4
        },
        {
          "name": "Westlake Village Golf Course",
          "zip_code": "91361",
          "distance": 33.5
        },
        {
          "name": "Oaks/Lakes Course at North Ranch Country Club",
          "zip_code": "91362",
          "distance": 33.6
        },
        {
          "name": "El Prado Golf Courses -Butterfield Stage",
          "zip_code": "91708",
          "distance": 34.1
        },
        {
          "name": "Newport Beach Golf Course",
          "zip_code": "92660",
          "distance": 34.2
        },
        {
          "name": "Tustin Ranch Golf Club",
          "zip_code": "92782",
          "distance": 34.2
        },
        {
          "name": "Whispering Lakes Golf Course",
          "zip_code": "91761",
          "distance": 34.4
        },
        {
          "name": "Creekside Golf Course",
          "zip_code": "91761",
          "distance": 34.4
        },
        {
          "name": "Sinaloa Golf Course",
          "zip_code": "93065",
          "distance": 34.5
        },
        {
          "name": "Malibu Country Club",
          "zip_code": "90265",
          "distance": 35.1
        },
        {
          "name": "Orange Course at Green River Golf Club",
          "zip_code": "92880",
          "distance": 35.1
        },
        {
          "name": "Upland Hills Country Club",
          "zip_code": "91784",
          "distance": 35.2
        },
        {
          "name": "Wood Ranch Golf Club",
          "zip_code": "93065",
          "distance": 35.4
        },
        {
          "name": "Red Hill Country Club",
          "zip_code": "91730",
          "distance": 35.8
        },
        {
          "name": "Rancho San Joaquin Golf Course",
          "zip_code": "92612",
          "distance": 36.0
        },
        {
          "name": "Big Canyon Country Club",
          "zip_code": "92660",
          "distance": 36.1
        },
        {
          "name": "The Back Bay Golf Course",
          "zip_code": "92660",
          "distance": 36.3
        },
        {
          "name": "Crystalaire Country Club",
          "zip_code": "93544",
          "distance": 36.6
        },
        {
          "name": "Sunset Hills Country Club",
          "zip_code": "91360",
          "distance": 36.7
        },
        {
          "name": "The Newport Beach Country Club",
          "zip_code": "92660",
          "distance": 36.9
        },
        {
          "name": "Sherwood Country Club",
          "zip_code": "91361",
          "distance": 37.1
        },
        {
          "name": "Los Robles Greens Golf Course",
          "zip_code": "91361",
          "distance": 37.3
        },
        {
          "name": "Oak Creek Golf Club",
          "zip_code": "92618",
          "distance": 37.6
        },
        {
          "name": "Strawberry Farms Golf Club",
          "zip_code": "92612",
          "distance": 38.0
        },
        {
          "name": "Mountain View Country Club",
          "zip_code": "92882",
          "distance": 38.3
        },
        {
          "name": "Antelope Valley Country Club",
          "zip_code": "93551",
          "distance": 38.7
        },
        {
          "name": "The Ocean South Course at Pelican Hill Golf Club",
          "zip_code": "92657",
          "distance": 38.8
        },
        {
          "name": "Empire Lakes Golf Course",
          "zip_code": "91730",
          "distance": 39.0
        },
        {
          "name": "Rancho Vista Golf Course",
          "zip_code": "93551",
          "distance": 39.2
        },
        {
          "name": "Desert Aire Golf Course",
          "zip_code": "93550",
          "distance": 39.3
        },
        {
          "name": "El Toro Golf Course",
          "zip_code": "92618",
          "distance": 39.4
        },
        {
          "name": "Rustic Canyon Golf Course",
          "zip_code": "93021",
          "distance": 39.5
        },
        {
          "name": "Goose Creek Golf Club",
          "zip_code": "91752",
          "distance": 41.1
        },
        {
          "name": "Moorpark Country Club",
          "zip_code": "93021",
          "distance": 41.2
        },
        {
          "name": "Cresta Verde Golf Club",
          "zip_code": "92879",
          "distance": 41.5
        },
        {
          "name": "Lake Elizabeth Golf Club",
          "zip_code": "93532",
          "distance": 42.4
        },
        {
          "name": "Hidden Valley Golf Club",
          "zip_code": "92860",
          "distance": 42.7
        },
        {
          "name": "Meadowlark Golf Course",
          "zip_code": "93536",
          "distance": 43.3
        },
        {
          "name": "Aliso Viejo Golf Club -Ridge/Creek",
          "zip_code": "92656",
          "distance": 43.3
        },
        {
          "name": "Lancaster Golf Center",
          "zip_code": "93535",
          "distance": 43.3
        },
        {
          "name": "Valley/Ridge Course at Aliso Viejo Golf Club",
          "zip_code": "92656",
          "distance": 43.4
        },
        {
          "name": "Lake Forest Golf & Practice Center",
          "zip_code": "92630",
          "distance": 43.5
        },
        {
          "name": "Paradise Knolls",
          "zip_code": "92509",
          "distance": 43.6
        },
        {
          "name": "Laguna Hills Golf Course",
          "zip_code": "92653",
          "distance": 43.7
        },
        {
          "name": "Eagle Glen Golf Club",
          "zip_code": "92883",
          "distance": 44.0
        },
        {
          "name": "Camarillo Springs Golf Course",
          "zip_code": "93012",
          "distance": 44.1
        },
        {
          "name": "Elkins Ranch Golf Course",
          "zip_code": "93015",
          "distance": 44.3
        },
        {
          "name": "Indian Hills Golf Club",
          "zip_code": "92509",
          "distance": 45.2
        },
        {
          "name": "Casta del Sol Golf Course",
          "zip_code": "92692",
          "distance": 45.4
        },
        {
          "name": "Sky Links Golf Course",
          "zip_code": "92503",
          "distance": 45.6
        },
        {
          "name": "Jurupa Hills Country Club",
          "zip_code": "92509",
          "distance": 46.3
        },
        {
          "name": "Tijeras Creek Golf Club",
          "zip_code": "92688",
          "distance": 46.5
        },
        {
          "name": "Sierra Lakes Golf Course",
          "zip_code": "92336",
          "distance": 46.5
        },
        {
          "name": "Mission Viejo Country Club",
          "zip_code": "92691",
          "distance": 46.6
        },
        {
          "name": "Oak Quarry Golf Course",
          "zip_code": "92509",
          "distance": 46.6
        },
        {
          "name": "Aliso Creek Golf Course",
          "zip_code": "92651",
          "distance": 46.8
        },
        {
          "name": "Trilogy Golf Club",
          "zip_code": "92883",
          "distance": 47.0
        },
        {
          "name": "El Niguel Country Club",
          "zip_code": "92677",
          "distance": 48.1
        },
        {
          "name": "Dove Canyon Country Club",
          "zip_code": "92679",
          "distance": 48.2
        },
        {
          "name": "Arroyo Trabuco Golf Club",
          "zip_code": "92692",
          "distance": 48.6
        },
        {
          "name": "El Rivino Country Club",
          "zip_code": "92509",
          "distance": 49.2
        },
        {
          "name": "Las Posas Country Club",
          "zip_code": "93010",
          "distance": 49.3
        },
        {
          "name": "Rancho Sierra Golf Club",
          "zip_code": "93535",
          "distance": 49.3
        },
        {
          "name": "North Course at Coto de Caza Golf & Racquet Club",
          "zip_code": "92679",
          "distance": 49.3
        },
        {
          "name": "1 Country Club Rd",
          "zip_code": "90704",
          "distance": 49.4
        },
        {
          "name": "Catalina Island Golf Club",
          "zip_code": "90704",
          "distance": 49.5
        },
        {
          "name": "John E. Clark Golf Course",
          "zip_code": "93041",
          "distance": 49.5
        },
        {
          "name": "Monarch Beach Golf Links",
          "zip_code": "92629",
          "distance": 49.6
        },
        {
          "name": "Fairmont Park Golf Course & Country Club",
          "zip_code": "92501",
          "distance": 49.7
        },
        {
          "name": "Monarch Beach Golf Links",
          "zip_code": "92629",
          "distance": 49.8
        }
      ]
    }
  },
  "{'lng': '-117.226344', 'radius': '50', 'lat': '33.158361'}": {
    "error": "",
    "response": {
      "courses": [
        {
          "name": "Shadowridge Golf Club",
          "zip_code": "92081",
          "distance": 0.7
        },
        {
          "name": "Ocean Hills Country Club",
          "zip_code": "92056",
          "distance": 2.2
        },
        {
          "name": "Executive Course at Lake San Marcos Country Club",
          "zip_code": "92078",
          "distance": 2.7
        },
        {
          "name": "Lake San Marcos Resort & Executive Golf Course",
          "zip_code": "92078",
          "distance": 2.7
        },
        {
          "name": "Twin Oaks Golf Course",
          "zip_code": "92069",
          "distance": 4.0
        },
        {
          "name": "North Course at La Costa Resort & Spa",
          "zip_code": "92009",
          "distance": 5.2
        },
        {
          "name": "Aviara Golf Club",
          "zip_code": "92011",
          "distance": 5.6
        },
        {
          "name": "El Camino Country Club",
          "zip_code": "92056",
          "distance": 5.7
        },
        {
          "name": "Escondido Country Club",
          "zip_code": "92026",
          "distance": 5.9
        },
        {
          "name": "Rancho Carlsbad Country Club",
          "zip_code": "92008",
          "distance": 6.1
        },
        {
          "name": "Vista Valley Country Club",
          "zip_code": "92084",
          "distance": 6.3
        },
        {
          "name": "Encinitas Ranch Golf Course",
          "zip_code": "92024",
          "distance": 6.9
        },
        {
          "name": "The Fountains Executive Course at Welk Resort - San Diego",
          "zip_code": "92026",
          "distance": 7.2
        },
        {
          "name": "Emerald Isle Golf Course",
          "zip_code": "92057",
          "distance": 7.2
        },
        {
          "name": "The Bridges at Rancho Santa Fe",
          "zip_code": "92091",
          "distance": 7.6
        },
        {
          "name": "Reidy Creek Golf Course",
          "zip_code": "92026",
          "distance": 7.7
        },
        {
          "name": "Castle Creek Country Club",
          "zip_code": "92026",
          "distance": 7.9
        },
        {
          "name": "Meadow Lake Golf Club",
          "zip_code": "92026",
          "distance": 8.0
        },
        {
          "name": "Oceanside Center City Golf Course",
          "zip_code": "92054",
          "distance": 8.1
        },
        {
          "name": "Fairbanks Ranch Country Club",
          "zip_code": "92067",
          "distance": 8.3
        },
        {
          "name": "Oceanside Golf Course",
          "zip_code": "92057",
          "distance": 8.4
        },
        {
          "name": "San Luis Rey Downs Golf & Country Club",
          "zip_code": "92003",
          "distance": 8.9
        },
        {
          "name": "Rancho Santa Fe Golf Club",
          "zip_code": "92091",
          "distance": 9.3
        },
        {
          "name": "Lomas Santa Fe Executive Golf Course",
          "zip_code": "92075",
          "distance": 10.8
        },
        {
          "name": "The Golf Club of California",
          "zip_code": "92028",
          "distance": 11.4
        },
        {
          "name": "East/South Course at Morgan Run Resort & Club",
          "zip_code": "92091",
          "distance": 11.5
        },
        {
          "name": "Lomas Santa Fe Country Club",
          "zip_code": "92075",
          "distance": 11.6
        },
        {
          "name": "The Vineyard at Escondido",
          "zip_code": "92025",
          "distance": 11.6
        },
        {
          "name": "Par 3 Course at Marine Memorial Golf Course",
          "zip_code": "92055",
          "distance": 11.7
        },
        {
          "name": "Rancho Santa Fe Farms Golf Club",
          "zip_code": "92014",
          "distance": 12.3
        },
        {
          "name": "Lakes to Ocean Course at Fairbanks Ranch Country Club",
          "zip_code": "92091",
          "distance": 12.4
        },
        {
          "name": "Del Mar Country Club",
          "zip_code": "92091",
          "distance": 12.5
        },
        {
          "name": "Woods Valley Golf Club",
          "zip_code": "92082",
          "distance": 12.5
        },
        {
          "name": "Rancho Bernardo Inn",
          "zip_code": "92128",
          "distance": 12.8
        },
        {
          "name": "Rancho Bernardo Golf Club",
          "zip_code": "92128",
          "distance": 12.8
        },
        {
          "name": "Fallbrook Golf Club",
          "zip_code": "92028",
          "distance": 13.1
        },
        {
          "name": "Eagle Crest Golf Club",
          "zip_code": "92027",
          "distance": 13.1
        },
        {
          "name": "East/South Course at Oaks North Golf Course",
          "zip_code": "92128",
          "distance": 13.2
        },
        {
          "name": "Bernardo Heights Country Club",
          "zip_code": "92128",
          "distance": 13.9
        },
        {
          "name": "Stoneridge Country Club",
          "zip_code": "92064",
          "distance": 14.3
        },
        {
          "name": "Maderas Golf Club",
          "zip_code": "92064",
          "distance": 14.7
        },
        {
          "name": "DoubleTree Carmel Highland Resort",
          "zip_code": "92129",
          "distance": 14.7
        },
        {
          "name": "The Meadows Del Mar",
          "zip_code": "92130",
          "distance": 15.1
        },
        {
          "name": "East Course at The Grand Golf Club",
          "zip_code": "92130",
          "distance": 15.3
        },
        {
          "name": "Carmel Mountain Ranch Country Club",
          "zip_code": "92128",
          "distance": 15.3
        },
        {
          "name": "Skyline Ranch",
          "zip_code": "92082",
          "distance": 16.5
        },
        {
          "name": "Pauma Valley Country Club",
          "zip_code": "92061",
          "distance": 16.8
        },
        {
          "name": "North Course at Torrey Pines Municipal Golf Course",
          "zip_code": "92037",
          "distance": 17.6
        },
        {
          "name": "Mt. Woodson Golf Club",
          "zip_code": "92065",
          "distance": 18.6
        },
        {
          "name": "Pala Mesa Resort",
          "zip_code": "92028",
          "distance": 19.0
        },
        {
          "name": "Miramar Memorial Golf Course",
          "zip_code": "92145",
          "distance": 19.5
        },
        {
          "name": "La Jolla Beach & Tennis Club",
          "zip_code": "92037",
          "distance": 21.2
        },
        {
          "name": "La Jolla Country Club",
          "zip_code": "92038",
          "distance": 21.5
        },
        {
          "name": "Oaks/Stonehouse Course at Temecula Creek Inn",
          "zip_code": "92592",
          "distance": 22.1
        },
        {
          "name": "Redhawk Golf Club",
          "zip_code": "92592",
          "distance": 22.7
        },
        {
          "name": "Cross Creek Golf Club",
          "zip_code": "92590",
          "distance": 23.2
        },
        {
          "name": "Rancho del Cielo Golf Course",
          "zip_code": "92592",
          "distance": 24.3
        },
        {
          "name": "3 Par at Four Points",
          "zip_code": "92123",
          "distance": 24.5
        },
        {
          "name": "Mission Bay Golf Course",
          "zip_code": "92109",
          "distance": 24.9
        },
        {
          "name": "Tecolote Canyon Golf Course",
          "zip_code": "92111",
          "distance": 25.1
        },
        {
          "name": "Carlton Oaks Country Club",
          "zip_code": "92071",
          "distance": 25.2
        },
        {
          "name": "Temeku Hills Golf Course",
          "zip_code": "92591",
          "distance": 25.5
        },
        {
          "name": "Barona Creek Golf Club",
          "zip_code": "92040",
          "distance": 25.8
        },
        {
          "name": "San Vicente Inn & Golf Club",
          "zip_code": "92065",
          "distance": 25.9
        },
        {
          "name": "North Course at Admiral Baker Golf Course",
          "zip_code": "92120",
          "distance": 26.0
        },
        {
          "name": "Willowbrook Country Club",
          "zip_code": "92040",
          "distance": 26.4
        },
        {
          "name": "Naval Station Golf Course",
          "zip_code": "92120",
          "distance": 26.4
        },
        {
          "name": "Mission Trails Golf Course",
          "zip_code": "92119",
          "distance": 27.0
        },
        {
          "name": "Friars/Presidio Course at Riverwalk Golf Club",
          "zip_code": "92110",
          "distance": 27.1
        },
        {
          "name": "San Clemente Municipal Golf Course",
          "zip_code": "92672",
          "distance": 27.6
        },
        {
          "name": "The SCGA Member's Club",
          "zip_code": "92563",
          "distance": 27.6
        },
        {
          "name": "Presidio Hills Golf Course",
          "zip_code": "92110",
          "distance": 27.9
        },
        {
          "name": "The Colony Country Club",
          "zip_code": "92562",
          "distance": 28.8
        },
        {
          "name": "Bear Creek Golf & Country Club",
          "zip_code": "92562",
          "distance": 29.1
        },
        {
          "name": "Carnoustie/Muirfield Course at Pacific Golf & Country Club",
          "zip_code": "92673",
          "distance": 29.3
        },
        {
          "name": "Colina Park Golf Course",
          "zip_code": "92105",
          "distance": 29.3
        },
        {
          "name": "Sun Valley Golf Course",
          "zip_code": "91942",
          "distance": 29.6
        },
        {
          "name": "Talega Golf Club",
          "zip_code": "92673",
          "distance": 30.0
        },
        {
          "name": "Eighteen Hole Course at Balboa Park Municipal Golf Club",
          "zip_code": "92102",
          "distance": 30.7
        },
        {
          "name": "Shorecliffs Golf Club",
          "zip_code": "92672",
          "distance": 31.1
        },
        {
          "name": "North Island Golf Club",
          "zip_code": "92135",
          "distance": 31.6
        },
        {
          "name": "Sea 'n' Air Golf Course",
          "zip_code": "92135",
          "distance": 31.8
        },
        {
          "name": "Oak Glen Course at Singing Hills Country Club At Sycuan",
          "zip_code": "92019",
          "distance": 32.5
        },
        {
          "name": "Coronado Golf Course",
          "zip_code": "92118",
          "distance": 32.9
        },
        {
          "name": "Monte Vista Course at Cottonwood at Rancho San Diego",
          "zip_code": "92019",
          "distance": 33.7
        },
        {
          "name": "San Juan Hills Country Club",
          "zip_code": "92675",
          "distance": 33.9
        },
        {
          "name": "Canyon/Meadow Course at Steele Canyon Golf & Country Club",
          "zip_code": "91935",
          "distance": 34.6
        },
        {
          "name": "Marbella Country Club",
          "zip_code": "92675",
          "distance": 34.8
        },
        {
          "name": "Bonita Golf Club",
          "zip_code": "91902",
          "distance": 35.3
        },
        {
          "name": "Warner Springs Ranch",
          "zip_code": "92086",
          "distance": 35.3
        },
        {
          "name": "National City Golf Course",
          "zip_code": "91950",
          "distance": 35.3
        },
        {
          "name": "Canyon Lake Country Club",
          "zip_code": "92587",
          "distance": 35.6
        },
        {
          "name": "Monarch Beach Golf Links",
          "zip_code": "92629",
          "distance": 36.0
        },
        {
          "name": "Chula Vista Golf Course",
          "zip_code": "91902",
          "distance": 36.1
        },
        {
          "name": "Monarch Beach Golf Links",
          "zip_code": "92629",
          "distance": 36.2
        },
        {
          "name": "Arroyo Trabuco Golf Club",
          "zip_code": "92692",
          "distance": 36.5
        },
        {
          "name": "North Course at Coto de Caza Golf & Racquet Club",
          "zip_code": "92679",
          "distance": 36.6
        },
        {
          "name": "Menifee Lakes Country Club -Lakes/Palms",
          "zip_code": "92584",
          "distance": 36.8
        },
        {
          "name": "El Niguel Country Club",
          "zip_code": "92677",
          "distance": 37.3
        },
        {
          "name": "The Auld Course",
          "zip_code": "91914",
          "distance": 37.4
        },
        {
          "name": "Cherry Hills Golf Course",
          "zip_code": "92586",
          "distance": 38.0
        },
        {
          "name": "San Diego Country Club",
          "zip_code": "91911",
          "distance": 38.2
        },
        {
          "name": "Dove Canyon Country Club",
          "zip_code": "92679",
          "distance": 38.5
        },
        {
          "name": "Mission Viejo Country Club",
          "zip_code": "92691",
          "distance": 38.6
        },
        {
          "name": "North Golf Course",
          "zip_code": "92586",
          "distance": 38.6
        },
        {
          "name": "Diamond Valley Golf Club",
          "zip_code": "92543",
          "distance": 38.7
        },
        {
          "name": "Aliso Creek Golf Course",
          "zip_code": "92651",
          "distance": 39.0
        },
        {
          "name": "Eastlake Country Club",
          "zip_code": "91915",
          "distance": 39.1
        },
        {
          "name": "Hemet Golf Club",
          "zip_code": "92545",
          "distance": 39.3
        },
        {
          "name": "Tijeras Creek Golf Club",
          "zip_code": "92688",
          "distance": 39.8
        },
        {
          "name": "Casta del Sol Golf Course",
          "zip_code": "92692",
          "distance": 40.1
        },
        {
          "name": "Laguna Hills Golf Course",
          "zip_code": "92653",
          "distance": 41.4
        },
        {
          "name": "Valley/Ridge Course at Aliso Viejo Golf Club",
          "zip_code": "92656",
          "distance": 41.7
        },
        {
          "name": "Aliso Viejo Golf Club -Ridge/Creek",
          "zip_code": "92656",
          "distance": 41.8
        },
        {
          "name": "Lake Forest Golf & Practice Center",
          "zip_code": "92630",
          "distance": 41.8
        },
        {
          "name": "Echo Hills Golf Club",
          "zip_code": "92543",
          "distance": 41.9
        },
        {
          "name": "Colonial Country Club",
          "zip_code": "92545",
          "distance": 43.4
        },
        {
          "name": "Golden Era Golf Course",
          "zip_code": "92583",
          "distance": 44.4
        },
        {
          "name": "Arroyo Fairways Mobile Home Club & Golf Course",
          "zip_code": "92544",
          "distance": 44.4
        },
        {
          "name": "Seven Hills Golf Club",
          "zip_code": "92543",
          "distance": 44.5
        },
        {
          "name": "Trilogy Golf Club",
          "zip_code": "92883",
          "distance": 44.9
        },
        {
          "name": "El Toro Golf Course",
          "zip_code": "92618",
          "distance": 46.1
        },
        {
          "name": "The Ocean South Course at Pelican Hill Golf Club",
          "zip_code": "92657",
          "distance": 46.9
        },
        {
          "name": "Strawberry Farms Golf Club",
          "zip_code": "92612",
          "distance": 47.1
        },
        {
          "name": "Soboba Springs Royal Vista Golf Course",
          "zip_code": "92583",
          "distance": 47.1
        },
        {
          "name": "Oak Creek Golf Club",
          "zip_code": "92618",
          "distance": 47.6
        },
        {
          "name": "Eagle Glen Golf Club",
          "zip_code": "92883",
          "distance": 48.2
        },
        {
          "name": "The Newport Beach Country Club",
          "zip_code": "92660",
          "distance": 49.1
        },
        {
          "name": "Rancho San Joaquin Golf Course",
          "zip_code": "92612",
          "distance": 49.1
        },
        {
          "name": "General Old Golf Course",
          "zip_code": "92518",
          "distance": 49.3
        },
        {
          "name": "De Anza Desert Country Club",
          "zip_code": "92004",
          "distance": 49.5
        },
        {
          "name": "Big Canyon Country Club",
          "zip_code": "92660",
          "distance": 49.6
        },
        {
          "name": "Palms Course at Borrego Springs Resort & Country Club",
          "zip_code": "92004",
          "distance": 49.7
        },
        {
          "name": "The Back Bay Golf Course",
          "zip_code": "92660",
          "distance": 49.7
        }
      ]
    }
  },
  "{'lng': '-117.084196', 'radius': '10', 'lat': '33.119207'}": {
    "error": "",
    "response": {
      "courses": [
        {
          "name": "Reidy Creek Golf Course",
          "zip_code": "92026",
          "distance": 2.9
        },
        {
          "name": "Escondido Country Club",
          "zip_code": "92026",
          "distance": 3.5
        },
        {
          "name": "The Vineyard at Escondido",
          "zip_code": "92025",
          "distance": 3.7
        },
        {
          "name": "Eagle Crest Golf Club",
          "zip_code": "92027",
          "distance": 4.5
        },
        {
          "name": "Twin Oaks Golf Course",
          "zip_code": "92069",
          "distance": 5.4
        },
        {
          "name": "East/South Course at Oaks North Golf Course",
          "zip_code": "92128",
          "distance": 6.2
        },
        {
          "name": "Rancho Bernardo Golf Club",
          "zip_code": "92128",
          "distance": 6.2
        },
        {
          "name": "Rancho Bernardo Inn",
          "zip_code": "92128",
          "distance": 6.3
        },
        {
          "name": "Meadow Lake Golf Club",
          "zip_code": "92026",
          "distance": 6.7
        },
        {
          "name": "Fairbanks Ranch Country Club",
          "zip_code": "92067",
          "distance": 6.7
        },
        {
          "name": "Executive Course at Lake San Marcos Country Club",
          "zip_code": "92078",
          "distance": 6.8
        },
        {
          "name": "Maderas Golf Club",
          "zip_code": "92064",
          "distance": 6.9
        },
        {
          "name": "Stoneridge Country Club",
          "zip_code": "92064",
          "distance": 7.1
        },
        {
          "name": "Woods Valley Golf Club",
          "zip_code": "92082",
          "distance": 7.1
        },
        {
          "name": "The Bridges at Rancho Santa Fe",
          "zip_code": "92091",
          "distance": 7.8
        },
        {
          "name": "Lake San Marcos Resort & Executive Golf Course",
          "zip_code": "92078",
          "distance": 7.8
        },
        {
          "name": "Bernardo Heights Country Club",
          "zip_code": "92128",
          "distance": 7.9
        },
        {
          "name": "The Fountains Executive Course at Welk Resort - San Diego",
          "zip_code": "92026",
          "distance": 8.7
        },
        {
          "name": "Shadowridge Golf Club",
          "zip_code": "92081",
          "distance": 9.1
        },
        {
          "name": "DoubleTree Carmel Highland Resort",
          "zip_code": "92129",
          "distance": 9.7
        },
        {
          "name": "Rancho Santa Fe Golf Club",
          "zip_code": "92091",
          "distance": 9.7
        },
        {
          "name": "Castle Creek Country Club",
          "zip_code": "92026",
          "distance": 9.8
        },
        {
          "name": "Carmel Mountain Ranch Country Club",
          "zip_code": "92128",
          "distance": 9.9
        },
        {
          "name": "Skyline Ranch",
          "zip_code": "92082",
          "distance": 10.0
        }
      ]
    }
  },
  "{'lng': '-121.95035631683683', 'radius': '10', 'lat': '36.56910381018662'}": {
    "error": "",
    "response": {
      "courses": [
        {
          "name": "Golf Links Course at Pebble Beach Golf Links",
          "zip_code": "93953",
          "distance": 0.0
        },
        {
          "name": "Cypress Point Club",
          "zip_code": "93953",
          "distance": 0.3
        },
        {
          "name": "Cypress Point Club",
          "zip_code": "93953",
          "distance": 0.3
        },
        {
          "name": "Spyglass Hill Golf Course",
          "zip_code": "93953",
          "distance": 1.0
        },
        {
          "name": "Spyglass Hill Golf Course",
          "zip_code": "93953",
          "distance": 1.0
        },
        {
          "name": "Poppy Hills Golf Course",
          "zip_code": "93953",
          "distance": 1.2
        },
        {
          "name": "Dunes Course at Monterey Peninsula Country Club",
          "zip_code": "93953",
          "distance": 2.2
        },
        {
          "name": "The Links at Spanish Bay",
          "zip_code": "93953",
          "distance": 2.9
        },
        {
          "name": "West Course at Rancho Canada Golf Club",
          "zip_code": "93923",
          "distance": 3.9
        },
        {
          "name": "Pacific Grove Municipal Golf Course",
          "zip_code": "93950",
          "distance": 4.6
        },
        {
          "name": "Del Monte Golf Course",
          "zip_code": "93940",
          "distance": 4.7
        },
        {
          "name": "Naval Postgraduate School Golf Course",
          "zip_code": "93940",
          "distance": 5.0
        },
        {
          "name": "Quail Lodge Resort & Golf Club",
          "zip_code": "93923",
          "distance": 6.0
        },
        {
          "name": "The Bayonet Course at Bayonet/Black Horse Golf Course",
          "zip_code": "93955",
          "distance": 8.4
        },
        {
          "name": "Carmel Valley Ranch Resort",
          "zip_code": "93923",
          "distance": 8.7
        },
        {
          "name": "Tehama Golf Club",
          "zip_code": "93923",
          "distance": 8.8
        },
        {
          "name": "Laguna Seca Ranch Golf Club",
          "zip_code": "93940",
          "distance": 9.0
        },
        {
          "name": "Pasadera Country Club",
          "zip_code": "93940",
          "distance": 9.8
        }
      ]
    }
  },
  "{'lat': '40.7128', 'lng': '-74.0060', 'radius': '10'}": {
    "error": "",
    "response": {
      "courses": [
        {
          "name": "Dyker Beach Golf Course",
          "zip_code": "11228",
          "distance": 6.6
        },
        {
          "name": "Forest Park Golf Course",
          "zip_code": "11421",
          "distance": 7.7
        },
        {
          "name": "Silver Lake Golf Course",
          "zip_code": "10301",
          "distance": 7.7
        },
        {
          "name": "Flushing Meadows Pitch & Putt Golf Course",
          "zip_code": "11368",
          "distance": 8.7
        },
        {
          "name": "Marine Park Golf Course",
          "zip_code": "11234",
          "distance": 9.1
        },
        {
          "name": "Weequahic Park Golf Course",
          "zip_code": "7114",
          "distance": 9.3
        }
      ]
    }
  },
  "{'lng': '-118.4104684', 'radius': '1', 'lat': '34.0900091'}": {
    "error": "",
    "response": {
      "courses": []
    }
  },
  "{'lng': '-118.414', 'radius': '1', 'lat': '34.090'}": {
    "error": "",
    "response": {
      "courses": []
    }
  },
  "{'lat': '36.56910381018662', 'lng': '-121.95035631683683', 'radius': '20'}": {
    "error": "",
    "response": {
      "courses": [
        {
          "name": "Golf Links Course at Pebble Beach Golf Links",
          "zip_code": "93953",
          "distance": 0.0
        },
        {
          "name": "Cypress Point Club",
          "zip_code": "93953",
          "distance": 0.3
        },
        {
          "name": "Cypress Point Club",
          "zip_code": "93953",
          "distance": 0.3
        },
        {
          "name": "Spyglass Hill Golf Course",
          "zip_code": "93953",
          "distance": 1.0
        },
        {
          "name": "Spyglass Hill Golf Course",
          "zip_code": "93953",
          "distance": 1.0
        },
        {
          "name": "Poppy Hills Golf Course",
          "zip_code": "93953",
          "distance": 1.2
        },
        {
          "name": "Dunes Course at Monterey Peninsula Country Club",
          "zip_code": "93953",
          "distance": 2.2
        },
        {
          "name": "The Links at Spanish Bay",
          "zip_code": "93953",
          "distance": 2.9
        },
        {
          "name": "West Course at Rancho Canada Golf Club",
          "zip_code": "93923",
          "distance": 3.9
        },
        {
          "name": "Pacific Grove Municipal Golf Course",
          "zip_code": "93950",
          "distance": 4.6
        },
        {
          "name": "Del Monte Golf Course",
          "zip_code": "93940",
          "distance": 4.7
        },
        {
          "name": "Naval Postgraduate School Golf Course",
          "zip_code": "93940",
          "distance": 5.0
        },
        {
          "name": "Quail Lodge Resort & Golf Club",
          "zip_code": "93923",
          "distance": 6.0
        },
        {
          "name": "The Bayonet Course at Bayonet/Black Horse Golf Course",
          "zip_code": "93955",
          "distance": 8.4
        },
        {
          "name": "Carmel Valley Ranch Resort",
          "zip_code": "93923",
          "distance": 8.7
        },
        {
          "name": "Tehama Golf Club",
          "zip_code": "93923",
          "distance": 8.8
        },
        {
          "name": "Laguna Seca Ranch Golf Club",
          "zip_code": "93940",
          "distance": 9.0
        },
        {
          "name": "Pasadera Country Club",
          "zip_code": "93940",
          "distance": 9.8
        },
        {
          "name": "The Preserve Golf Club",
          "zip_code": "93923",
          "distance": 12.0
        },
        {
          "name": "Corral de Tierra Country Club",
          "zip_code": "93908",
          "distance": 12.3
        },
        {
          "name": "Salinas Fairways Golf Course",
          "zip_code": "93905",
          "distance": 19.9
        }
      ]
    }
  },
  "{'lng': '-121.9406', 'radius': '15', 'lat': '36.5662'}": {
    "error": "",
    "response": {
      "courses": [
        {
          "name": "Golf Links Course at Pebble Beach Golf Links",
          "zip_code": "93953",
          "distance": 0.6
        },
        {
          "name": "Cypress Point Club",
          "zip_code": "93953",
          "distance": 0.6
        },
        {
          "name": "Cypress Point Club",
          "zip_code": "93953",
          "distance": 0.6
        },
        {
          "name": "Poppy Hills Golf Course",
          "zip_code": "93953",
          "distance": 1.2
        },
        {
          "name": "Spyglass Hill Golf Course",
          "zip_code": "93953",
          "distance": 1.4
        },
        {
          "name": "Spyglass Hill Golf Course",
          "zip_code": "93953",
          "distance": 1.5
        },
        {
          "name": "Dunes Course at Monterey Peninsula Country Club",
          "zip_code": "93953",
          "distance": 2.5
        },
        {
          "name": "The Links at Spanish Bay",
          "zip_code": "93953",
          "distance": 3.0
        },
        {
          "name": "West Course at Rancho Canada Golf Club",
          "zip_code": "93923",
          "distance": 3.3
        },
        {
          "name": "Del Monte Golf Course",
          "zip_code": "93940",
          "distance": 4.2
        },
        {
          "name": "Naval Postgraduate School Golf Course",
          "zip_code": "93940",
          "distance": 4.6
        },
        {
          "name": "Pacific Grove Municipal Golf Course",
          "zip_code": "93950",
          "distance": 4.7
        },
        {
          "name": "Quail Lodge Resort & Golf Club",
          "zip_code": "93923",
          "distance": 5.4
        },
        {
          "name": "The Bayonet Course at Bayonet/Black Horse Golf Course",
          "zip_code": "93955",
          "distance": 8.0
        },
        {
          "name": "Carmel Valley Ranch Resort",
          "zip_code": "93923",
          "distance": 8.2
        },
        {
          "name": "Tehama Golf Club",
          "zip_code": "93923",
          "distance": 8.2
        },
        {
          "name": "Laguna Seca Ranch Golf Club",
          "zip_code": "93940",
          "distance": 8.5
        },
        {
          "name": "Pasadera Country Club",
          "zip_code": "93940",
          "distance": 9.3
        },
        {
          "name": "The Preserve Golf Club",
          "zip_code": "93923",
          "distance": 11.5
        },
        {
          "name": "Corral de Tierra Country Club",
          "zip_code": "93908",
          "distance": 11.8
        }
      ]
    }
  },
  "{'lng': '-121.95035631683683', 'lat': '36.56910381018662', 'radius': '10'}": {
    "error": "",
    "response": {
      "courses": [
        {
          "name": "Golf Links Course at Pebble Beach Golf Links",
          "zip_code": "93953",
          "distance": 0.0
        },
        {
          "name": "Cypress Point Club",
          "zip_code": "93953",
          "distance": 0.3
        },
        {
          "name": "Cypress Point Club",
          "zip_code": "93953",
          "distance": 0.3
        },
        {
          "name": "Spyglass Hill Golf Course",
          "zip_code": "93953",
          "distance": 1.0
        },
        {
          "name": "Spyglass Hill Golf Course",
          "zip_code": "93953",
          "distance": 1.0
        },
        {
          "name": "Poppy Hills Golf Course",
          "zip_code": "93953",
          "distance": 1.2
        },
        {
          "name": "Dunes Course at Monterey Peninsula Country Club",
          "zip_code": "93953",
          "distance": 2.2
        },
        {
          "name": "The Links at Spanish Bay",
          "zip_code": "93953",
          "distance": 2.9
        },
        {
          "name": "West Course at Rancho Canada Golf Club",
          "zip_code": "93923",
          "distance": 3.9
        },
        {
          "name": "Pacific Grove Municipal Golf Course",
          "zip_code": "93950",
          "distance": 4.6
        },
        {
          "name": "Del Monte Golf Course",
          "zip_code": "93940",
          "distance": 4.7
        },
        {
          "name": "Naval Postgraduate School Golf Course",
          "zip_code": "93940",
          "distance": 5.0
        },
        {
          "name": "Quail Lodge Resort & Golf Club",
          "zip_code": "93923",
          "distance": 6.0
        },
        {
          "name": "The Bayonet Course at Bayonet/Black Horse Golf Course",
          "zip_code": "93955",
          "distance": 8.4
        },
        {
          "name": "Carmel Valley Ranch Resort",
          "zip_code": "93923",
          "distance": 8.7
        },
        {
          "name": "Tehama Golf Club",
          "zip_code": "93923",
          "distance": 8.8
        },
        {
          "name": "Laguna Seca Ranch Golf Club",
          "zip_code": "93940",
          "distance": 9.0
        },
        {
          "name": "Pasadera Country Club",
          "zip_code": "93940",
          "distance": 9.8
        }
      ]
    }
  },
  "{'lat': '36.56910381018662', 'lng': '-121.95035631683683', 'radius': '5'}": {
    "error": "",
    "response": {
      "courses": [
        {
          "name": "Golf Links Course at Pebble Beach Golf Links",
          "zip_code": "93953",
          "distance": 0.0
        },
        {
          "name": "Cypress Point Club",
          "zip_code": "93953",
          "distance": 0.3
        },
        {
          "name": "Cypress Point Club",
          "zip_code": "93953",
          "distance": 0.3
        },
        {
          "name": "Spyglass Hill Golf Course",
          "zip_code": "93953",
          "distance": 1.0
        },
        {
          "name": "Spyglass Hill Golf Course",
          "zip_code": "93953",
          "distance": 1.0
        },
        {
          "name": "Poppy Hills Golf Course",
          "zip_code": "93953",
          "distance": 1.2
        },
        {
          "name": "Dunes Course at Monterey Peninsula Country Club",
          "zip_code": "93953",
          "distance": 2.2
        },
        {
          "name": "The Links at Spanish Bay",
          "zip_code": "93953",
          "distance": 2.9
        },
        {
          "name": "West Course at Rancho Canada Golf Club",
          "zip_code": "93923",
          "distance": 3.9
        },
        {
          "name": "Pacific Grove Municipal Golf Course",
          "zip_code": "93950",
          "distance": 4.6
        },
        {
          "name": "Del Monte Golf Course",
          "zip_code": "93940",
          "distance": 4.7
        },
        {
          "name": "Naval Postgraduate School Golf Course",
          "zip_code": "93940",
          "distance": 5.0
        }
      ]
    }
  },
  "{'lng': '36.56910381018662', 'radius': '10', 'lat': '-121.95035631683683'}": {
    "error": "",
    "response": {
      "courses": []
    }
  },
  "{'lng': '36.56910381018662', 'radius': '10', 'lat': '121.95035631683683'}": {
    "error": "",
    "response": {
      "courses": []
    }
  },
  "{'lng': '36.56910381018662', 'radius': '10', 'lat': '36.56910381018662'}": {
    "error": "",
    "response": {
      "courses": []
    }
  },
  "{'lng': 36.56910381018662, 'radius': 10, 'lat': -121.95035631683683}": {
    "error": "",
    "response": {
      "courses": []
    }
  },
  "{'lng': -121.95035631683683, 'radius': 10, 'lat': 36.56910381018662}": {
    "error": "",
    "response": {
      "courses": [
        {
          "name": "Golf Links Course at Pebble Beach Golf Links",
          "zip_code": "93953",
          "distance": 0.0
        },
        {
          "name": "Cypress Point Club",
          "zip_code": "93953",
          "distance": 0.3
        },
        {
          "name": "Cypress Point Club",
          "zip_code": "93953",
          "distance": 0.3
        },
        {
          "name": "Spyglass Hill Golf Course",
          "zip_code": "93953",
          "distance": 1.0
        },
        {
          "name": "Spyglass Hill Golf Course",
          "zip_code": "93953",
          "distance": 1.0
        },
        {
          "name": "Poppy Hills Golf Course",
          "zip_code": "93953",
          "distance": 1.2
        },
        {
          "name": "Dunes Course at Monterey Peninsula Country Club",
          "zip_code": "93953",
          "distance": 2.2
        },
        {
          "name": "The Links at Spanish Bay",
          "zip_code": "93953",
          "distance": 2.9
        },
        {
          "name": "West Course at Rancho Canada Golf Club",
          "zip_code": "93923",
          "distance": 3.9
        },
        {
          "name": "Pacific Grove Municipal Golf Course",
          "zip_code": "93950",
          "distance": 4.6
        },
        {
          "name": "Del Monte Golf Course",
          "zip_code": "93940",
          "distance": 4.7
        },
        {
          "name": "Naval Postgraduate School Golf Course",
          "zip_code": "93940",
          "distance": 5.0
        },
        {
          "name": "Quail Lodge Resort & Golf Club",
          "zip_code": "93923",
          "distance": 6.0
        },
        {
          "name": "The Bayonet Course at Bayonet/Black Horse Golf Course",
          "zip_code": "93955",
          "distance": 8.4
        },
        {
          "name": "Carmel Valley Ranch Resort",
          "zip_code": "93923",
          "distance": 8.7
        },
        {
          "name": "Tehama Golf Club",
          "zip_code": "93923",
          "distance": 8.8
        },
        {
          "name": "Laguna Seca Ranch Golf Club",
          "zip_code": "93940",
          "distance": 9.0
        },
        {
          "name": "Pasadera Country Club",
          "zip_code": "93940",
          "distance": 9.8
        }
      ]
    }
  },
  "{'lat': '36.56910381018662', 'radius': '15', 'lng': '-121.95035631683683'}": {
    "error": "",
    "response": {
      "courses": [
        {
          "name": "Golf Links Course at Pebble Beach Golf Links",
          "zip_code": "93953",
          "distance": 0.0
        },
        {
          "name": "Cypress Point Club",
          "zip_code": "93953",
          "distance": 0.3
        },
        {
          "name": "Cypress Point Club",
          "zip_code": "93953",
          "distance": 0.3
        },
        {
          "name": "Spyglass Hill Golf Course",
          "zip_code": "93953",
          "distance": 1.0
        },
        {
          "name": "Spyglass Hill Golf Course",
          "zip_code": "93953",
          "distance": 1.0
        },
        {
          "name": "Poppy Hills Golf Course",
          "zip_code": "93953",
          "distance": 1.2
        },
        {
          "name": "Dunes Course at Monterey Peninsula Country Club",
          "zip_code": "93953",
          "distance": 2.2
        },
        {
          "name": "The Links at Spanish Bay",
          "zip_code": "93953",
          "distance": 2.9
        },
        {
          "name": "West Course at Rancho Canada Golf Club",
          "zip_code": "93923",
          "distance": 3.9
        },
        {
          "name": "Pacific Grove Municipal Golf Course",
          "zip_code": "93950",
          "distance": 4.6
        },
        {
          "name": "Del Monte Golf Course",
          "zip_code": "93940",
          "distance": 4.7
        },
        {
          "name": "Naval Postgraduate School Golf Course",
          "zip_code": "93940",
          "distance": 5.0
        },
        {
          "name": "Quail Lodge Resort & Golf Club",
          "zip_code": "93923",
          "distance": 6.0
        },
        {
          "name": "The Bayonet Course at Bayonet/Black Horse Golf Course",
          "zip_code": "93955",
          "distance": 8.4
        },
        {
          "name": "Carmel Valley Ranch Resort",
          "zip_code": "93923",
          "distance": 8.7
        },
        {
          "name": "Tehama Golf Club",
          "zip_code": "93923",
          "distance": 8.8
        },
        {
          "name": "Laguna Seca Ranch Golf Club",
          "zip_code": "93940",
          "distance": 9.0
        },
        {
          "name": "Pasadera Country Club",
          "zip_code": "93940",
          "distance": 9.8
        },
        {
          "name": "The Preserve Golf Club",
          "zip_code": "93923",
          "distance": 12.0
        },
        {
          "name": "Corral de Tierra Country Club",
          "zip_code": "93908",
          "distance": 12.3
        }
      ]
    }
  },
  "{'lat': '37.7897', 'lng': '-122.4194', 'radius': '5'}": {
    "error": "",
    "response": {
      "courses": [
        {
          "name": "The Olympic Club",
          "zip_code": "94102",
          "distance": 0.5
        },
        {
          "name": "Presidio Golf Course",
          "zip_code": "94129",
          "distance": 0.7
        },
        {
          "name": "Lincoln Park Golf Course",
          "zip_code": "94121",
          "distance": 4.2
        },
        {
          "name": "Golden Gate Park Golf Course",
          "zip_code": "94121",
          "distance": 5.0
        }
      ]
    }
  },
  "{'lng': '-121.8947', 'lat': '36.6002', 'radius': '10'}": {
    "error": "",
    "response": {
      "courses": [
        {
          "name": "Del Monte Golf Course",
          "zip_code": "93940",
          "distance": 1.4
        },
        {
          "name": "Naval Postgraduate School Golf Course",
          "zip_code": "93940",
          "distance": 1.6
        },
        {
          "name": "The Links at Spanish Bay",
          "zip_code": "93953",
          "distance": 2.7
        },
        {
          "name": "Poppy Hills Golf Course",
          "zip_code": "93953",
          "distance": 2.7
        },
        {
          "name": "Dunes Course at Monterey Peninsula Country Club",
          "zip_code": "93953",
          "distance": 2.9
        },
        {
          "name": "Pacific Grove Municipal Golf Course",
          "zip_code": "93950",
          "distance": 3.1
        },
        {
          "name": "Cypress Point Club",
          "zip_code": "93953",
          "distance": 3.5
        },
        {
          "name": "Cypress Point Club",
          "zip_code": "93953",
          "distance": 3.5
        },
        {
          "name": "Spyglass Hill Golf Course",
          "zip_code": "93953",
          "distance": 3.8
        },
        {
          "name": "Spyglass Hill Golf Course",
          "zip_code": "93953",
          "distance": 3.8
        },
        {
          "name": "Golf Links Course at Pebble Beach Golf Links",
          "zip_code": "93953",
          "distance": 3.8
        },
        {
          "name": "West Course at Rancho Canada Golf Club",
          "zip_code": "93923",
          "distance": 4.1
        },
        {
          "name": "The Bayonet Course at Bayonet/Black Horse Golf Course",
          "zip_code": "93955",
          "distance": 4.6
        },
        {
          "name": "Quail Lodge Resort & Golf Club",
          "zip_code": "93923",
          "distance": 5.2
        },
        {
          "name": "Laguna Seca Ranch Golf Club",
          "zip_code": "93940",
          "distance": 6.2
        },
        {
          "name": "Pasadera Country Club",
          "zip_code": "93940",
          "distance": 7.0
        },
        {
          "name": "Carmel Valley Ranch Resort",
          "zip_code": "93923",
          "distance": 7.5
        },
        {
          "name": "Tehama Golf Club",
          "zip_code": "93923",
          "distance": 7.5
        },
        {
          "name": "Corral de Tierra Country Club",
          "zip_code": "93908",
          "distance": 9.5
        }
      ]
    }
  },
  "{'lng': '-121.95035631683', 'lat': '36.5691038101862', 'radius': '10'}": {
    "error": "",
    "response": {
      "courses": [
        {
          "name": "Golf Links Course at Pebble Beach Golf Links",
          "zip_code": "93953",
          "distance": 0.0
        },
        {
          "name": "Cypress Point Club",
          "zip_code": "93953",
          "distance": 0.3
        },
        {
          "name": "Cypress Point Club",
          "zip_code": "93953",
          "distance": 0.3
        },
        {
          "name": "Spyglass Hill Golf Course",
          "zip_code": "93953",
          "distance": 1.0
        },
        {
          "name": "Spyglass Hill Golf Course",
          "zip_code": "93953",
          "distance": 1.0
        },
        {
          "name": "Poppy Hills Golf Course",
          "zip_code": "93953",
          "distance": 1.2
        },
        {
          "name": "Dunes Course at Monterey Peninsula Country Club",
          "zip_code": "93953",
          "distance": 2.2
        },
        {
          "name": "The Links at Spanish Bay",
          "zip_code": "93953",
          "distance": 2.9
        },
        {
          "name": "West Course at Rancho Canada Golf Club",
          "zip_code": "93923",
          "distance": 3.9
        },
        {
          "name": "Pacific Grove Municipal Golf Course",
          "zip_code": "93950",
          "distance": 4.6
        },
        {
          "name": "Del Monte Golf Course",
          "zip_code": "93940",
          "distance": 4.7
        },
        {
          "name": "Naval Postgraduate School Golf Course",
          "zip_code": "93940",
          "distance": 5.0
        },
        {
          "name": "Quail Lodge Resort & Golf Club",
          "zip_code": "93923",
          "distance": 6.0
        },
        {
          "name": "The Bayonet Course at Bayonet/Black Horse Golf Course",
          "zip_code": "93955",
          "distance": 8.4
        },
        {
          "name": "Carmel Valley Ranch Resort",
          "zip_code": "93923",
          "distance": 8.7
        },
        {
          "name": "Tehama Golf Club",
          "zip_code": "93923",
          "distance": 8.8
        },
        {
          "name": "Laguna Seca Ranch Golf Club",
          "zip_code": "93940",
          "distance": 9.0
        },
        {
          "name": "Pasadera Country Club",
          "zip_code": "93940",
          "distance": 9.8
        }
      ]
    }
  },
  "{'lat': '36.56910381018662', 'lng': ' -121.95035631683683', 'radius': '10'}": {
    "error": "",
    "response": {
      "courses": [
        {
          "name": "Golf Links Course at Pebble Beach Golf Links",
          "zip_code": "93953",
          "distance": 0.0
        },
        {
          "name": "Cypress Point Club",
          "zip_code": "93953",
          "distance": 0.3
        },
        {
          "name": "Cypress Point Club",
          "zip_code": "93953",
          "distance": 0.3
        },
        {
          "name": "Spyglass Hill Golf Course",
          "zip_code": "93953",
          "distance": 1.0
        },
        {
          "name": "Spyglass Hill Golf Course",
          "zip_code": "93953",
          "distance": 1.0
        },
        {
          "name": "Poppy Hills Golf Course",
          "zip_code": "93953",
          "distance": 1.2
        },
        {
          "name": "Dunes Course at Monterey Peninsula Country Club",
          "zip_code": "93953",
          "distance": 2.2
        },
        {
          "name": "The Links at Spanish Bay",
          "zip_code": "93953",
          "distance": 2.9
        },
        {
          "name": "West Course at Rancho Canada Golf Club",
          "zip_code": "93923",
          "distance": 3.9
        },
        {
          "name": "Pacific Grove Municipal Golf Course",
          "zip_code": "93950",
          "distance": 4.6
        },
        {
          "name": "Del Monte Golf Course",
          "zip_code": "93940",
          "distance": 4.7
        },
        {
          "name": "Naval Postgraduate School Golf Course",
          "zip_code": "93940",
          "distance": 5.0
        },
        {
          "name": "Quail Lodge Resort & Golf Club",
          "zip_code": "93923",
          "distance": 6.0
        },
        {
          "name": "The Bayonet Course at Bayonet/Black Horse Golf Course",
          "zip_code": "93955",
          "distance": 8.4
        },
        {
          "name": "Carmel Valley Ranch Resort",
          "zip_code": "93923",
          "distance": 8.7
        },
        {
          "name": "Tehama Golf Club",
          "zip_code": "93923",
          "distance": 8.8
        },
        {
          "name": "Laguna Seca Ranch Golf Club",
          "zip_code": "93940",
          "distance": 9.0
        },
        {
          "name": "Pasadera Country Club",
          "zip_code": "93940",
          "distance": 9.8
        }
      ]
    }
  }
}