{
  "{'stateisocode': 'B', 'keyword': 'La Plata'}": {
    "error": "",
    "response": [
      {
        "city_name_normalize": "C MONTE LA PLATA",
        "city_name": "C Monte La Plata",
        "postcode": 8144,
        "iso_state": "B"
      },
      {
        "city_name_normalize": "CAMPO LA PLATA",
        "city_name": "Campo La Plata",
        "postcode": 7623,
        "iso_state": "B"
      },
      {
        "city_name_normalize": "LA LATA",
        "city_name": "La Lata",
        "postcode": 2820,
        "iso_state": "B"
      },
      {
        "city_name_normalize": "LA PLATA",
        "city_name": "La Plata",
        "postcode": 1900,
        "other_postcode": [
          1902,
          1904,
          1906,
          1907,
          1908,
          1910,
          1912,
          1914,
          1916
        ],
        "iso_state": "B"
      }
    ]
  },
  "{'stateisocode': 'X', 'keyword': 'Cordoba'}": {
    "error": "",
    "response": [
      {
        "city_name_normalize": "ALTA CORDOBA",
        "city_name": "Alta Cordoba",
        "postcode": 5000,
        "other_postcode": [
          5001
        ],
        "iso_state": "X"
      },
      {
        "city_name_normalize": "CORDOBA",
        "city_name": "C\u00f3rdoba",
        "postcode": 5000,
        "other_postcode": [
          5001,
          5002,
          5003,
          5004,
          5005,
          5006,
          5007,
          5008,
          5009,
          5010,
          5011,
          5012,
          5013,
          5014,
          5015,
          5016,
          5017,
          5018,
          5019,
          5020,
          5021,
          5022,
          5023,
          5024,
          5103
        ],
        "iso_state": "X"
      },
      {
        "city_name_normalize": "FERREYRA (CORDOBA)",
        "city_name": "Ferreyra (Cordoba)",
        "postcode": 5123,
        "iso_state": "X"
      },
      {
        "city_name_normalize": "NUEVA CORDOBA",
        "city_name": "Nueva Cordoba",
        "postcode": 5000,
        "iso_state": "X"
      },
      {
        "city_name_normalize": "SANTIAGO TEMPLE (CORDOBA)",
        "city_name": "Santiago Temple (Cordoba)",
        "postcode": 5124,
        "iso_state": "X"
      },
      {
        "city_name_normalize": "VILLA TOTORAL (CORDOBA)",
        "city_name": "Villa Totoral (Cordoba)",
        "postcode": 5236,
        "iso_state": "X"
      }
    ]
  },
  "{'stateisocode': 'B', 'keyword': 'Buenos Aires'}": {
    "error": "",
    "response": [
      {
        "city_name_normalize": "VILLA BUENOS AIRES",
        "city_name": "Villa Buenos Aires",
        "postcode": 8000,
        "iso_state": "B"
      }
    ]
  }
}