{
  "{}": {
    "error": "",
    "response": [
      {
        "id": 1,
        "cname": "AFGHANISTAN",
        "iso": "AF",
        "phonecode": "93",
        "iso3": "AFG"
      },
      {
        "id": 2,
        "cname": "ALBANIA",
        "iso": "AL",
        "phonecode": "355",
        "iso3": "ALB"
      },
      {
        "id": 3,
        "cname": "ALGERIA",
        "iso": "DZ",
        "phonecode": "213",
        "iso3": "DZA"
      },
      {
        "id": 4,
        "cname": "AMERICAN SAMOA",
        "iso": "AS",
        "phonecode": "1684",
        "iso3": "ASM"
      },
      {
        "id": 5,
        "cname": "ANDORRA",
        "iso": "AD",
        "phonecode": "376",
        "iso3": "AND"
      },
      {
        "id": 6,
        "cname": "ANGOLA",
        "iso": "AO",
        "phonecode": "244",
        "iso3": "AGO"
      },
      {
        "id": 7,
        "cname": "ANGUILLA",
        "iso": "AI",
        "phonecode": "1264",
        "iso3": "AIA"
      },
      {
        "id": 8,
        "cname": "ANTARCTICA",
        "iso": "AQ",
        "phonecode": "0",
        "iso3": ""
      },
      {
        "id": 9,
        "cname": "ANTIGUA AND BARBUDA",
        "iso": "AG",
        "phonecode": "1268",
        "iso3": "ATG"
      },
      {
        "id": 10,
        "cname": "ARGENTINA",
        "iso": "AR",
        "phonecode": "54",
        "iso3": "ARG"
      },
      {
        "id": 11,
        "cname": "ARMENIA",
        "iso": "AM",
        "phonecode": "374",
        "iso3": "ARM"
      },
      {
        "id": 12,
        "cname": "ARUBA",
        "iso": "AW",
        "phonecode": "297",
        "iso3": "ABW"
      },
      {
        "id": 13,
        "cname": "AUSTRALIA",
        "iso": "AU",
        "phonecode": "61",
        "iso3": "AUS"
      },
      {
        "id": 14,
        "cname": "AUSTRIA",
        "iso": "AT",
        "phonecode": "43",
        "iso3": "AUT"
      },
      {
        "id": 15,
        "cname": "AZERBAIJAN",
        "iso": "AZ",
        "phonecode": "994",
        "iso3": "AZE"
      },
      {
        "id": 16,
        "cname": "BAHAMAS",
        "iso": "BS",
        "phonecode": "1242",
        "iso3": "BHS"
      },
      {
        "id": 17,
        "cname": "BAHRAIN",
        "iso": "BH",
        "phonecode": "973",
        "iso3": "BHR"
      },
      {
        "id": 18,
        "cname": "BANGLADESH",
        "iso": "BD",
        "phonecode": "880",
        "iso3": "BGD"
      },
      {
        "id": 19,
        "cname": "BARBADOS",
        "iso": "BB",
        "phonecode": "1246",
        "iso3": "BRB"
      },
      {
        "id": 20,
        "cname": "BELARUS",
        "iso": "BY",
        "phonecode": "375",
        "iso3": "BLR"
      },
      {
        "id": 21,
        "cname": "BELGIUM",
        "iso": "BE",
        "phonecode": "32",
        "iso3": "BEL"
      },
      {
        "id": 22,
        "cname": "BELIZE",
        "iso": "BZ",
        "phonecode": "501",
        "iso3": "BLZ"
      },
      {
        "id": 23,
        "cname": "BENIN",
        "iso": "BJ",
        "phonecode": "229",
        "iso3": "BEN"
      },
      {
        "id": 24,
        "cname": "BERMUDA",
        "iso": "BM",
        "phonecode": "1441",
        "iso3": "BMU"
      },
      {
        "id": 25,
        "cname": "BHUTAN",
        "iso": "BT",
        "phonecode": "975",
        "iso3": "BTN"
      }
    ]
  }
}