{
  "{\n  \"postcodea\": \"CF103NP\",\n  \"postcodeb\": \"CF103RB\"\n}": {
    "error": "",
    "response": "{\"A\":{\"postcode\":\"CF10 3NP\",\"latitude\":51.48563,\"longitude\":-3.177216},\"B\":{\"postcode\":\"CF10 3RB\",\"latitude\":51.482242,\"longitude\":-3.181516},\"Distance\":0.4801654909320677}"
  },
  "{'postcodea': 'W1D 5LB', 'postcodeb': 'EH1 1RZ'}": {
    "error": "",
    "response": {
      "A": {
        "postcode": "W1D 5LB",
        "latitude": 51.513098,
        "longitude": -0.131022
      },
      "B": {
        "postcode": "EH1 1RZ",
        "latitude": 55.943218,
        "longitude": -3.232954
      },
      "Distance": 533.0400498989301
    }
  },
  "{'postcodea': 'SW1A 1AA', 'postcodeb': 'SW1E 6LA'}": {
    "error": "",
    "response": {
      "A": {
        "postcode": "SW1A 1AA",
        "latitude": 51.501009,
        "longitude": -0.14158800000000002
      },
      "B": {
        "postcode": "SW1E 6LA",
        "latitude": 51.499932,
        "longitude": -0.14114200000000002
      },
      "Distance": 0.12366621568198635
    }
  },
  "{'postcodea': 'CF103NP', 'postcodeb': 'CF103RB'}": {
    "error": "",
    "response": {
      "A": {
        "postcode": "CF10 3NP",
        "latitude": 51.48563,
        "longitude": -3.177216
      },
      "B": {
        "postcode": "CF10 3RB",
        "latitude": 51.482242,
        "longitude": -3.181516
      },
      "Distance": 0.4801654909320677
    }
  },
  "{'postcodea': 'CF103NP', 'postcodeb': 'CF103BA'}": {
    "error": "",
    "response": {
      "A": {
        "postcode": "CF10 3NP",
        "latitude": 51.48563,
        "longitude": -3.177216
      },
      "B": {
        "postcode": "CF10 3BA",
        "latitude": 51.485795,
        "longitude": -3.176091
      },
      "Distance": 0.08002502928722437
    }
  },
  "{'postcodea': 'E1 6AN', 'postcodeb': 'E1 7LP'}": {
    "error": "",
    "response": {
      "A": {
        "postcode": "E1 6AN",
        "latitude": 51.518852,
        "longitude": -0.07851
      },
      "B": {
        "postcode": "E1 7LP",
        "latitude": 51.518578000000005,
        "longitude": -0.078247
      },
      "Distance": 0.035486574944158966
    }
  },
  "{'postcodea': 'SW1A 1AA', 'postcodeb': 'SW1A 1AB'}": {
    "error": "",
    "response": {
      "A": {
        "postcode": "SW1A 1AA",
        "latitude": 51.501009,
        "longitude": -0.14158800000000002
      },
      "B": {
        "postcode": "SW1A 1AB",
        "latitude": 51.510298,
        "longitude": -0.12463699999999998
      },
      "Distance": 1.5630256292495925
    }
  },
  "{'postcodea': 'SW1P 1AA', 'postcodeb': 'SE1 7PB'}": {
    "error": "",
    "response": {
      "A": {
        "postcode": "SW1P 1AA",
        "latitude": 51.496429,
        "longitude": -0.13743699999999998
      },
      "B": {
        "postcode": "SE1 7PB",
        "latitude": 51.5025,
        "longitude": -0.11938399999999999
      },
      "Distance": 1.420263170911173
    }
  },
  "{'postcodea': 'CF10 3NP', 'postcodeb': 'CF10 3RB'}": {
    "error": "",
    "response": {
      "A": {
        "postcode": "CF10 3NP",
        "latitude": 51.48563,
        "longitude": -3.177216
      },
      "B": {
        "postcode": "CF10 3RB",
        "latitude": 51.482242,
        "longitude": -3.181516
      },
      "Distance": 0.4801654909320677
    }
  },
  "{'postcodea': 'CF103NP', 'postcodeb': 'CF105BZ'}": {
    "error": "",
    "response": {
      "A": {
        "postcode": "CF10 3NP",
        "latitude": 51.48563,
        "longitude": -3.177216
      },
      "B": {
        "postcode": "CF10 5BZ",
        "latitude": 51.463431,
        "longitude": -3.165353
      },
      "Distance": 2.6014397222676315
    }
  },
  "{'postcodea': 'CF103NP', 'postcodeb': 'CF118DJ'}": {
    "error": "",
    "response": {
      "A": {
        "postcode": "CF10 3NP",
        "latitude": 51.48563,
        "longitude": -3.177216
      },
      "B": {
        "postcode": "CF11 8DJ",
        "latitude": 51.481654,
        "longitude": -3.2187189999999997
      },
      "Distance": 2.907555946191199
    }
  },
  "{'postcodea': 'CF10 3NP', 'postcodeb': 'CF10 3BA'}": {
    "error": "",
    "response": {
      "A": {
        "postcode": "CF10 3NP",
        "latitude": 51.48563,
        "longitude": -3.177216
      },
      "B": {
        "postcode": "CF10 3BA",
        "latitude": 51.485795,
        "longitude": -3.176091
      },
      "Distance": 0.08002502928722437
    }
  },
  "{'postcodea': 'CF10 3NP', 'postcodeb': 'CF10 3BS'}": {
    "error": "",
    "response": {
      "A": {
        "postcode": "CF10 3NP",
        "latitude": 51.48563,
        "longitude": -3.177216
      },
      "B": {
        "postcode": "CF10 3BS",
        "latitude": 51.486081,
        "longitude": -3.176148
      },
      "Distance": 0.08934651199098717
    }
  },
  "{'postcodea': 'CF10 3NP', 'postcodeb': 'CF10 3RL'}": {
    "error": "",
    "response": {
      "A": {
        "postcode": "CF10 3NP",
        "latitude": 51.48563,
        "longitude": -3.177216
      },
      "B": {
        "postcode": "CF10 3RL",
        "latitude": 51.486518,
        "longitude": -3.176534
      },
      "Distance": 0.1094470221535113
    }
  },
  "{'postcodea': 'CF10 3NP', 'postcodeb': 'CF10 3ND'}": {
    "error": "",
    "response": {
      "A": {
        "postcode": "CF10 3NP",
        "latitude": 51.48563,
        "longitude": -3.177216
      },
      "B": {
        "postcode": "CF10 3ND",
        "latitude": 51.485147999999995,
        "longitude": -3.178659
      },
      "Distance": 0.11337869298173342
    }
  },
  "{'postcodea': 'CF10 3NP', 'postcodeb': 'CF10 3BG'}": {
    "error": "",
    "response": {
      "A": {
        "postcode": "CF10 3NP",
        "latitude": 51.48563,
        "longitude": -3.177216
      },
      "B": {
        "postcode": "CF10 3BG",
        "latitude": 51.486428000000004,
        "longitude": -3.175704
      },
      "Distance": 0.1372317537568735
    }
  },
  "{'postcodea': 'CF10 3NP', 'postcodeb': 'CF10 3UB'}": {
    "error": "",
    "response": {
      "A": {
        "postcode": "CF10 3NP",
        "latitude": 51.48563,
        "longitude": -3.177216
      },
      "B": {
        "postcode": "CF10 3UB",
        "latitude": 51.486851,
        "longitude": -3.176528
      },
      "Distance": 0.1438770978982029
    }
  },
  "{'postcodea': 'CF10 3NP', 'postcodeb': 'CF10 3BE'}": {
    "error": "",
    "response": {
      "A": {
        "postcode": "CF10 3NP",
        "latitude": 51.48563,
        "longitude": -3.177216
      },
      "B": {
        "postcode": "CF10 3BE",
        "latitude": 51.485365,
        "longitude": -3.174986
      },
      "Distance": 0.15718963919716758
    }
  },
  "{'postcodea': 'CF10 3NP', 'postcodeb': 'CF10 3DQ'}": {
    "error": "",
    "response": {
      "A": {
        "postcode": "CF10 3NP",
        "latitude": 51.48563,
        "longitude": -3.177216
      },
      "B": {
        "postcode": "CF10 3DQ",
        "latitude": 51.484776000000004,
        "longitude": -3.175365
      },
      "Distance": 0.15950628477380407
    }
  },
  "{'postcodea': 'CF103NP', 'postcodeb': 'SE17QD'}": {
    "error": "",
    "response": {
      "A": {
        "postcode": "CF10 3NP",
        "latitude": 51.48563,
        "longitude": -3.177216
      },
      "B": {
        "postcode": "SE1 7QD",
        "latitude": 51.498204,
        "longitude": -0.10679300000000001
      },
      "Distance": 212.5526060135413
    }
  },
  "{'postcodea': 'CF10 1FS', 'postcodeb': 'CF24 3JT'}": {
    "error": "",
    "response": {
      "A": {
        "postcode": "CF10 1FS",
        "latitude": 51.476633,
        "longitude": -3.1804919999999997
      },
      "B": {
        "postcode": "CF24 3JT",
        "latitude": 51.4922,
        "longitude": -3.1667549999999998
      },
      "Distance": 1.9750141360567486
    }
  },
  "{'postcodea': 'CF10 1FS', 'postcodeb': 'CF24 4LT'}": {
    "error": "",
    "response": {
      "A": {
        "postcode": "CF10 1FS",
        "latitude": 51.476633,
        "longitude": -3.1804919999999997
      },
      "B": {
        "postcode": "CF24 4LT",
        "latitude": 51.495670000000004,
        "longitude": -3.1874290000000003
      },
      "Distance": 2.1705251852296454
    }
  },
  "{'postcodea': 'CF10 1FS', 'postcodeb': 'CF11 9NJ'}": {
    "error": "",
    "response": {
      "A": {
        "postcode": "CF10 1FS",
        "latitude": 51.476633,
        "longitude": -3.1804919999999997
      },
      "B": {
        "postcode": "CF11 9NJ",
        "latitude": 51.482366999999996,
        "longitude": -3.201975
      },
      "Distance": 1.6185233983432976
    }
  },
  "{'postcodea': 'CF10 1FS', 'postcodeb': 'CF14 1AA'}": {
    "error": "",
    "response": {
      "A": {
        "postcode": "CF10 1FS",
        "latitude": 51.476633,
        "longitude": -3.1804919999999997
      },
      "B": {
        "postcode": "CF14 1AA",
        "latitude": 51.513991,
        "longitude": -3.2194380000000002
      },
      "Distance": 4.9520379413262585
    }
  },
  "{'postcodea': 'CF10 1FS', 'postcodeb': 'CF24 3AA'}": {
    "error": "",
    "response": {
      "A": {
        "postcode": "CF10 1FS",
        "latitude": 51.476633,
        "longitude": -3.1804919999999997
      },
      "B": {
        "postcode": "CF24 3AA",
        "latitude": 51.484590999999995,
        "longitude": -3.169657
      },
      "Distance": 1.160122289472923
    }
  },
  "{'postcodea': 'CF10 1FS', 'postcodeb': 'CF23 5AA'}": {
    "error": "",
    "response": {
      "A": {
        "postcode": "CF10 1FS",
        "latitude": 51.476633,
        "longitude": -3.1804919999999997
      },
      "B": {
        "postcode": "CF23 5AA",
        "latitude": 51.494644,
        "longitude": -3.155149
      },
      "Distance": 2.6626303343456947
    }
  },
  "{'postcodea': 'CF10 1FS', 'postcodeb': 'CF10 1FT'}": {
    "error": "",
    "response": {
      "A": {
        "postcode": "CF10 1FS",
        "latitude": 51.476633,
        "longitude": -3.1804919999999997
      },
      "B": {
        "postcode": "CF10 1FT",
        "latitude": 51.476815,
        "longitude": -3.1794029999999998
      },
      "Distance": 0.07808385847829244
    }
  },
  "{'postcodea': 'CF10 1FS', 'postcodeb': 'CF10 1XR'}": {
    "error": "",
    "response": {
      "A": {
        "postcode": "CF10 1FS",
        "latitude": 51.476633,
        "longitude": -3.1804919999999997
      },
      "B": {
        "postcode": "CF10 1XR",
        "latitude": 51.477364,
        "longitude": -3.18105
      },
      "Distance": 0.08999788738394324
    }
  },
  "{'postcodea': 'CF14 1AA', 'postcodeb': 'CF10 1FS'}": {
    "error": "",
    "response": {
      "A": {
        "postcode": "CF14 1AA",
        "latitude": 51.513991,
        "longitude": -3.2194380000000002
      },
      "B": {
        "postcode": "CF10 1FS",
        "latitude": 51.476633,
        "longitude": -3.1804919999999997
      },
      "Distance": 4.9520379413262585
    }
  },
  "{'postcodea': 'CF14 1AA', 'postcodeb': 'CF24 0RZ'}": {
    "error": "",
    "response": {
      "A": {
        "postcode": "CF14 1AA",
        "latitude": 51.513991,
        "longitude": -3.2194380000000002
      },
      "B": {
        "postcode": "CF24 0RZ",
        "latitude": 51.482105,
        "longitude": -3.1664830000000004
      },
      "Distance": 5.099613204212474
    }
  },
  "{'postcodea': 'CF10 1FS', 'postcodeb': 'PL4 8AA'}": {
    "error": "",
    "response": {
      "A": {
        "postcode": "CF10 1FS",
        "latitude": 51.476633,
        "longitude": -3.1804919999999997
      },
      "B": {
        "postcode": "PL4 8AA",
        "latitude": 50.375438,
        "longitude": -4.13794
      },
      "Distance": 139.6205202513731
    }
  },
  "{'postcodea': 'CF10 1FS', 'postcodeb': 'NP20 1AA'}": {
    "error": "",
    "response": {
      "A": {
        "postcode": "CF10 1FS",
        "latitude": 51.476633,
        "longitude": -3.1804919999999997
      },
      "B": {
        "postcode": "NP20 1AA",
        "latitude": 51.589732,
        "longitude": -2.997316
      },
      "Distance": 17.851105820815118
    }
  },
  "{'postcodea': 'CF10 1FS', 'postcodeb': 'BS1 5AH'}": {
    "error": "",
    "response": {
      "A": {
        "postcode": "CF10 1FS",
        "latitude": 51.476633,
        "longitude": -3.1804919999999997
      },
      "B": {
        "postcode": "BS1 5AH",
        "latitude": 51.451801,
        "longitude": -2.602866
      },
      "Distance": 40.108046493609706
    }
  },
  "{'postcodea': 'SW1A1AA', 'postcodeb': 'SW1A1AA'}": {
    "error": "",
    "response": {
      "A": {
        "postcode": "SW1A 1AA",
        "latitude": 51.501009,
        "longitude": -0.14158800000000002
      },
      "B": {
        "postcode": "SW1A 1AA",
        "latitude": 51.501009,
        "longitude": -0.14158800000000002
      },
      "Distance": 0.0
    }
  }
}