{
  "{\n  \"postcode\": \"CF103NP\"\n}": {
    "error": "",
    "response": "{\"postcode\":\"CF10 3NP\",\"latitude\":51.48563,\"longitude\":-3.177216}"
  },
  "{'postcode': 'CF103RB'}": {
    "error": "",
    "response": {
      "postcode": "CF10 3RB",
      "latitude": 51.482242,
      "longitude": -3.181516
    }
  },
  "{'postcode': 'SW1A 1AA'}": {
    "error": "",
    "response": {
      "postcode": "SW1A 1AA",
      "latitude": 51.501009,
      "longitude": -0.14158800000000002
    }
  },
  "{'postcode': 'EC1A 1BB'}": {
    "error": "",
    "response": {
      "postcode": "EC1A 1BB",
      "latitude": 51.524565,
      "longitude": -0.112042
    }
  },
  "{'postcode': 'EH1 1BB'}": {
    "error": "",
    "response": {
      "postcode": "EH1 1BB",
      "latitude": 55.952014,
      "longitude": -3.189547
    }
  },
  "{'postcode': 'WC2N 5DW'}": {
    "error": "",
    "response": {
      "postcode": "WC2N 5DW",
      "latitude": 51.507211,
      "longitude": -0.128381
    }
  },
  "{'postcode': 'NW1 4RY'}": {
    "error": "",
    "response": {
      "postcode": "NW1 4RY",
      "latitude": 51.535718,
      "longitude": -0.15573199999999998
    }
  },
  "{'postcode': 'SW1E 6LA'}": {
    "error": "",
    "response": {
      "postcode": "SW1E 6LA",
      "latitude": 51.499932,
      "longitude": -0.14114200000000002
    }
  },
  "{'postcode': 'SW1E 6JP'}": {
    "error": "",
    "response": {
      "postcode": "SW1E 6JP",
      "latitude": 51.499735,
      "longitude": -0.14164300000000002
    }
  },
  "{'postcode': 'SW1E 6AY'}": {
    "error": "",
    "response": {
      "postcode": "SW1E 6AY",
      "latitude": 51.499738,
      "longitude": -0.140735
    }
  },
  "{'postcode': 'SW1E 6NR'}": {
    "error": "",
    "response": {
      "postcode": "SW1E 6NR",
      "latitude": 51.49958,
      "longitude": -0.14105499999999999
    }
  },
  "{'postcode': 'SW1E 6DU'}": {
    "error": "",
    "response": {
      "postcode": "SW1E 6DU",
      "latitude": 51.499355,
      "longitude": -0.141093
    }
  },
  "{'postcode': 'SW1E 6HF'}": {
    "error": "",
    "response": {
      "postcode": "SW1E 6HF",
      "latitude": 51.499016999999995,
      "longitude": -0.140718
    }
  },
  "{'postcode': 'CF103NP'}": {
    "error": "",
    "response": {
      "postcode": "CF10 3NP",
      "latitude": 51.48563,
      "longitude": -3.177216
    }
  },
  "{'postcode': 'CF103BA'}": {
    "error": "",
    "response": {
      "postcode": "CF10 3BA",
      "latitude": 51.485795,
      "longitude": -3.176091
    }
  },
  "{'postcode': 'CF103BS'}": {
    "error": "",
    "response": {
      "postcode": "CF10 3BS",
      "latitude": 51.486081,
      "longitude": -3.176148
    }
  },
  "{'postcode': 'E1 4AQ'}": {
    "error": "",
    "response": {
      "postcode": "E1 4AQ",
      "latitude": 51.521840999999995,
      "longitude": -0.047146
    }
  },
  "{'postcode': 'E1 6AN'}": {
    "error": "",
    "response": {
      "postcode": "E1 6AN",
      "latitude": 51.518852,
      "longitude": -0.07851
    }
  },
  "{'postcode': 'E1 7LP'}": {
    "error": "",
    "response": {
      "postcode": "E1 7LP",
      "latitude": 51.518578000000005,
      "longitude": -0.078247
    }
  },
  "{'postcode': 'EC2M 4QH'}": {
    "error": "",
    "response": {
      "postcode": "EC2M 4QH",
      "latitude": 51.51871,
      "longitude": -0.079277
    }
  },
  "{'postcode': 'EC2A 4BX'}": {
    "error": "",
    "response": {
      "postcode": "EC2A 4BX",
      "latitude": 51.522586,
      "longitude": -0.08537
    }
  },
  "{'postcode': 'SE1 7PB'}": {
    "error": "",
    "response": {
      "postcode": "SE1 7PB",
      "latitude": 51.5025,
      "longitude": -0.11938399999999999
    }
  },
  "{'postcode': 'N1 9JY'}": {
    "error": "",
    "response": {
      "postcode": "N1 9JY",
      "latitude": 51.531164000000004,
      "longitude": -0.120207
    }
  },
  "{'postcode': 'EH1 1YZ'}": {
    "error": "",
    "response": {
      "postcode": "EH1 1YZ",
      "latitude": 55.950331999999996,
      "longitude": -3.1930169999999998
    }
  },
  "{'postcode': 'EH2 2EQ'}": {
    "error": "",
    "response": {
      "postcode": "EH2 2EQ",
      "latitude": 55.952926,
      "longitude": -3.189589
    }
  },
  "{'postcode': 'EC2Y 8DS'}": {
    "error": "",
    "response": {
      "postcode": "EC2Y 8DS",
      "latitude": 51.519959,
      "longitude": -0.09412899999999999
    }
  },
  "{'postcode': 'W6 0NB'}": {
    "error": "",
    "response": {
      "postcode": "W6 0NB",
      "latitude": 51.493393,
      "longitude": -0.22633499999999998
    }
  },
  "{'postcode': 'AB32 6XY'}": {
    "error": "",
    "response": {
      "postcode": "AB32 6XY",
      "latitude": 57.158702000000005,
      "longitude": -2.275116
    }
  },
  "{'postcode': 'CF10 3NP'}": {
    "error": "",
    "response": {
      "postcode": "CF10 3NP",
      "latitude": 51.48563,
      "longitude": -3.177216
    }
  },
  "{'postcode': 'L1 9HF'}": {
    "error": "",
    "response": {
      "postcode": "L1 9HF",
      "latitude": 53.399657,
      "longitude": -2.972271
    }
  },
  "{'postcode': 'CF10 3BA'}": {
    "error": "",
    "response": {
      "postcode": "CF10 3BA",
      "latitude": 51.485795,
      "longitude": -3.176091
    }
  },
  "{'postcode': 'CF10 3BS'}": {
    "error": "",
    "response": {
      "postcode": "CF10 3BS",
      "latitude": 51.486081,
      "longitude": -3.176148
    }
  },
  "{'postcode': 'CF10 3RL'}": {
    "error": "",
    "response": {
      "postcode": "CF10 3RL",
      "latitude": 51.486518,
      "longitude": -3.176534
    }
  },
  "{'postcode': 'CF10 3ND'}": {
    "error": "",
    "response": {
      "postcode": "CF10 3ND",
      "latitude": 51.485147999999995,
      "longitude": -3.178659
    }
  },
  "{'postcode': 'CF10 3UB'}": {
    "error": "",
    "response": {
      "postcode": "CF10 3UB",
      "latitude": 51.486851,
      "longitude": -3.176528
    }
  },
  "{'postcode': 'SW1A1AA'}": {
    "error": "",
    "response": {
      "postcode": "SW1A 1AA",
      "latitude": 51.501009,
      "longitude": -0.14158800000000002
    }
  },
  "{'postcode': 'B1 1BB'}": {
    "error": "",
    "response": {
      "postcode": "B1 1BB",
      "latitude": 52.480782999999995,
      "longitude": -1.904096
    }
  },
  "{'postcode': 'CF10 1FS'}": {
    "error": "",
    "response": {
      "postcode": "CF10 1FS",
      "latitude": 51.476633,
      "longitude": -3.1804919999999997
    }
  },
  "{'postcode': 'CF15 7QR'}": {
    "error": "",
    "response": {
      "postcode": "CF15 7QR",
      "latitude": 51.544585999999995,
      "longitude": -3.265792
    }
  },
  "{'postcode': 'CF24 4AG'}": {
    "error": "",
    "response": {
      "postcode": "CF24 4AG",
      "latitude": 51.486855,
      "longitude": -3.174347
    }
  },
  "{'postcode': 'CF14 1AA'}": {
    "error": "",
    "response": {
      "postcode": "CF14 1AA",
      "latitude": 51.513991,
      "longitude": -3.2194380000000002
    }
  }
}