{
  "{\n  \"zipcode\": \"32390\"\n}": {
    "error": "",
    "response": "{\"data\":[{\"zip_code\":\"32390\",\"city\":\"Ju\u00e1rez\",\"state\":\"Chihuahua\",\"municipality\":\"Ju\u00e1rez\",\"neighborhood_name\":\"Villa Jacarandas\",\"zone_type\":\"Urbano\"},{\"zip_code\":\"32390\",\"city\":\"Ju\u00e1rez\",\"state\":\"Chihuahua\",\"municipality\":\"Ju\u00e1rez\",\"neighborhood_name\":\"Benito Ju\u00e1rez\",\"zone_type\":\"Urbano\"},{\"zip_code\":\"32390\",\"city\":\"Ju\u00e1rez\",\"state\":\"Chihuahua\",\"municipality\":\"Ju\u00e1rez\",\"neighborhood_name\":\"El Roble\",\"zone_type\":\"Urbano\"},{\"zip_code\":\"32390\",\"city\":\"Ju\u00e1rez\",\"state\":\"Chihuahua\",\"municipality\":\"Ju\u00e1rez\",\"neighborhood_name\":\"Jardines de San Jos\u00e9\",\"zone_type\":\"Urbano\"},{\"zip_code\":\"32390\",\"city\":\"Ju\u00e1rez\",\"state\":\"Chihuahua\",\"municipality\":\"Ju\u00e1rez\",\"neighborhood_name\":\"Se\u00f1orial\",\"zone_type\":\"Urbano\"},{\"zip_code\":\"32390\",\"city\":\"Ju\u00e1rez\",\"state\":\"Chihuahua\",\"municipality\":\"Ju\u00e1rez\",\"neighborhood_name\":\"Los Sauces\",\"zone_type\":\"Urbano\"},{\"zip_code\":\"32390\",\"city\":\"Ju\u00e1rez\",\"state\":\"Chihuahua\",\"municipality\":\"Ju\u00e1rez\",\"neighborhood_name\":\"Arciniega\",\"zone_type\":\"Urbano\"},{\"zip_code\":\"32390\",\"city\":\"Ju\u00e1rez\",\"state\":\"Chihuahua\",\"municipality\":\"Ju\u00e1rez\",\"neighborhood_name\":\"El Paseo\",\"zone_type\":\"Urbano\"},{\"zip_code\":\"32390\",\"city\":\"Ju\u00e1rez\",\"state\":\"Chihuahua\",\"municipality\":\"Ju\u00e1rez\",\"neighborhood_name\":\"Residencial Coloso\",\"zone_type\":\"Urbano\"},{\"zip_code\":\"32390\",\"city\":\"Ju\u00e1rez\",\"state\":\"Chihuahua\",\"municipality\":\"Ju\u00e1rez\",\"neighborhood_name\":\"San Jos\u00e9\",\"zone_type\":\"Urbano\"},{\"zip_code\":\"32390\",\"city\":\"Ju\u00e1rez\",\"state\":\"Chihuahua\",\"municipality\":\"Ju\u00e1rez\",\"neighborhood_name\":\"Tita\",\"zone_type\":\"Urbano\"}]}"
  },
  "{'zipcode': '32390'}": {
    "error": "",
    "response": {
      "results": [
        {
          "zip_code": "32390",
          "state": "Chihuahua",
          "city": "Ju\u00e1rez",
          "municipality": "Ju\u00e1rez",
          "neighborhood_name": "Villa Jacarandas"
        },
        {
          "zip_code": "32390",
          "state": "Chihuahua",
          "city": "Ju\u00e1rez",
          "municipality": "Ju\u00e1rez",
          "neighborhood_name": "Benito Ju\u00e1rez"
        },
        {
          "zip_code": "32390",
          "state": "Chihuahua",
          "city": "Ju\u00e1rez",
          "municipality": "Ju\u00e1rez",
          "neighborhood_name": "El Roble"
        },
        {
          "zip_code": "32390",
          "state": "Chihuahua",
          "city": "Ju\u00e1rez",
          "municipality": "Ju\u00e1rez",
          "neighborhood_name": "Jardines de San Jos\u00e9"
        },
        {
          "zip_code": "32390",
          "state": "Chihuahua",
          "city": "Ju\u00e1rez",
          "municipality": "Ju\u00e1rez",
          "neighborhood_name": "Se\u00f1orial"
        },
        {
          "zip_code": "32390",
          "state": "Chihuahua",
          "city": "Ju\u00e1rez",
          "municipality": "Ju\u00e1rez",
          "neighborhood_name": "Los Sauces"
        },
        {
          "zip_code": "32390",
          "state": "Chihuahua",
          "city": "Ju\u00e1rez",
          "municipality": "Ju\u00e1rez",
          "neighborhood_name": "Arciniega"
        },
        {
          "zip_code": "32390",
          "state": "Chihuahua",
          "city": "Ju\u00e1rez",
          "municipality": "Ju\u00e1rez",
          "neighborhood_name": "El Paseo"
        },
        {
          "zip_code": "32390",
          "state": "Chihuahua",
          "city": "Ju\u00e1rez",
          "municipality": "Ju\u00e1rez",
          "neighborhood_name": "Residencial Coloso"
        },
        {
          "zip_code": "32390",
          "state": "Chihuahua",
          "city": "Ju\u00e1rez",
          "municipality": "Ju\u00e1rez",
          "neighborhood_name": "San Jos\u00e9"
        },
        {
          "zip_code": "32390",
          "state": "Chihuahua",
          "city": "Ju\u00e1rez",
          "municipality": "Ju\u00e1rez",
          "neighborhood_name": "Tita"
        }
      ]
    }
  },
  "{'zipcode': '10024'}": {
    "error": "",
    "response": {
      "results": []
    }
  },
  "{'zipcode': 'Mexico City'}": {
    "error": "",
    "response": {
      "results": []
    }
  },
  "{'zipcode': 'Cancun'}": {
    "error": "",
    "response": {
      "results": []
    }
  },
  "{'zipcode': 'Puerto Vallarta'}": {
    "error": "",
    "response": {
      "results": []
    }
  },
  "{'zipcode': 'Tulum'}": {
    "error": "",
    "response": {
      "results": []
    }
  },
  "{'zipcode': '20050'}": {
    "error": "",
    "response": {
      "results": [
        {
          "zip_code": "20050",
          "state": "Aguascalientes",
          "city": "Aguascalientes",
          "municipality": "Aguascalientes",
          "neighborhood_name": "Bugambilias"
        },
        {
          "zip_code": "20050",
          "state": "Aguascalientes",
          "city": "Aguascalientes",
          "municipality": "Aguascalientes",
          "neighborhood_name": "Del Carmen"
        },
        {
          "zip_code": "20050",
          "state": "Aguascalientes",
          "city": "Aguascalientes",
          "municipality": "Aguascalientes",
          "neighborhood_name": "La Fe"
        },
        {
          "zip_code": "20050",
          "state": "Aguascalientes",
          "city": "Aguascalientes",
          "municipality": "Aguascalientes",
          "neighborhood_name": "M\u00e9xico"
        },
        {
          "zip_code": "20050",
          "state": "Aguascalientes",
          "city": "Aguascalientes",
          "municipality": "Aguascalientes",
          "neighborhood_name": "Primavera"
        },
        {
          "zip_code": "20050",
          "state": "Aguascalientes",
          "city": "Aguascalientes",
          "municipality": "Aguascalientes",
          "neighborhood_name": "San Pablo"
        }
      ]
    }
  },
  "{'zipcode': '20130'}": {
    "error": "",
    "response": {
      "results": [
        {
          "zip_code": "20130",
          "state": "Aguascalientes",
          "city": "Aguascalientes",
          "municipality": "Aguascalientes",
          "neighborhood_name": "Bosques del Prado Sur"
        },
        {
          "zip_code": "20130",
          "state": "Aguascalientes",
          "city": "Aguascalientes",
          "municipality": "Aguascalientes",
          "neighborhood_name": "El Roble"
        },
        {
          "zip_code": "20130",
          "state": "Aguascalientes",
          "city": "Aguascalientes",
          "municipality": "Aguascalientes",
          "neighborhood_name": "F\u00e1tima"
        },
        {
          "zip_code": "20130",
          "state": "Aguascalientes",
          "city": "Aguascalientes",
          "municipality": "Aguascalientes",
          "neighborhood_name": "Independencia de M\u00e9xico"
        },
        {
          "zip_code": "20130",
          "state": "Aguascalientes",
          "city": "Aguascalientes",
          "municipality": "Aguascalientes",
          "neighborhood_name": "Nueva Rinconada"
        },
        {
          "zip_code": "20130",
          "state": "Aguascalientes",
          "city": "Aguascalientes",
          "municipality": "Aguascalientes",
          "neighborhood_name": "Primo Verdad"
        },
        {
          "zip_code": "20130",
          "state": "Aguascalientes",
          "city": "Aguascalientes",
          "municipality": "Aguascalientes",
          "neighborhood_name": "San Jos\u00e9 del Arenal"
        },
        {
          "zip_code": "20130",
          "state": "Aguascalientes",
          "city": "Aguascalientes",
          "municipality": "Aguascalientes",
          "neighborhood_name": "Unidad Ganadera"
        },
        {
          "zip_code": "20130",
          "state": "Aguascalientes",
          "city": "Aguascalientes",
          "municipality": "Aguascalientes",
          "neighborhood_name": "San Xavier"
        },
        {
          "zip_code": "20130",
          "state": "Aguascalientes",
          "city": "Aguascalientes",
          "municipality": "Aguascalientes",
          "neighborhood_name": "Residencial del Real"
        },
        {
          "zip_code": "20130",
          "state": "Aguascalientes",
          "city": "Aguascalientes",
          "municipality": "Aguascalientes",
          "neighborhood_name": "Puerta Navarra"
        },
        {
          "zip_code": "20130",
          "state": "Aguascalientes",
          "city": "Aguascalientes",
          "municipality": "Aguascalientes",
          "neighborhood_name": "Residencial Campestre Club de Golf"
        },
        {
          "zip_code": "20130",
          "state": "Aguascalientes",
          "city": "Aguascalientes",
          "municipality": "Aguascalientes",
          "neighborhood_name": "Palma Real"
        },
        {
          "zip_code": "20130",
          "state": "Aguascalientes",
          "city": "Aguascalientes",
          "municipality": "Aguascalientes",
          "neighborhood_name": "Muralia"
        }
      ]
    }
  },
  "{'zipcode': '20270'}": {
    "error": "",
    "response": {
      "results": [
        {
          "zip_code": "20270",
          "state": "Aguascalientes",
          "city": "Aguascalientes",
          "municipality": "Aguascalientes",
          "neighborhood_name": "Mesonero"
        },
        {
          "zip_code": "20270",
          "state": "Aguascalientes",
          "city": "Aguascalientes",
          "municipality": "Aguascalientes",
          "neighborhood_name": "Bulevar"
        },
        {
          "zip_code": "20270",
          "state": "Aguascalientes",
          "city": "Aguascalientes",
          "municipality": "Aguascalientes",
          "neighborhood_name": "El Caminero"
        },
        {
          "zip_code": "20270",
          "state": "Aguascalientes",
          "city": "Aguascalientes",
          "municipality": "Aguascalientes",
          "neighborhood_name": "Jardines de Aguascalientes"
        },
        {
          "zip_code": "20270",
          "state": "Aguascalientes",
          "city": "Aguascalientes",
          "municipality": "Aguascalientes",
          "neighborhood_name": "Jardines de La Asunci\u00f3n"
        },
        {
          "zip_code": "20270",
          "state": "Aguascalientes",
          "city": "Aguascalientes",
          "municipality": "Aguascalientes",
          "neighborhood_name": "Las Canoas"
        },
        {
          "zip_code": "20270",
          "state": "Aguascalientes",
          "city": "Aguascalientes",
          "municipality": "Aguascalientes",
          "neighborhood_name": "Lindavista"
        },
        {
          "zip_code": "20270",
          "state": "Aguascalientes",
          "city": "Aguascalientes",
          "municipality": "Aguascalientes",
          "neighborhood_name": "M\u00e9xico"
        },
        {
          "zip_code": "20270",
          "state": "Aguascalientes",
          "city": "Aguascalientes",
          "municipality": "Aguascalientes",
          "neighborhood_name": "Los Cedros"
        }
      ]
    }
  },
  "{'zipcode': '20416'}": {
    "error": "",
    "response": {
      "results": [
        {
          "zip_code": "20416",
          "state": "Aguascalientes",
          "city": "Rinc\u00f3n de Romos",
          "municipality": "Rinc\u00f3n de Romos",
          "neighborhood_name": "Presidentes de M\u00e9xico"
        },
        {
          "zip_code": "20416",
          "state": "Aguascalientes",
          "city": "Rinc\u00f3n de Romos",
          "municipality": "Rinc\u00f3n de Romos",
          "neighborhood_name": "Solidaridad"
        }
      ]
    }
  },
  "{'zipcode': '21913'}": {
    "error": "",
    "response": {
      "results": [
        {
          "zip_code": "21913",
          "state": "Baja California",
          "city": "",
          "municipality": "Mexicali",
          "neighborhood_name": "Compuertas Carejey (Carehey)"
        },
        {
          "zip_code": "21913",
          "state": "Baja California",
          "city": "",
          "municipality": "Mexicali",
          "neighborhood_name": "Monterrey (Colonia Bat\u00e1quez)"
        }
      ]
    }
  },
  "{'zipcode': '01000'}": {
    "error": "",
    "response": {
      "results": [
        {
          "zip_code": "01000",
          "state": "Ciudad de M\u00e9xico",
          "city": "Ciudad de M\u00e9xico",
          "municipality": "\u00c1lvaro Obreg\u00f3n",
          "neighborhood_name": "San \u00c1ngel"
        }
      ]
    }
  },
  "{'zipcode': 'random'}": {
    "error": "",
    "response": {
      "results": []
    }
  },
  "{'zipcode': '10001'}": {
    "error": "",
    "response": {
      "results": []
    }
  },
  "{'zipcode': '11000'}": {
    "error": "",
    "response": {
      "results": [
        {
          "zip_code": "11000",
          "state": "Ciudad de M\u00e9xico",
          "city": "Ciudad de M\u00e9xico",
          "municipality": "Miguel Hidalgo",
          "neighborhood_name": "Lomas de Chapultepec I Secci\u00f3n"
        },
        {
          "zip_code": "11000",
          "state": "Ciudad de M\u00e9xico",
          "city": "Ciudad de M\u00e9xico",
          "municipality": "Miguel Hidalgo",
          "neighborhood_name": "Lomas de Chapultepec VIII Secci\u00f3n"
        },
        {
          "zip_code": "11000",
          "state": "Ciudad de M\u00e9xico",
          "city": "Ciudad de M\u00e9xico",
          "municipality": "Miguel Hidalgo",
          "neighborhood_name": "Lomas de Chapultepec II Secci\u00f3n"
        },
        {
          "zip_code": "11000",
          "state": "Ciudad de M\u00e9xico",
          "city": "Ciudad de M\u00e9xico",
          "municipality": "Miguel Hidalgo",
          "neighborhood_name": "Lomas de Chapultepec III Secci\u00f3n"
        },
        {
          "zip_code": "11000",
          "state": "Ciudad de M\u00e9xico",
          "city": "Ciudad de M\u00e9xico",
          "municipality": "Miguel Hidalgo",
          "neighborhood_name": "Lomas de Chapultepec IV Secci\u00f3n"
        },
        {
          "zip_code": "11000",
          "state": "Ciudad de M\u00e9xico",
          "city": "Ciudad de M\u00e9xico",
          "municipality": "Miguel Hidalgo",
          "neighborhood_name": "Lomas de Chapultepec V Secci\u00f3n"
        },
        {
          "zip_code": "11000",
          "state": "Ciudad de M\u00e9xico",
          "city": "Ciudad de M\u00e9xico",
          "municipality": "Miguel Hidalgo",
          "neighborhood_name": "Lomas de Chapultepec VI Secci\u00f3n"
        },
        {
          "zip_code": "11000",
          "state": "Ciudad de M\u00e9xico",
          "city": "Ciudad de M\u00e9xico",
          "municipality": "Miguel Hidalgo",
          "neighborhood_name": "Lomas de Chapultepec VII Secci\u00f3n"
        }
      ]
    }
  },
  "{'zipcode': '22046'}": {
    "error": "",
    "response": {
      "results": [
        {
          "zip_code": "22046",
          "state": "Baja California",
          "city": "Tijuana",
          "municipality": "Tijuana",
          "neighborhood_name": "Madero Sur"
        },
        {
          "zip_code": "22046",
          "state": "Baja California",
          "city": "Tijuana",
          "municipality": "Tijuana",
          "neighborhood_name": "Guadalajara"
        },
        {
          "zip_code": "22046",
          "state": "Baja California",
          "city": "Tijuana",
          "municipality": "Tijuana",
          "neighborhood_name": "Monterrey"
        },
        {
          "zip_code": "22046",
          "state": "Baja California",
          "city": "Tijuana",
          "municipality": "Tijuana",
          "neighborhood_name": "Fundadores"
        },
        {
          "zip_code": "22046",
          "state": "Baja California",
          "city": "Tijuana",
          "municipality": "Tijuana",
          "neighborhood_name": "Cumbres de Ju\u00e1rez"
        },
        {
          "zip_code": "22046",
          "state": "Baja California",
          "city": "Tijuana",
          "municipality": "Tijuana",
          "neighborhood_name": "Laderas de Monterrey"
        },
        {
          "zip_code": "22046",
          "state": "Baja California",
          "city": "Tijuana",
          "municipality": "Tijuana",
          "neighborhood_name": "Rinc\u00f3n Toscano"
        }
      ]
    }
  },
  "{'zipcode': '29125'}": {
    "error": "",
    "response": {
      "results": [
        {
          "zip_code": "29125",
          "state": "Chiapas",
          "city": "",
          "municipality": "San Fernando",
          "neighborhood_name": "Cuauht\u00e9moc"
        },
        {
          "zip_code": "29125",
          "state": "Chiapas",
          "city": "",
          "municipality": "San Fernando",
          "neighborhood_name": "El Tzintzum"
        },
        {
          "zip_code": "29125",
          "state": "Chiapas",
          "city": "",
          "municipality": "San Fernando",
          "neighborhood_name": "Monterrey"
        }
      ]
    }
  },
  "{'zipcode': '55000'}": {
    "error": "",
    "response": {
      "results": [
        {
          "zip_code": "55000",
          "state": "M\u00e9xico",
          "city": "Ecatepec de Morelos",
          "municipality": "Ecatepec de Morelos",
          "neighborhood_name": "San Crist\u00f3bal Centro"
        },
        {
          "zip_code": "55000",
          "state": "M\u00e9xico",
          "city": "Ecatepec de Morelos",
          "municipality": "Ecatepec de Morelos",
          "neighborhood_name": "Ecatepec Centro"
        },
        {
          "zip_code": "55000",
          "state": "M\u00e9xico",
          "city": "Ecatepec de Morelos",
          "municipality": "Ecatepec de Morelos",
          "neighborhood_name": "La Cruz de San Crist\u00f3bal"
        }
      ]
    }
  },
  "{'zipcode': '06000'}": {
    "error": "",
    "response": {
      "results": [
        {
          "zip_code": "06000",
          "state": "Ciudad de M\u00e9xico",
          "city": "Ciudad de M\u00e9xico",
          "municipality": "Cuauht\u00e9moc",
          "neighborhood_name": "Centro (\u00c1rea 1)"
        }
      ]
    }
  },
  "{'zipcode': '03100'}": {
    "error": "",
    "response": {
      "results": [
        {
          "zip_code": "03100",
          "state": "Ciudad de M\u00e9xico",
          "city": "Ciudad de M\u00e9xico",
          "municipality": "Benito Ju\u00e1rez",
          "neighborhood_name": "Del Valle Centro"
        },
        {
          "zip_code": "03100",
          "state": "Ciudad de M\u00e9xico",
          "city": "Ciudad de M\u00e9xico",
          "municipality": "Benito Ju\u00e1rez",
          "neighborhood_name": "Insurgentes San Borja"
        }
      ]
    }
  },
  "{'zipcode': '10100'}": {
    "error": "",
    "response": {
      "results": []
    }
  },
  "{'zipcode': '900'}": {
    "error": "",
    "response": {
      "results": []
    }
  },
  "{'zipcode': '9001'}": {
    "error": "",
    "response": {
      "results": []
    }
  },
  "{'zipcode': '68023'}": {
    "error": "",
    "response": {
      "results": [
        {
          "zip_code": "68023",
          "state": "Oaxaca",
          "city": "Oaxaca de Ju\u00e1rez",
          "municipality": "Oaxaca de Ju\u00e1rez",
          "neighborhood_name": "Donaji"
        },
        {
          "zip_code": "68023",
          "state": "Oaxaca",
          "city": "Oaxaca de Ju\u00e1rez",
          "municipality": "Oaxaca de Ju\u00e1rez",
          "neighborhood_name": "San Luis Beltran"
        },
        {
          "zip_code": "68023",
          "state": "Oaxaca",
          "city": "Oaxaca de Ju\u00e1rez",
          "municipality": "Oaxaca de Ju\u00e1rez",
          "neighborhood_name": "7 Regiones"
        },
        {
          "zip_code": "68023",
          "state": "Oaxaca",
          "city": "Oaxaca de Ju\u00e1rez",
          "municipality": "Oaxaca de Ju\u00e1rez",
          "neighborhood_name": "Ampliaci\u00f3n Jard\u00edn"
        },
        {
          "zip_code": "68023",
          "state": "Oaxaca",
          "city": "Oaxaca de Ju\u00e1rez",
          "municipality": "Oaxaca de Ju\u00e1rez",
          "neighborhood_name": "7 Regiones Ampliaci\u00f3n"
        },
        {
          "zip_code": "68023",
          "state": "Oaxaca",
          "city": "Oaxaca de Ju\u00e1rez",
          "municipality": "Oaxaca de Ju\u00e1rez",
          "neighborhood_name": "Ampliaci\u00f3n Siete Regiones Parte Norte"
        },
        {
          "zip_code": "68023",
          "state": "Oaxaca",
          "city": "Oaxaca de Ju\u00e1rez",
          "municipality": "Oaxaca de Ju\u00e1rez",
          "neighborhood_name": "Jard\u00edn"
        },
        {
          "zip_code": "68023",
          "state": "Oaxaca",
          "city": "Oaxaca de Ju\u00e1rez",
          "municipality": "Oaxaca de Ju\u00e1rez",
          "neighborhood_name": "Manuel Avila Camacho"
        },
        {
          "zip_code": "68023",
          "state": "Oaxaca",
          "city": "Oaxaca de Ju\u00e1rez",
          "municipality": "Oaxaca de Ju\u00e1rez",
          "neighborhood_name": "Casa del Sol"
        }
      ]
    }
  },
  "{'zipcode': '123 Main Street, Colonia Juarez, Cuauhtemoc'}": {
    "error": "",
    "response": {
      "results": []
    }
  },
  "{'zipcode': '34743'}": {
    "error": "",
    "response": {
      "results": [
        {
          "zip_code": "34743",
          "state": "Durango",
          "city": "",
          "municipality": "Pe\u00f1\u00f3n Blanco",
          "neighborhood_name": "Las Cruces"
        },
        {
          "zip_code": "34743",
          "state": "Durango",
          "city": "",
          "municipality": "Pe\u00f1\u00f3n Blanco",
          "neighborhood_name": "Colonia Ju\u00e1rez"
        },
        {
          "zip_code": "34743",
          "state": "Durango",
          "city": "",
          "municipality": "Pe\u00f1\u00f3n Blanco",
          "neighborhood_name": "El Polvo (Las Peras)"
        },
        {
          "zip_code": "34743",
          "state": "Durango",
          "city": "",
          "municipality": "Pe\u00f1\u00f3n Blanco",
          "neighborhood_name": "La Flor"
        },
        {
          "zip_code": "34743",
          "state": "Durango",
          "city": "",
          "municipality": "Pe\u00f1\u00f3n Blanco",
          "neighborhood_name": "Las Enramadas"
        },
        {
          "zip_code": "34743",
          "state": "Durango",
          "city": "",
          "municipality": "Pe\u00f1\u00f3n Blanco",
          "neighborhood_name": "San Antonio de los Fresnos"
        }
      ]
    }
  },
  "{'zipcode': 'M\u00e9xico'}": {
    "error": "",
    "response": {
      "results": []
    }
  },
  "{'zipcode': '21320'}": {
    "error": "",
    "response": {
      "results": [
        {
          "zip_code": "21320",
          "state": "Baja California",
          "city": "Mexicali",
          "municipality": "Mexicali",
          "neighborhood_name": "Generales de M\u00e9xico"
        },
        {
          "zip_code": "21320",
          "state": "Baja California",
          "city": "Mexicali",
          "municipality": "Mexicali",
          "neighborhood_name": "Esteban Cant\u00fa"
        },
        {
          "zip_code": "21320",
          "state": "Baja California",
          "city": "Mexicali",
          "municipality": "Mexicali",
          "neighborhood_name": "Felipe \u00c1ngeles"
        },
        {
          "zip_code": "21320",
          "state": "Baja California",
          "city": "Mexicali",
          "municipality": "Mexicali",
          "neighborhood_name": "Joaqu\u00edn Murrieta"
        },
        {
          "zip_code": "21320",
          "state": "Baja California",
          "city": "Mexicali",
          "municipality": "Mexicali",
          "neighborhood_name": "Lucio Blanco"
        },
        {
          "zip_code": "21320",
          "state": "Baja California",
          "city": "Mexicali",
          "municipality": "Mexicali",
          "neighborhood_name": "Madeira Residencia"
        },
        {
          "zip_code": "21320",
          "state": "Baja California",
          "city": "Mexicali",
          "municipality": "Mexicali",
          "neighborhood_name": "Pedro Moreno"
        },
        {
          "zip_code": "21320",
          "state": "Baja California",
          "city": "Mexicali",
          "municipality": "Mexicali",
          "neighborhood_name": "Vicente Guerrero"
        },
        {
          "zip_code": "21320",
          "state": "Baja California",
          "city": "Mexicali",
          "municipality": "Mexicali",
          "neighborhood_name": "Camino Viejo"
        }
      ]
    }
  },
  "{'zipcode': '06470'}": {
    "error": "",
    "response": {
      "results": [
        {
          "zip_code": "06470",
          "state": "Ciudad de M\u00e9xico",
          "city": "Ciudad de M\u00e9xico",
          "municipality": "Cuauht\u00e9moc",
          "neighborhood_name": "San Rafael"
        }
      ]
    }
  },
  "{'zipcode': '06600'}": {
    "error": "",
    "response": {
      "results": [
        {
          "zip_code": "06600",
          "state": "Ciudad de M\u00e9xico",
          "city": "Ciudad de M\u00e9xico",
          "municipality": "Cuauht\u00e9moc",
          "neighborhood_name": "Ju\u00e1rez"
        }
      ]
    }
  },
  "{'zipcode': '987654321'}": {
    "error": "",
    "response": {
      "results": []
    }
  },
  "{'zipcode': '90000'}": {
    "error": "",
    "response": {
      "results": [
        {
          "zip_code": "90000",
          "state": "Tlaxcala",
          "city": "Tlaxcala de Xicoht\u00e9ncatl",
          "municipality": "Tlaxcala",
          "neighborhood_name": "Tlaxcala Centro"
        }
      ]
    }
  },
  "{'zipcode': '98765'}": {
    "error": "",
    "response": {
      "results": []
    }
  },
  "{'zipcode': '90101'}": {
    "error": "",
    "response": {
      "results": []
    }
  },
  "{'zipcode': '9.8.8'}": {
    "error": "",
    "response": {
      "results": []
    }
  },
  "{'zipcode': '060001'}": {
    "error": "",
    "response": {
      "results": []
    }
  },
  "{'zipcode': '010001'}": {
    "error": "",
    "response": {
      "results": []
    }
  },
  "{'zipcode': '00001'}": {
    "error": "",
    "response": {
      "results": []
    }
  },
  "{'zipcode': 'zip code of the neighborhood in Mexico City'}": {
    "error": "",
    "response": {
      "results": []
    }
  },
  "{'zipcode': '10000'}": {
    "error": "",
    "response": {
      "results": [
        {
          "zip_code": "10000",
          "state": "Ciudad de M\u00e9xico",
          "city": "Ciudad de M\u00e9xico",
          "municipality": "La Magdalena Contreras",
          "neighborhood_name": "Lomas Quebradas"
        }
      ]
    }
  },
  "{'zipcode': 'Ciudad de M\u00e9xico'}": {
    "error": "",
    "response": {
      "results": []
    }
  },
  "{'zipcode': 'Jalisco'}": {
    "error": "",
    "response": {
      "results": []
    }
  },
  "{'zipcode': '42900'}": {
    "error": "",
    "response": {
      "results": [
        {
          "zip_code": "42900",
          "state": "Hidalgo",
          "city": "",
          "municipality": "Chapantongo",
          "neighborhood_name": "Chapantongo Centro"
        },
        {
          "zip_code": "42900",
          "state": "Hidalgo",
          "city": "",
          "municipality": "Chapantongo",
          "neighborhood_name": "Puerto Vallarta"
        },
        {
          "zip_code": "42900",
          "state": "Hidalgo",
          "city": "",
          "municipality": "Chapantongo",
          "neighborhood_name": "Piedra Grande"
        },
        {
          "zip_code": "42900",
          "state": "Hidalgo",
          "city": "",
          "municipality": "Chapantongo",
          "neighborhood_name": "Guadalupe"
        },
        {
          "zip_code": "42900",
          "state": "Hidalgo",
          "city": "",
          "municipality": "Chapantongo",
          "neighborhood_name": "San Antonio"
        }
      ]
    }
  },
  "{'zipcode': 'Roma'}": {
    "error": "",
    "response": {
      "results": []
    }
  },
  "{'zipcode': '11560'}": {
    "error": "",
    "response": {
      "results": [
        {
          "zip_code": "11560",
          "state": "Ciudad de M\u00e9xico",
          "city": "Ciudad de M\u00e9xico",
          "municipality": "Miguel Hidalgo",
          "neighborhood_name": "Polanco V Secci\u00f3n"
        }
      ]
    }
  },
  "{'zipcode': '06400'}": {
    "error": "",
    "response": {
      "results": [
        {
          "zip_code": "06400",
          "state": "Ciudad de M\u00e9xico",
          "city": "Ciudad de M\u00e9xico",
          "municipality": "Cuauht\u00e9moc",
          "neighborhood_name": "Santa Mar\u00eda la Ribera"
        }
      ]
    }
  },
  "{'zipcode': '8000'}": {
    "error": "",
    "response": {
      "results": []
    }
  },
  "{'zipcode': '100100'}": {
    "error": "",
    "response": {
      "results": []
    }
  },
  "{'zipcode': '16000'}": {
    "error": "",
    "response": {
      "results": [
        {
          "zip_code": "16000",
          "state": "Ciudad de M\u00e9xico",
          "city": "Ciudad de M\u00e9xico",
          "municipality": "Xochimilco",
          "neighborhood_name": "La Concepci\u00f3n Tlacoapa"
        },
        {
          "zip_code": "16000",
          "state": "Ciudad de M\u00e9xico",
          "city": "Ciudad de M\u00e9xico",
          "municipality": "Xochimilco",
          "neighborhood_name": "San Antonio"
        },
        {
          "zip_code": "16000",
          "state": "Ciudad de M\u00e9xico",
          "city": "Ciudad de M\u00e9xico",
          "municipality": "Xochimilco",
          "neighborhood_name": "San Juan"
        }
      ]
    }
  },
  "{'zipcode': '100110'}": {
    "error": "",
    "response": {
      "results": []
    }
  },
  "{'zipcode': '100200'}": {
    "error": "",
    "response": {
      "results": []
    }
  },
  "{'zipcode': 'Coyoac\u00e1n'}": {
    "error": "",
    "response": {
      "results": []
    }
  },
  "{'zipcode': 'La Condesa'}": {
    "error": "",
    "response": {
      "results": []
    }
  },
  "{'zipcode': '13000'}": {
    "error": "",
    "response": {
      "results": [
        {
          "zip_code": "13000",
          "state": "Ciudad de M\u00e9xico",
          "city": "Ciudad de M\u00e9xico",
          "municipality": "Tl\u00e1huac",
          "neighborhood_name": "La Asunci\u00f3n"
        }
      ]
    }
  },
  "{'zipcode': '16001'}": {
    "error": "",
    "response": {
      "results": []
    }
  },
  "{'zipcode': '16002'}": {
    "error": "",
    "response": {
      "results": []
    }
  },
  "{'zipcode': '9003'}": {
    "error": "",
    "response": {
      "results": []
    }
  },
  "{'zipcode': '9000'}": {
    "error": "",
    "response": {
      "results": []
    }
  }
}