{
  "{}": {
    "error": "",
    "response": {
      "status": 200,
      "message": "Success",
      "noOfItems": 18,
      "result": [
        {
          "taluk": "Aurangabad",
          "pincode": "431010",
          "districtname": "Aurangabad",
          "placename": "Satara Parisar",
          "longitude": "75.952",
          "statename": "Maharashtra",
          "latitude": "19.7358",
          "accuracy": "1"
        },
        {
          "taluk": "Sillod",
          "pincode": "431118",
          "districtname": "Aurangabad",
          "placename": "Ajantha Caves",
          "longitude": "76.1331",
          "statename": "Maharashtra",
          "latitude": "20.3835",
          "accuracy": "3"
        },
        {
          "taluk": "Soegaon",
          "pincode": "431118",
          "districtname": "Aurangabad",
          "placename": "Jamthi",
          "longitude": "76.9914",
          "statename": "Maharashtra",
          "latitude": "19.9269",
          "accuracy": "4"
        },
        {
          "taluk": "Soegaon",
          "pincode": "431118",
          "districtname": "Aurangabad",
          "placename": "Palaskheda",
          "longitude": "75.6854",
          "statename": "Maharashtra",
          "latitude": "20.639",
          "accuracy": "4"
        },
        {
          "taluk": "Soegaon",
          "pincode": "431118",
          "districtname": "Aurangabad",
          "placename": "Phardapur",
          "longitude": "75.7225",
          "statename": "Maharashtra",
          "latitude": "20.5845",
          "accuracy": "4"
        },
        {
          "taluk": "Soegaon",
          "pincode": "431118",
          "districtname": "Aurangabad",
          "placename": "Sawaladbara",
          "longitude": "76.1331",
          "statename": "Maharashtra",
          "latitude": "20.3835",
          "accuracy": "3"
        },
        {
          "taluk": "Sillod",
          "pincode": "431135",
          "districtname": "Aurangabad",
          "placename": "Bankinhola",
          "longitude": "75.84",
          "statename": "Maharashtra",
          "latitude": "19.9163",
          "accuracy": "3"
        },
        {
          "taluk": "Sillod",
          "pincode": "431135",
          "districtname": "Aurangabad",
          "placename": "Borgaon Kasari",
          "longitude": "75.6551",
          "statename": "Maharashtra",
          "latitude": "20.2328",
          "accuracy": "4"
        },
        {
          "taluk": "Sillod",
          "pincode": "431135",
          "districtname": "Aurangabad",
          "placename": "Gavli Tanda",
          "longitude": "75.84",
          "statename": "Maharashtra",
          "latitude": "19.9163",
          "accuracy": "3"
        },
        {
          "taluk": "Sillod",
          "pincode": "431135",
          "districtname": "Aurangabad",
          "placename": "Gevrai Shami",
          "longitude": "75.84",
          "statename": "Maharashtra",
          "latitude": "19.9163",
          "accuracy": "3"
        },
        {
          "taluk": "Sillod",
          "pincode": "431135",
          "districtname": "Aurangabad",
          "placename": "Kaigaon",
          "longitude": "75.6307",
          "statename": "Maharashtra",
          "latitude": "20.1785",
          "accuracy": "4"
        },
        {
          "taluk": "Sillod",
          "pincode": "431135",
          "districtname": "Aurangabad",
          "placename": "Kerhala",
          "longitude": "75.84",
          "statename": "Maharashtra",
          "latitude": "19.9163",
          "accuracy": "3"
        },
        {
          "taluk": "Sillod",
          "pincode": "431135",
          "districtname": "Aurangabad",
          "placename": "Nillod",
          "longitude": "75.84",
          "statename": "Maharashtra",
          "latitude": "19.9163",
          "accuracy": "3"
        },
        {
          "taluk": "Sillod",
          "pincode": "431135",
          "districtname": "Aurangabad",
          "placename": "Palshi",
          "longitude": "76.2342",
          "statename": "Maharashtra",
          "latitude": "19.3377",
          "accuracy": "4"
        },
        {
          "taluk": "Sillod",
          "pincode": "431135",
          "districtname": "Aurangabad",
          "placename": "Sillod Sakhar Karkhana",
          "longitude": "75.84",
          "statename": "Maharashtra",
          "latitude": "19.9163",
          "accuracy": "3"
        },
        {
          "taluk": "Sillod",
          "pincode": "431135",
          "districtname": "Aurangabad",
          "placename": "Tanda Bazar",
          "longitude": "75.84",
          "statename": "Maharashtra",
          "latitude": "19.9163",
          "accuracy": "3"
        },
        {
          "taluk": "Sillod",
          "pincode": "431135",
          "districtname": "Aurangabad",
          "placename": "Upali",
          "longitude": "75.84",
          "statename": "Maharashtra",
          "latitude": "19.9163",
          "accuracy": "3"
        },
        {
          "taluk": "Sillod",
          "pincode": "431135",
          "districtname": "Aurangabad",
          "placename": "Warud Kh",
          "longitude": "75.84",
          "statename": "Maharashtra",
          "latitude": "19.9163",
          "accuracy": "3"
        }
      ]
    }
  }
}