{
    "tool_name":"Greek TK",
    "tool_description":"A list of all Greek postal codes by Street, City, and County",
    "title":"Greek TK",
    "pricing":"FREEMIUM",
    "score":null,
    "home_url":"https://rapidapi.com/a.kallay97/api/greek-tk/",
    "host":"greek-tk.p.rapidapi.com",
    "api_list":[
        {
            "name":"Get a specific postal code",
            "url":"https://greek-tk.p.rapidapi.com/0cTAfs/greektk",
            "description":"Get a specific postal code",
            "method":"GET",
            "required_parameters":[
                {
                    "name":"Postal_code",
                    "type":"STRING",
                    "description":"use space after the first 3 digits (ex 111 11)",
                    "default":""
                }
            ],
            "optional_parameters":[],
            "code":"import requests\n\nurl = \"https://greek-tk.p.rapidapi.com/0cTAfs/greektk\"\nquerystring = {\"Postal_code\": postal_code}\n\nheaders = {\n    \"X-RapidAPI-Key\": \"SIGN-UP-FOR-KEY\",\n    \"X-RapidAPI-Host\": \"greek-tk.p.rapidapi.com\"\n}\n\nresponse = requests.get(url, headers=headers, params=querystring)\n\nprint(response.json())\n",
            "statuscode":111,
            "body":"",
            "headers":"",
            "schema":""
        },
        {
            "name":"Get postal code by Street",
            "url":"https://greek-tk.p.rapidapi.com/0cTAfs/greektk",
            "description":"Get postal code by Street",
            "method":"GET",
            "required_parameters":[
                {
                    "name":"Street",
                    "type":"STRING",
                    "description":"",
                    "default":""
                }
            ],
            "optional_parameters":[],
            "code":"import requests\n\nurl = \"https://greek-tk.p.rapidapi.com/0cTAfs/greektk\"\nquerystring = {\"Street\": street}\n\nheaders = {\n    \"X-RapidAPI-Key\": \"SIGN-UP-FOR-KEY\",\n    \"X-RapidAPI-Host\": \"greek-tk.p.rapidapi.com\"\n}\n\nresponse = requests.get(url, headers=headers, params=querystring)\n\nprint(response.json())\n",
            "statuscode":111,
            "body":"",
            "headers":"",
            "schema":""
        },
        {
            "name":"Get postal code by County",
            "url":"https://greek-tk.p.rapidapi.com/0cTAfs/greektk",
            "description":"Get postal code by County",
            "method":"GET",
            "required_parameters":[
                {
                    "name":"County",
                    "type":"STRING",
                    "description":"",
                    "default":"ΑΘΗΝΑ"
                }
            ],
            "optional_parameters":[],
            "code":"import requests\n\nurl = \"https://greek-tk.p.rapidapi.com/0cTAfs/greektk\"\nquerystring = {\"County\": county}\n\nheaders = {\n    \"X-RapidAPI-Key\": \"SIGN-UP-FOR-KEY\",\n    \"X-RapidAPI-Host\": \"greek-tk.p.rapidapi.com\"\n}\n\nresponse = requests.get(url, headers=headers, params=querystring)\n\nprint(response.json())\n",
            "statuscode":111,
            "body":"",
            "headers":"",
            "schema":""
        },
        {
            "name":"Get Postal code by City",
            "url":"https://greek-tk.p.rapidapi.com/0cTAfs/greektk",
            "description":"Get Postal code by City",
            "method":"GET",
            "required_parameters":[
                {
                    "name":"City",
                    "type":"STRING",
                    "description":"",
                    "default":"ΑΘΗΝΑ"
                }
            ],
            "optional_parameters":[],
            "code":"import requests\n\nurl = \"https://greek-tk.p.rapidapi.com/0cTAfs/greektk\"\nquerystring = {\"City\": city}\n\nheaders = {\n    \"X-RapidAPI-Key\": \"SIGN-UP-FOR-KEY\",\n    \"X-RapidAPI-Host\": \"greek-tk.p.rapidapi.com\"\n}\n\nresponse = requests.get(url, headers=headers, params=querystring)\n\nprint(response.json())\n",
            "statuscode":200,
            "body":[
                {
                    "id":1,
                    "City":"ΑΘΗΝΑ",
                    "Street":"3ΗΣ (Γ') ΣΕΠΤΕΜΒΡΙΟΥ",
                    "Postal_code":"104 31"
                },
                {
                    "id":2,
                    "City":"ΑΘΗΝΑ",
                    "Street":"ΑΓΙΟΥ ΚΩΝΣΤΑΝΤΙΝΟΥ",
                    "Postal_code":"104 31"
                },
                {
                    "id":3,
                    "City":"ΑΘΗΝΑ",
                    "Street":"ΒΕΝΙΖΕΛΟΥ ΕΛΕΥΘΕΡΙΟΥ",
                    "Postal_code":"105 64"
                },
                {
                    "id":4,
                    "City":"ΑΘΗΝΑ",
                    "Street":"ΓΕΡΑΝΙΟΥ",
                    "Postal_code":"105 52"
                },
                {
                    "id":5,
                    "City":"ΑΘΗΝΑ",
                    "Street":"ΔΕΒΕΡΙΚΟΥ ΣΤΟΑ",
                    "Postal_code":"104 31"
                },
                {
                    "id":6,
                    "City":"ΑΘΗΝΑ",
                    "Street":"ΔΩΡΟΥ",
                    "Postal_code":"104 31"
                },
                {
                    "id":7,
                    "City":"ΑΘΗΝΑ",
                    "Street":"ΕΛΛ. ΕΤΑΙΡ. ΥΔΑΤΩΝ ΣΤΟΑ",
                    "Postal_code":"104 31"
                },
                {
                    "id":8,
                    "City":"ΑΘΗΝΑ",
                    "Street":"ΖΗΝΩΝΟΣ",
                    "Postal_code":"104 31"
                },
                {
                    "id":9,
                    "City":"ΑΘΗΝΑ",
                    "Street":"ΘΕΑΤΡΟΥ ΣΤΟΑ",
                    "Postal_code":"104 31"
                },
                {
                    "id":10,
                    "City":"ΑΘΗΝΑ",
                    "Street":"ΙΚΑ ΣΤΟΑ",
                    "Postal_code":"104 31"
                },
                {
                    "id":11,
                    "City":"ΑΘΗΝΑ",
                    "Street":"ΙΩΝΟΣ",
                    "Postal_code":"104 31"
                },
                {
                    "id":12,
                    "City":"ΑΘΗΝΑ",
                    "Street":"ΚΟΝΤΑΡΙΝΗ ΣΤΟΑ",
                    "Postal_code":"104 31"
                },
                {
                    "id":13,
                    "City":"ΑΘΗΝΑ",
                    "Street":"ΚΟΤΟΠΟΥΛΗ",
                    "Postal_code":"104 31"
                },
                {
                    "id":14,
                    "City":"ΑΘΗΝΑ",
                    "Street":"ΜΕΝΑΝΔΡΟΥ",
                    "Postal_code":"105 53"
                },
                {
                    "id":15,
                    "City":"ΑΘΗΝΑ",
                    "Street":"ΜΠΟΥΡΝΙΑ ΣΤΟΑ",
                    "Postal_code":"104 31"
                },
                {
                    "id":16,
                    "City":"ΑΘΗΝΑ",
                    "Street":"ΝΑΣΤΟΥ ΣΤΟΑ",
                    "Postal_code":"104 31"
                },
                {
                    "id":17,
                    "City":"ΑΘΗΝΑ",
                    "Street":"ΠΛΑΤΕΙΑ ΟΜΟΝΟΙΑΣ",
                    "Postal_code":"104 31"
                },
                {
                    "id":18,
                    "City":"ΑΘΗΝΑ",
                    "Street":"ΟΜΟΝΟΙΑΣ ΣΤΟΑ",
                    "Postal_code":"104 31"
                },
                {
                    "id":19,
                    "City":"ΑΘΗΝΑ",
                    "Street":"ΟΥΛΕΝ ΣΤΟΑ",
                    "Postal_code":"104 31"
                },
                {
                    "id":20,
                    "City":"ΑΘΗΝΑ",
                    "Street":"ΠΑΝΕΠΙΣΤΗΜΙΟΥ",
                    "Postal_code":"105 64"
                },
                {
                    "id":21,
                    "City":"ΑΘΗΝΑ",
                    "Street":"ΠΑΤΗΣΙΩΝ",
                    "Postal_code":"104 31"
                },
                {
                    "id":22,
                    "City":"ΑΘΗΝΑ",
                    "Street":"ΠΕΙΡΑΙΩΣ",
                    "Postal_code":"105 52"
                },
                {
                    "id":23,
                    "City":"ΑΘΗΝΑ",
                    "Street":"ΣΑΤΩΒΡΙΑΝΔΟΥ",
                    "Postal_code":"104 31"
                },
                {
                    "id":24,
                    "City":"ΑΘΗΝΑ",
                    "Street":"ΣΩΚΡΑΤΟΥΣ",
                    "Postal_code":"105 52"
                },
                {
                    "id":25,
                    "City":"ΑΘΗΝΑ",
                    "Street":"3ΗΣ (Γ') ΣΕΠΤΕΜΒΡΙΟΥ",
                    "Postal_code":"104 32"
                },
                {
                    "id":26,
                    "City":"ΑΘΗΝΑ",
                    "Street":"ΑΡΙΣΤΟΤΕΛΟΥΣ",
                    "Postal_code":"104 32"
                },
                {
                    "id":27,
                    "City":"ΑΘΗΝΑ",
                    "Street":"ΑΧΑΡΝΩΝ",
                    "Postal_code":"104 38"
                },
                {
                    "id":28,
                    "City":"ΑΘΗΝΑ",
                    "Street":"ΒΕΡΑΝΖΕΡΟΥ",
                    "Postal_code":"106 77"
                },
                {
                    "id":29,
                    "City":"ΑΘΗΝΑ",
                    "Street":"ΔΕΚΑΝΕΑ ΣΤΟΑ",
                    "Postal_code":"104 32"
                },
                {
                    "id":30,
                    "City":"ΑΘΗΝΑ",
                    "Street":"ΔΩΡΟΥ",
                    "Postal_code":"104 32"
                },
                {
                    "id":31,
                    "City":"ΑΘΗΝΑ",
                    "Street":"ΙΩΝΟΣ",
                    "Postal_code":"104 32"
                },
                {
                    "id":32,
                    "City":"ΑΘΗΝΑ",
                    "Street":"ΚΑΜΑΤΕΡΟΥ",
                    "Postal_code":"104 32"
                },
                {
                    "id":33,
                    "City":"ΑΘΗΝΑ",
                    "Street":"ΚΑΠΟΔΙΣΤΡΙΟΥ",
                    "Postal_code":"106 77"
                },
                {
                    "id":34,
                    "City":"ΑΘΗΝΑ",
                    "Street":"ΚΟΤΖΑΜΑΝΗ ΣΤΟΑ",
                    "Postal_code":"104 32"
                },
                {
                    "id":35,
                    "City":"ΑΘΗΝΑ",
                    "Street":"ΚΟΤΟΠΟΥΛΗ",
                    "Postal_code":"104 32"
                },
                {
                    "id":36,
                    "City":"ΑΘΗΝΑ",
                    "Street":"ΠΛΑΤΕΙΑ ΛΑΥΡΙΟΥ",
                    "Postal_code":"104 32"
                },
                {
                    "id":37,
                    "City":"ΑΘΗΝΑ",
                    "Street":"ΛΑΥΡΙΟΥ ΣΤΟΑ",
                    "Postal_code":"104 32"
                },
                {
                    "id":38,
                    "City":"ΑΘΗΝΑ",
                    "Street":"ΛΟΥΙΖΙΔΟΥ Σ. ΣΤΟΑ",
                    "Postal_code":"104 32"
                },
                {
                    "id":39,
                    "City":"ΑΘΗΝΑ",
                    "Street":"ΛΟΥΞ ΣΤΟΑ",
                    "Postal_code":"104 32"
                },
                {
                    "id":40,
                    "City":"ΑΘΗΝΑ",
                    "Street":"ΜΑΡΝΗ",
                    "Postal_code":"104 33"
                },
                {
                    "id":41,
                    "City":"ΑΘΗΝΑ",
                    "Street":"ΜΕΝΑΝΔΡΟΥ",
                    "Postal_code":"105 52"
                },
                {
                    "id":42,
                    "City":"ΑΘΗΝΑ",
                    "Street":"ΞΟΥΘΟΥ",
                    "Postal_code":"104 32"
                },
                {
                    "id":43,
                    "City":"ΑΘΗΝΑ",
                    "Street":"ΠΑΤΗΣΙΩΝ",
                    "Postal_code":"104 32"
                },
                {
                    "id":44,
                    "City":"ΑΘΗΝΑ",
                    "Street":"ΣΑΤΩΒΡΙΑΝΔΟΥ",
                    "Postal_code":"104 32"
                },
                {
                    "id":45,
                    "City":"ΑΘΗΝΑ",
                    "Street":"ΣΟΛΩΜΟΥ",
                    "Postal_code":"104 32"
                },
                {
                    "id":46,
                    "City":"ΑΘΗΝΑ",
                    "Street":"ΣΤΟΥΡΝΑΡΑ",
                    "Postal_code":"106 83"
                },
                {
                    "id":47,
                    "City":"ΑΘΗΝΑ",
                    "Street":"ΣΩΚΡΑΤΟΥΣ",
                    "Postal_code":"104 31"
                },
                {
                    "id":48,
                    "City":"ΑΘΗΝΑ",
                    "Street":"ΧΑΛΚΟΚΟΝΔΥΛΗ",
                    "Postal_code":"106 77"
                },
                {
                    "id":49,
                    "City":"ΑΘΗΝΑ",
                    "Street":"3ΗΣ (Γ') ΣΕΠΤΕΜΒΡΙΟΥ",
                    "Postal_code":"104 33"
                },
                {
                    "id":50,
                    "City":"ΑΘΗΝΑ",
                    "Street":"ΑΒΕΡΩΦ",
                    "Postal_code":"104 33"
                },
                {
                    "id":51,
                    "City":"ΑΘΗΝΑ",
                    "Street":"ΑΛΙΤΣΗΣ",
                    "Postal_code":"104 33"
                },
                {
                    "id":52,
                    "City":"ΑΘΗΝΑ",
                    "Street":"ΑΡΙΣΤΟΤΕΛΟΥΣ",
                    "Postal_code":"104 33"
                },
                {
                    "id":53,
                    "City":"ΑΘΗΝΑ",
                    "Street":"ΑΧΑΡΝΩΝ",
                    "Postal_code":"104 39"
                },
                {
                    "id":54,
                    "City":"ΑΘΗΝΑ",
                    "Street":"ΗΠΕΙΡΟΥ",
                    "Postal_code":"104 33"
                },
                {
                    "id":55,
                    "City":"ΑΘΗΝΑ",
                    "Street":"ΙΟΥΛΙΑΝΟΥ",
                    "Postal_code":"106 82"
                },
                {
                    "id":56,
                    "City":"ΑΘΗΝΑ",
                    "Street":"ΚΑΠΝΟΚΟΠΤΗΡΙΟΥ",
                    "Postal_code":"104 33"
                },
                {
                    "id":57,
                    "City":"ΑΘΗΝΑ",
                    "Street":"ΜΑΚΕΔΟΝΙΑΣ",
                    "Postal_code":"104 33"
                },
                {
                    "id":58,
                    "City":"ΑΘΗΝΑ",
                    "Street":"ΜΑΡΝΗ",
                    "Postal_code":"104 32"
                },
                {
                    "id":59,
                    "City":"ΑΘΗΝΑ",
                    "Street":"ΠΑΤΗΣΙΩΝ",
                    "Postal_code":"104 33"
                },
                {
                    "id":60,
                    "City":"ΑΘΗΝΑ",
                    "Street":"ΠΟΛΥΤΕΧΝΕΙΟΥ",
                    "Postal_code":"104 33"
                },
                {
                    "id":61,
                    "City":"ΑΘΗΝΑ",
                    "Street":"ΣΜΥΡΝΗΣ",
                    "Postal_code":"104 33"
                },
                {
                    "id":62,
                    "City":"ΑΘΗΝΑ",
                    "Street":"ΣΤΟΥΡΝΑΡΑ",
                    "Postal_code":"106 82"
                },
                {
                    "id":63,
                    "City":"ΑΘΗΝΑ",
                    "Street":"ΤΡΙΚΟΡΦΟΥ",
                    "Postal_code":"104 33"
                },
                {
                    "id":64,
                    "City":"ΑΘΗΝΑ",
                    "Street":"ΦΑΙΣΤΟΥ",
                    "Postal_code":"104 33"
                },
                {
                    "id":65,
                    "City":"ΑΘΗΝΑ",
                    "Street":"ΦΥΛΗΣ",
                    "Postal_code":"104 33"
                },
                {
                    "id":66,
                    "City":"ΑΘΗΝΑ",
                    "Street":"3ΗΣ (Γ') ΣΕΠΤΕΜΒΡΙΟΥ",
                    "Postal_code":"104 34"
                },
                {
                    "id":67,
                    "City":"ΑΘΗΝΑ",
                    "Street":"ΑΓΚΥΡΑΣ",
                    "Postal_code":"104 34"
                },
                {
                    "id":68,
                    "City":"ΑΘΗΝΑ",
                    "Street":"ΠΛΑΤΕΙΑ ΑΙΓΥΠΤΟΥ",
                    "Postal_code":"104 34"
                },
                {
                    "id":69,
                    "City":"ΑΘΗΝΑ",
                    "Street":"ΑΙΝΙΑΝΟΣ",
                    "Postal_code":"104 34"
                },
                {
                    "id":70,
                    "City":"ΑΘΗΝΑ",
                    "Street":"ΑΜΦΙΛΟΧΙΑΣ",
                    "Postal_code":"104 34"
                },
                {
                    "id":71,
                    "City":"ΑΘΗΝΑ",
                    "Street":"ΑΝΤΩΝΙΑΔΟΥ ΕΜΜ.",
                    "Postal_code":"104 34"
                },
                {
                    "id":72,
                    "City":"ΑΘΗΝΑ",
                    "Street":"ΑΡΙΣΤΟΤΕΛΟΥΣ",
                    "Postal_code":"104 34"
                },
                {
                    "id":73,
                    "City":"ΑΘΗΝΑ",
                    "Street":"ΑΤΤΑΛΕΙΑΣ",
                    "Postal_code":"104 34"
                },
                {
                    "id":74,
                    "City":"ΑΘΗΝΑ",
                    "Street":"ΑΧΑΡΝΩΝ",
                    "Postal_code":"104 40"
                },
                {
                    "id":75,
                    "City":"ΑΘΗΝΑ",
                    "Street":"ΠΛΑΤΕΙΑ ΒΙΚΤΩΡΙΑΣ",
                    "Postal_code":"104 34"
                },
                {
                    "id":76,
                    "City":"ΑΘΗΝΑ",
                    "Street":"ΓΚΥΙΛΦΟΡΔΟΥ",
                    "Postal_code":"104 34"
                },
                {
                    "id":77,
                    "City":"ΑΘΗΝΑ",
                    "Street":"ΔΕΡΙΓΝΥ",
                    "Postal_code":"104 34"
                },
                {
                    "id":78,
                    "City":"ΑΘΗΝΑ",
                    "Street":"ΔΙΔΥΜΟΥ",
                    "Postal_code":"104 34"
                },
                {
                    "id":79,
                    "City":"ΑΘΗΝΑ",
                    "Street":"ΕΛΠΙΔΟΣ",
                    "Postal_code":"104 34"
                },
                {
                    "id":80,
                    "City":"ΑΘΗΝΑ",
                    "Street":"ΙΟΥΛΙΑΝΟΥ",
                    "Postal_code":"104 33"
                },
                {
                    "id":81,
                    "City":"ΑΘΗΝΑ",
                    "Street":"ΚΑΤΡΙΒΑΝΟΥ",
                    "Postal_code":"104 34"
                },
                {
                    "id":82,
                    "City":"ΑΘΗΝΑ",
                    "Street":"ΚΟΔΡΙΓΚΤΩΝΟΣ",
                    "Postal_code":"104 34"
                },
                {
                    "id":83,
                    "City":"ΑΘΗΝΑ",
                    "Street":"ΚΟΤΣΙΚΑ",
                    "Postal_code":"104 34"
                },
                {
                    "id":84,
                    "City":"ΑΘΗΝΑ",
                    "Street":"ΠΛΑΤΕΙΑ ΚΥΡΙΑΚΟΥ",
                    "Postal_code":"104 34"
                },
                {
                    "id":85,
                    "City":"ΑΘΗΝΑ",
                    "Street":"ΜΑΥΡΟΜΜΑΤΑΙΩΝ",
                    "Postal_code":"106 82"
                },
                {
                    "id":86,
                    "City":"ΑΘΗΝΑ",
                    "Street":"ΜΟΝΗΣ ΠΡΟΔΡΟΜΟΥ",
                    "Postal_code":"104 34"
                },
                {
                    "id":87,
                    "City":"ΑΘΗΝΑ",
                    "Street":"ΜΥΡΩΝ",
                    "Postal_code":"104 34"
                },
                {
                    "id":88,
                    "City":"ΑΘΗΝΑ",
                    "Street":"ΝΙΚΑΙΑΣ",
                    "Postal_code":"104 34"
                },
                {
                    "id":89,
                    "City":"ΑΘΗΝΑ",
                    "Street":"ΠΑΤΗΣΙΩΝ",
                    "Postal_code":"106 77"
                },
                {
                    "id":90,
                    "City":"ΑΘΗΝΑ",
                    "Street":"ΡΙΖΟΥ",
                    "Postal_code":"104 34"
                },
                {
                    "id":91,
                    "City":"ΑΘΗΝΑ",
                    "Street":"ΦΕΡΩΝ",
                    "Postal_code":"104 34"
                },
                {
                    "id":92,
                    "City":"ΑΘΗΝΑ",
                    "Street":"ΦΙΛΙΠΠΙΔΟΥ",
                    "Postal_code":"104 34"
                },
                {
                    "id":93,
                    "City":"ΑΘΗΝΑ",
                    "Street":"ΦΥΛΗΣ",
                    "Postal_code":"104 34"
                },
                {
                    "id":94,
                    "City":"ΑΘΗΝΑ",
                    "Street":"ΦΩΚΑΙΑΣ",
                    "Postal_code":"104 34"
                },
                {
                    "id":95,
                    "City":"ΑΘΗΝΑ",
                    "Street":"ΧΑΜΙΛΤΩΝ",
                    "Postal_code":"104 34"
                },
                {
                    "id":96,
                    "City":"ΑΘΗΝΑ",
                    "Street":"ΧΕΥΔΕΝ",
                    "Postal_code":"104 34"
                },
                {
                    "id":97,
                    "City":"ΑΘΗΝΑ",
                    "Street":"ΑΓΗΣΙΛΑΟΥ",
                    "Postal_code":"104 37"
                },
                {
                    "id":98,
                    "City":"ΑΘΗΝΑ",
                    "Street":"ΑΓΙΟΥ ΟΡΟΥΣ",
                    "Postal_code":"104 35"
                },
                {
                    "id":99,
                    "City":"ΑΘΗΝΑ",
                    "Street":"ΑΙΣΩΝΟΣ",
                    "Postal_code":"104 35"
                },
                {
                    "id":100,
                    "City":"ΑΘΗΝΑ",
                    "Street":"ΑΜΑΖΟΝΩΝ",
                    "Postal_code":"104 35"
                }
            ],
            "headers":{
                "access-control-allow-credentials":"true",
                "access-control-allow-origin":"*",
                "cache-control":"no-cache",
                "connection":"keep-alive",
                "content-length":"11479",
                "content-type":"application/json; charset=utf-8",
                "date":"Wed, 08 Dec 2021 13:02:44 GMT",
                "etag":"W/\"2cd7-yV23k6Jd2MUAx9+sJG8OGEDiqiM\"",
                "expires":"-1",
                "pragma":"no-cache",
                "server":"RapidAPI-1.2.8",
                "vary":"Origin, Accept-Encoding",
                "x-content-type-options":"nosniff",
                "x-powered-by":"Express",
                "x-rapidapi-region":"AWS - eu-central-1",
                "x-rapidapi-version":"1.2.8",
                "x-ratelimit-limit":"100",
                "x-ratelimit-remaining":"99",
                "x-ratelimit-reset":"1638968620"
            },
            "schema":{}
        },
        {
            "name":"Get all postal code numbers by street,  city, and county",
            "url":"https://greek-tk.p.rapidapi.com/0cTAfs/greektk",
            "description":"Get all postal code numbers by street,  city, and county",
            "method":"GET",
            "required_parameters":[],
            "optional_parameters":[],
            "code":"import requests\n\nurl = \"https://greek-tk.p.rapidapi.com/0cTAfs/greektk\"\n\nheaders = {\n    \"X-RapidAPI-Key\": \"SIGN-UP-FOR-KEY\",\n    \"X-RapidAPI-Host\": \"greek-tk.p.rapidapi.com\"\n}\n\nresponse = requests.get(url, headers=headers)\n\nprint(response.json())\n",
            "statuscode":200,
            "body":[
                {
                    "id":1,
                    "City":"ΑΘΗΝΑ",
                    "Street":"3ΗΣ (Γ') ΣΕΠΤΕΜΒΡΙΟΥ",
                    "Postal_code":"104 31"
                },
                {
                    "id":2,
                    "City":"ΑΘΗΝΑ",
                    "Street":"ΑΓΙΟΥ ΚΩΝΣΤΑΝΤΙΝΟΥ",
                    "Postal_code":"104 31"
                },
                {
                    "id":3,
                    "City":"ΑΘΗΝΑ",
                    "Street":"ΒΕΝΙΖΕΛΟΥ ΕΛΕΥΘΕΡΙΟΥ",
                    "Postal_code":"105 64"
                },
                {
                    "id":4,
                    "City":"ΑΘΗΝΑ",
                    "Street":"ΓΕΡΑΝΙΟΥ",
                    "Postal_code":"105 52"
                },
                {
                    "id":5,
                    "City":"ΑΘΗΝΑ",
                    "Street":"ΔΕΒΕΡΙΚΟΥ ΣΤΟΑ",
                    "Postal_code":"104 31"
                },
                {
                    "id":6,
                    "City":"ΑΘΗΝΑ",
                    "Street":"ΔΩΡΟΥ",
                    "Postal_code":"104 31"
                },
                {
                    "id":7,
                    "City":"ΑΘΗΝΑ",
                    "Street":"ΕΛΛ. ΕΤΑΙΡ. ΥΔΑΤΩΝ ΣΤΟΑ",
                    "Postal_code":"104 31"
                },
                {
                    "id":8,
                    "City":"ΑΘΗΝΑ",
                    "Street":"ΖΗΝΩΝΟΣ",
                    "Postal_code":"104 31"
                },
                {
                    "id":9,
                    "City":"ΑΘΗΝΑ",
                    "Street":"ΘΕΑΤΡΟΥ ΣΤΟΑ",
                    "Postal_code":"104 31"
                },
                {
                    "id":10,
                    "City":"ΑΘΗΝΑ",
                    "Street":"ΙΚΑ ΣΤΟΑ",
                    "Postal_code":"104 31"
                },
                {
                    "id":11,
                    "City":"ΑΘΗΝΑ",
                    "Street":"ΙΩΝΟΣ",
                    "Postal_code":"104 31"
                },
                {
                    "id":12,
                    "City":"ΑΘΗΝΑ",
                    "Street":"ΚΟΝΤΑΡΙΝΗ ΣΤΟΑ",
                    "Postal_code":"104 31"
                },
                {
                    "id":13,
                    "City":"ΑΘΗΝΑ",
                    "Street":"ΚΟΤΟΠΟΥΛΗ",
                    "Postal_code":"104 31"
                },
                {
                    "id":14,
                    "City":"ΑΘΗΝΑ",
                    "Street":"ΜΕΝΑΝΔΡΟΥ",
                    "Postal_code":"105 53"
                },
                {
                    "id":15,
                    "City":"ΑΘΗΝΑ",
                    "Street":"ΜΠΟΥΡΝΙΑ ΣΤΟΑ",
                    "Postal_code":"104 31"
                },
                {
                    "id":16,
                    "City":"ΑΘΗΝΑ",
                    "Street":"ΝΑΣΤΟΥ ΣΤΟΑ",
                    "Postal_code":"104 31"
                },
                {
                    "id":17,
                    "City":"ΑΘΗΝΑ",
                    "Street":"ΠΛΑΤΕΙΑ ΟΜΟΝΟΙΑΣ",
                    "Postal_code":"104 31"
                },
                {
                    "id":18,
                    "City":"ΑΘΗΝΑ",
                    "Street":"ΟΜΟΝΟΙΑΣ ΣΤΟΑ",
                    "Postal_code":"104 31"
                },
                {
                    "id":19,
                    "City":"ΑΘΗΝΑ",
                    "Street":"ΟΥΛΕΝ ΣΤΟΑ",
                    "Postal_code":"104 31"
                },
                {
                    "id":20,
                    "City":"ΑΘΗΝΑ",
                    "Street":"ΠΑΝΕΠΙΣΤΗΜΙΟΥ",
                    "Postal_code":"105 64"
                },
                {
                    "id":21,
                    "City":"ΑΘΗΝΑ",
                    "Street":"ΠΑΤΗΣΙΩΝ",
                    "Postal_code":"104 31"
                },
                {
                    "id":22,
                    "City":"ΑΘΗΝΑ",
                    "Street":"ΠΕΙΡΑΙΩΣ",
                    "Postal_code":"105 52"
                },
                {
                    "id":23,
                    "City":"ΑΘΗΝΑ",
                    "Street":"ΣΑΤΩΒΡΙΑΝΔΟΥ",
                    "Postal_code":"104 31"
                },
                {
                    "id":24,
                    "City":"ΑΘΗΝΑ",
                    "Street":"ΣΩΚΡΑΤΟΥΣ",
                    "Postal_code":"105 52"
                },
                {
                    "id":25,
                    "City":"ΑΘΗΝΑ",
                    "Street":"3ΗΣ (Γ') ΣΕΠΤΕΜΒΡΙΟΥ",
                    "Postal_code":"104 32"
                },
                {
                    "id":26,
                    "City":"ΑΘΗΝΑ",
                    "Street":"ΑΡΙΣΤΟΤΕΛΟΥΣ",
                    "Postal_code":"104 32"
                },
                {
                    "id":27,
                    "City":"ΑΘΗΝΑ",
                    "Street":"ΑΧΑΡΝΩΝ",
                    "Postal_code":"104 38"
                },
                {
                    "id":28,
                    "City":"ΑΘΗΝΑ",
                    "Street":"ΒΕΡΑΝΖΕΡΟΥ",
                    "Postal_code":"106 77"
                },
                {
                    "id":29,
                    "City":"ΑΘΗΝΑ",
                    "Street":"ΔΕΚΑΝΕΑ ΣΤΟΑ",
                    "Postal_code":"104 32"
                },
                {
                    "id":30,
                    "City":"ΑΘΗΝΑ",
                    "Street":"ΔΩΡΟΥ",
                    "Postal_code":"104 32"
                },
                {
                    "id":31,
                    "City":"ΑΘΗΝΑ",
                    "Street":"ΙΩΝΟΣ",
                    "Postal_code":"104 32"
                },
                {
                    "id":32,
                    "City":"ΑΘΗΝΑ",
                    "Street":"ΚΑΜΑΤΕΡΟΥ",
                    "Postal_code":"104 32"
                },
                {
                    "id":33,
                    "City":"ΑΘΗΝΑ",
                    "Street":"ΚΑΠΟΔΙΣΤΡΙΟΥ",
                    "Postal_code":"106 77"
                },
                {
                    "id":34,
                    "City":"ΑΘΗΝΑ",
                    "Street":"ΚΟΤΖΑΜΑΝΗ ΣΤΟΑ",
                    "Postal_code":"104 32"
                },
                {
                    "id":35,
                    "City":"ΑΘΗΝΑ",
                    "Street":"ΚΟΤΟΠΟΥΛΗ",
                    "Postal_code":"104 32"
                },
                {
                    "id":36,
                    "City":"ΑΘΗΝΑ",
                    "Street":"ΠΛΑΤΕΙΑ ΛΑΥΡΙΟΥ",
                    "Postal_code":"104 32"
                },
                {
                    "id":37,
                    "City":"ΑΘΗΝΑ",
                    "Street":"ΛΑΥΡΙΟΥ ΣΤΟΑ",
                    "Postal_code":"104 32"
                },
                {
                    "id":38,
                    "City":"ΑΘΗΝΑ",
                    "Street":"ΛΟΥΙΖΙΔΟΥ Σ. ΣΤΟΑ",
                    "Postal_code":"104 32"
                },
                {
                    "id":39,
                    "City":"ΑΘΗΝΑ",
                    "Street":"ΛΟΥΞ ΣΤΟΑ",
                    "Postal_code":"104 32"
                },
                {
                    "id":40,
                    "City":"ΑΘΗΝΑ",
                    "Street":"ΜΑΡΝΗ",
                    "Postal_code":"104 33"
                },
                {
                    "id":41,
                    "City":"ΑΘΗΝΑ",
                    "Street":"ΜΕΝΑΝΔΡΟΥ",
                    "Postal_code":"105 52"
                },
                {
                    "id":42,
                    "City":"ΑΘΗΝΑ",
                    "Street":"ΞΟΥΘΟΥ",
                    "Postal_code":"104 32"
                },
                {
                    "id":43,
                    "City":"ΑΘΗΝΑ",
                    "Street":"ΠΑΤΗΣΙΩΝ",
                    "Postal_code":"104 32"
                },
                {
                    "id":44,
                    "City":"ΑΘΗΝΑ",
                    "Street":"ΣΑΤΩΒΡΙΑΝΔΟΥ",
                    "Postal_code":"104 32"
                },
                {
                    "id":45,
                    "City":"ΑΘΗΝΑ",
                    "Street":"ΣΟΛΩΜΟΥ",
                    "Postal_code":"104 32"
                },
                {
                    "id":46,
                    "City":"ΑΘΗΝΑ",
                    "Street":"ΣΤΟΥΡΝΑΡΑ",
                    "Postal_code":"106 83"
                },
                {
                    "id":47,
                    "City":"ΑΘΗΝΑ",
                    "Street":"ΣΩΚΡΑΤΟΥΣ",
                    "Postal_code":"104 31"
                },
                {
                    "id":48,
                    "City":"ΑΘΗΝΑ",
                    "Street":"ΧΑΛΚΟΚΟΝΔΥΛΗ",
                    "Postal_code":"106 77"
                },
                {
                    "id":49,
                    "City":"ΑΘΗΝΑ",
                    "Street":"3ΗΣ (Γ') ΣΕΠΤΕΜΒΡΙΟΥ",
                    "Postal_code":"104 33"
                },
                {
                    "id":50,
                    "City":"ΑΘΗΝΑ",
                    "Street":"ΑΒΕΡΩΦ",
                    "Postal_code":"104 33"
                },
                {
                    "id":51,
                    "City":"ΑΘΗΝΑ",
                    "Street":"ΑΛΙΤΣΗΣ",
                    "Postal_code":"104 33"
                },
                {
                    "id":52,
                    "City":"ΑΘΗΝΑ",
                    "Street":"ΑΡΙΣΤΟΤΕΛΟΥΣ",
                    "Postal_code":"104 33"
                },
                {
                    "id":53,
                    "City":"ΑΘΗΝΑ",
                    "Street":"ΑΧΑΡΝΩΝ",
                    "Postal_code":"104 39"
                },
                {
                    "id":54,
                    "City":"ΑΘΗΝΑ",
                    "Street":"ΗΠΕΙΡΟΥ",
                    "Postal_code":"104 33"
                },
                {
                    "id":55,
                    "City":"ΑΘΗΝΑ",
                    "Street":"ΙΟΥΛΙΑΝΟΥ",
                    "Postal_code":"106 82"
                },
                {
                    "id":56,
                    "City":"ΑΘΗΝΑ",
                    "Street":"ΚΑΠΝΟΚΟΠΤΗΡΙΟΥ",
                    "Postal_code":"104 33"
                },
                {
                    "id":57,
                    "City":"ΑΘΗΝΑ",
                    "Street":"ΜΑΚΕΔΟΝΙΑΣ",
                    "Postal_code":"104 33"
                },
                {
                    "id":58,
                    "City":"ΑΘΗΝΑ",
                    "Street":"ΜΑΡΝΗ",
                    "Postal_code":"104 32"
                },
                {
                    "id":59,
                    "City":"ΑΘΗΝΑ",
                    "Street":"ΠΑΤΗΣΙΩΝ",
                    "Postal_code":"104 33"
                },
                {
                    "id":60,
                    "City":"ΑΘΗΝΑ",
                    "Street":"ΠΟΛΥΤΕΧΝΕΙΟΥ",
                    "Postal_code":"104 33"
                },
                {
                    "id":61,
                    "City":"ΑΘΗΝΑ",
                    "Street":"ΣΜΥΡΝΗΣ",
                    "Postal_code":"104 33"
                },
                {
                    "id":62,
                    "City":"ΑΘΗΝΑ",
                    "Street":"ΣΤΟΥΡΝΑΡΑ",
                    "Postal_code":"106 82"
                },
                {
                    "id":63,
                    "City":"ΑΘΗΝΑ",
                    "Street":"ΤΡΙΚΟΡΦΟΥ",
                    "Postal_code":"104 33"
                },
                {
                    "id":64,
                    "City":"ΑΘΗΝΑ",
                    "Street":"ΦΑΙΣΤΟΥ",
                    "Postal_code":"104 33"
                },
                {
                    "id":65,
                    "City":"ΑΘΗΝΑ",
                    "Street":"ΦΥΛΗΣ",
                    "Postal_code":"104 33"
                },
                {
                    "id":66,
                    "City":"ΑΘΗΝΑ",
                    "Street":"3ΗΣ (Γ') ΣΕΠΤΕΜΒΡΙΟΥ",
                    "Postal_code":"104 34"
                },
                {
                    "id":67,
                    "City":"ΑΘΗΝΑ",
                    "Street":"ΑΓΚΥΡΑΣ",
                    "Postal_code":"104 34"
                },
                {
                    "id":68,
                    "City":"ΑΘΗΝΑ",
                    "Street":"ΠΛΑΤΕΙΑ ΑΙΓΥΠΤΟΥ",
                    "Postal_code":"104 34"
                },
                {
                    "id":69,
                    "City":"ΑΘΗΝΑ",
                    "Street":"ΑΙΝΙΑΝΟΣ",
                    "Postal_code":"104 34"
                },
                {
                    "id":70,
                    "City":"ΑΘΗΝΑ",
                    "Street":"ΑΜΦΙΛΟΧΙΑΣ",
                    "Postal_code":"104 34"
                },
                {
                    "id":71,
                    "City":"ΑΘΗΝΑ",
                    "Street":"ΑΝΤΩΝΙΑΔΟΥ ΕΜΜ.",
                    "Postal_code":"104 34"
                },
                {
                    "id":72,
                    "City":"ΑΘΗΝΑ",
                    "Street":"ΑΡΙΣΤΟΤΕΛΟΥΣ",
                    "Postal_code":"104 34"
                },
                {
                    "id":73,
                    "City":"ΑΘΗΝΑ",
                    "Street":"ΑΤΤΑΛΕΙΑΣ",
                    "Postal_code":"104 34"
                },
                {
                    "id":74,
                    "City":"ΑΘΗΝΑ",
                    "Street":"ΑΧΑΡΝΩΝ",
                    "Postal_code":"104 40"
                },
                {
                    "id":75,
                    "City":"ΑΘΗΝΑ",
                    "Street":"ΠΛΑΤΕΙΑ ΒΙΚΤΩΡΙΑΣ",
                    "Postal_code":"104 34"
                },
                {
                    "id":76,
                    "City":"ΑΘΗΝΑ",
                    "Street":"ΓΚΥΙΛΦΟΡΔΟΥ",
                    "Postal_code":"104 34"
                },
                {
                    "id":77,
                    "City":"ΑΘΗΝΑ",
                    "Street":"ΔΕΡΙΓΝΥ",
                    "Postal_code":"104 34"
                },
                {
                    "id":78,
                    "City":"ΑΘΗΝΑ",
                    "Street":"ΔΙΔΥΜΟΥ",
                    "Postal_code":"104 34"
                },
                {
                    "id":79,
                    "City":"ΑΘΗΝΑ",
                    "Street":"ΕΛΠΙΔΟΣ",
                    "Postal_code":"104 34"
                },
                {
                    "id":80,
                    "City":"ΑΘΗΝΑ",
                    "Street":"ΙΟΥΛΙΑΝΟΥ",
                    "Postal_code":"104 33"
                },
                {
                    "id":81,
                    "City":"ΑΘΗΝΑ",
                    "Street":"ΚΑΤΡΙΒΑΝΟΥ",
                    "Postal_code":"104 34"
                },
                {
                    "id":82,
                    "City":"ΑΘΗΝΑ",
                    "Street":"ΚΟΔΡΙΓΚΤΩΝΟΣ",
                    "Postal_code":"104 34"
                },
                {
                    "id":83,
                    "City":"ΑΘΗΝΑ",
                    "Street":"ΚΟΤΣΙΚΑ",
                    "Postal_code":"104 34"
                },
                {
                    "id":84,
                    "City":"ΑΘΗΝΑ",
                    "Street":"ΠΛΑΤΕΙΑ ΚΥΡΙΑΚΟΥ",
                    "Postal_code":"104 34"
                },
                {
                    "id":85,
                    "City":"ΑΘΗΝΑ",
                    "Street":"ΜΑΥΡΟΜΜΑΤΑΙΩΝ",
                    "Postal_code":"106 82"
                },
                {
                    "id":86,
                    "City":"ΑΘΗΝΑ",
                    "Street":"ΜΟΝΗΣ ΠΡΟΔΡΟΜΟΥ",
                    "Postal_code":"104 34"
                },
                {
                    "id":87,
                    "City":"ΑΘΗΝΑ",
                    "Street":"ΜΥΡΩΝ",
                    "Postal_code":"104 34"
                },
                {
                    "id":88,
                    "City":"ΑΘΗΝΑ",
                    "Street":"ΝΙΚΑΙΑΣ",
                    "Postal_code":"104 34"
                },
                {
                    "id":89,
                    "City":"ΑΘΗΝΑ",
                    "Street":"ΠΑΤΗΣΙΩΝ",
                    "Postal_code":"106 77"
                },
                {
                    "id":90,
                    "City":"ΑΘΗΝΑ",
                    "Street":"ΡΙΖΟΥ",
                    "Postal_code":"104 34"
                },
                {
                    "id":91,
                    "City":"ΑΘΗΝΑ",
                    "Street":"ΦΕΡΩΝ",
                    "Postal_code":"104 34"
                },
                {
                    "id":92,
                    "City":"ΑΘΗΝΑ",
                    "Street":"ΦΙΛΙΠΠΙΔΟΥ",
                    "Postal_code":"104 34"
                },
                {
                    "id":93,
                    "City":"ΑΘΗΝΑ",
                    "Street":"ΦΥΛΗΣ",
                    "Postal_code":"104 34"
                },
                {
                    "id":94,
                    "City":"ΑΘΗΝΑ",
                    "Street":"ΦΩΚΑΙΑΣ",
                    "Postal_code":"104 34"
                },
                {
                    "id":95,
                    "City":"ΑΘΗΝΑ",
                    "Street":"ΧΑΜΙΛΤΩΝ",
                    "Postal_code":"104 34"
                },
                {
                    "id":96,
                    "City":"ΑΘΗΝΑ",
                    "Street":"ΧΕΥΔΕΝ",
                    "Postal_code":"104 34"
                },
                {
                    "id":97,
                    "City":"ΑΘΗΝΑ",
                    "Street":"ΑΓΗΣΙΛΑΟΥ",
                    "Postal_code":"104 37"
                },
                {
                    "id":98,
                    "City":"ΑΘΗΝΑ",
                    "Street":"ΑΓΙΟΥ ΟΡΟΥΣ",
                    "Postal_code":"104 35"
                },
                {
                    "id":99,
                    "City":"ΑΘΗΝΑ",
                    "Street":"ΑΙΣΩΝΟΣ",
                    "Postal_code":"104 35"
                },
                {
                    "id":100,
                    "City":"ΑΘΗΝΑ",
                    "Street":"ΑΜΑΖΟΝΩΝ",
                    "Postal_code":"104 35"
                }
            ],
            "headers":{
                "access-control-allow-credentials":"true",
                "access-control-allow-origin":"*",
                "cache-control":"no-cache",
                "connection":"keep-alive",
                "content-length":"11479",
                "content-type":"application/json; charset=utf-8",
                "date":"Wed, 08 Dec 2021 13:02:16 GMT",
                "etag":"W/\"2cd7-yV23k6Jd2MUAx9+sJG8OGEDiqiM\"",
                "expires":"-1",
                "pragma":"no-cache",
                "server":"RapidAPI-1.2.8",
                "vary":"Origin, Accept-Encoding",
                "x-content-type-options":"nosniff",
                "x-powered-by":"Express",
                "x-rapidapi-region":"AWS - eu-central-1",
                "x-rapidapi-version":"1.2.8",
                "x-ratelimit-limit":"100",
                "x-ratelimit-remaining":"98",
                "x-ratelimit-reset":"1638968560"
            },
            "schema":{}
        }
    ]
}